{"type": "FeatureCollection", "features": [{"type": "Feature", "properties": {"status": "ok", "version": 6, "n_rows": 6, "n_parcels": 6, "n_matched": 6, "foral": 0, "public_domain": 0, "declared_m2": {"expropriation": 0, "easement": 0, "temporary": 0}, "parcels_m2": 48828, "catastro_date": "2026-08-21", "identifier": "BOE-B-2026-31586"}, "geometry": {"type": "Polygon", "coordinates": [[[-5.236513190277392, 39.04340272208275], [-5.236883529947583, 39.04373754086808], [-5.236831145510999, 39.04378368537169], [-5.23695401797179, 39.04401999885166], [-5.2371598753377375, 39.04401902188813], [-5.237873268898651, 39.04413103069893], [-5.238349871031096, 39.044402271999424], [-5.238110887527518, 39.04487662510661], [-5.2386361266598325, 39.04504872398694], [-5.23838780645526, 39.045388203717174], [-5.239782403154124, 39.04591995230882], [-5.2397272709123905, 39.046003451673265], [-5.23964055218934, 39.04598682770973], [-5.239548904008499, 39.04606651908329], [-5.2383066011864985, 39.04549877760791], [-5.238235826501842, 39.045595550808514], [-5.23940921182886, 39.04619461521563], [-5.2391694677966045, 39.046498342903384], [-5.238926084580196, 39.046540584025436], [-5.238504972232144, 39.046526952687685], [-5.237908492642558, 39.04642279927098], [-5.2375819867334075, 39.04641942161483], [-5.23647287846504, 39.045161751039764], [-5.2361259442285695, 39.04465322258028], [-5.23622981853118, 39.044418960488926], [-5.236266817012003, 39.04360628689677], [-5.236305392855017, 39.04353626561326], [-5.236513190277392, 39.04340272208275]]]}}]}