{"type": "FeatureCollection", "features": [{"type": "Feature", "properties": {"status": "partial", "version": 6, "n_rows": 95, "n_parcels": 87, "n_matched": 84, "foral": 0, "public_domain": 0, "declared_m2": {"expropriation": 0, "easement": 0, "temporary": 0}, "parcels_m2": 19203993, "catastro_date": "2026-08-21", "identifier": "BOE-B-2026-28212"}, "geometry": {"type": "MultiPolygon", "coordinates": [[[[-4.043721167808505, 40.73779012860839], [-4.0437342394149285, 40.737809991082685], [-4.0433767763184365, 40.73792499980114], [-4.043366078271782, 40.73789938196602], [-4.043721167808505, 40.73779012860839]]], [[[-4.043376333379501, 40.742794600632045], [-4.043213148198384, 40.7428948981629], [-4.043166151635406, 40.74305567280108], [-4.0429585166648385, 40.74282026767329], [-4.042949359883729, 40.7427269331283], [-4.043015508656857, 40.74253355517556], [-4.042976921369781, 40.74241382168468], [-4.043027817532659, 40.74239651597256], [-4.042949635400518, 40.742289662008204], [-4.042791906708297, 40.74218532844821], [-4.042010216644256, 40.74201195017779], [-4.0414588359905546, 40.74198692912347], [-4.040878229729983, 40.7422520554704], [-4.040542284047442, 40.7423249902104], [-4.040557548988263, 40.74234529808878], [-4.039991060784852, 40.742673267391794], [-4.039927575506365, 40.742743562374855], [-4.039714270366072, 40.742698460272756], [-4.039549148192764, 40.74276597944314], [-4.039328298630436, 40.742928588652596], [-4.038860575596426, 40.74270812983935], [-4.038495728968009, 40.74275843739157], [-4.037838791588709, 40.742929827058234], [-4.0373375654737105, 40.74320593719873], [-4.036958376315897, 40.743507428964364], [-4.03665612146717, 40.74363022658387], [-4.036143244267642, 40.74390417958157], [-4.035558828981472, 40.744346148655794], [-4.035394473072801, 40.74438762068175], [-4.034994439582707, 40.74466731694961], [-4.03409560027706, 40.745106152411765], [-4.033679887976044, 40.74565136809044], [-4.033660013199439, 40.745982245104564], [-4.033579694095662, 40.74613448603789], [-4.03360530396232, 40.746289106856], [-4.033541802948332, 40.747145475089496], [-4.0338450725845325, 40.74820376527409], [-4.034322119713194, 40.74930770117222], [-4.034208258169584, 40.74934412465811], [-4.0343936293028895, 40.74971810955702], [-4.034472083859943, 40.75016422350691], [-4.034508147018191, 40.750236417940684], [-4.034840851754312, 40.75018830291062], [-4.035064134657434, 40.75084490534062], [-4.034703779507422, 40.75118072276059], [-4.03456124745704, 40.751461621603895], [-4.034451445130315, 40.751576742427396], [-4.034440972501956, 40.751734118603714], [-4.034282240715193, 40.751902377025175], [-4.034281037212256, 40.75213849817768], [-4.034081459038437, 40.75222415495268], [-4.033717839124934, 40.7523037138238], [-4.033297464359344, 40.752229461205346], [-4.032983846511941, 40.75224866413677], [-4.032851014617594, 40.752299669538615], [-4.0326722202539775, 40.75246549286372], [-4.0319778297416295, 40.7527120442333], [-4.031828839507585, 40.7527217542765], [-4.031426311782051, 40.752621936068365], [-4.031339731179463, 40.75263811423197], [-4.0311673180589604, 40.75288756631041], [-4.031212079826086, 40.75310885874664], [-4.0311679497191895, 40.75327383667301], [-4.031247187252911, 40.75366400340332], [-4.031210875616828, 40.75377495111117], [-4.031115862709025, 40.75387417187923], [-4.030921192096199, 40.75398670997305], [-4.0306415111137035, 40.75421766126831], [-4.030399786069789, 40.75429801278163], [-4.0302465779023375, 40.75427262566808], [-4.030032652168485, 40.75442722324746], [-4.028856399230743, 40.7550628047383], [-4.028230702026164, 40.75557239714516], [-4.027525650588496, 40.75599873440429], [-4.027243664722163, 40.75608087912877], [-4.026962885479384, 40.756357323710134], [-4.026857903502077, 40.75641753320038], [-4.02644364941125, 40.75656525842162], [-4.026391749692127, 40.75675705853573], [-4.025448859813904, 40.757427193677174], [-4.025200042240241, 40.75764118744678], [-4.025029260974863, 40.757844943155504], [-4.024759061296979, 40.758409822992164], [-4.024226315534515, 40.75879686913826], [-4.023995084635062, 40.7590222349511], [-4.0239362836899675, 40.759112300212266], [-4.023927704667391, 40.759201739673685], [-4.024084636627308, 40.7596239221395], [-4.024036575964367, 40.759734521368486], [-4.023969054035479, 40.75979673798468], [-4.022738803991869, 40.760428497671604], [-4.021902151393906, 40.76091650318665], [-4.021250365015608, 40.76118342666133], [-4.0209410490006245, 40.761440286051624], [-4.020629240865747, 40.76189103189368], [-4.0205811425075675, 40.76199964364542], [-4.0206656371136065, 40.7619235906399], [-4.020651122821938, 40.762144240099644], [-4.020287576517407, 40.76262093633851], [-4.020113567235134, 40.76306478250588], [-4.019603659130775, 40.76346187038258], [-4.019377770790131, 40.763852848568234], [-4.019122571028364, 40.76413273688502], [-4.01903678122924, 40.76428717772969], [-4.019046731008651, 40.76482218853727], [-4.019319091404253, 40.765518649764914], [-4.019346603252615, 40.76572181626714], [-4.019268604609021, 40.76614626004193], [-4.0191378763168935, 40.76655458949407], [-4.019128281868284, 40.766810692725926], [-4.018856710105247, 40.767237381553215], [-4.018759219421267, 40.767308687901654], [-4.018214671920047, 40.76745690769927], [-4.017958385069434, 40.76757321054219], [-4.017880548158843, 40.76770614033274], [-4.017848972981657, 40.76802846881206], [-4.0178100997805055, 40.768136552037134], [-4.017683922862219, 40.768207205146155], [-4.017264707858479, 40.76833098334295], [-4.016844140486733, 40.76854530625578], [-4.016333990176398, 40.76891454571432], [-4.01604698728053, 40.769177411081984], [-4.015761982150362, 40.76950197011481], [-4.0156965575686145, 40.76960190852898], [-4.015658538538203, 40.76976637150464], [-4.015589231541146, 40.76984481397781], [-4.0154045187475145, 40.769915714006196], [-4.014847001836463, 40.76991431263505], [-4.014638985399286, 40.769956679624386], [-4.013682035067474, 40.77057918280377], [-4.0135709451667605, 40.770691952723695], [-4.013409125052213, 40.77094407741137], [-4.012436912532181, 40.77160102622818], [-4.012306170767064, 40.771762072129505], [-4.012163576773702, 40.77210293915666], [-4.01181735198921, 40.77241630994538], [-4.011591330044161, 40.77290537051642], [-4.011197758663647, 40.7732616785636], [-4.010931586139985, 40.77399485651564], [-4.010854644505901, 40.7742973069254], [-4.010628732811374, 40.774653765634056], [-4.010476794176197, 40.774816436398574], [-4.010350373138201, 40.77505220726716], [-4.010153766748031, 40.775293641626], [-4.009900342616104, 40.77557097136531], [-4.00964216910098, 40.77576916292417], [-4.0120349001095095, 40.7710098234502], [-4.009569465071911, 40.775913662655036], [-4.009799269700801, 40.77579841672117], [-4.010287745216925, 40.77530634158467], [-4.010424802624215, 40.77513902694381], [-4.010664044540635, 40.77472408208351], [-4.010878869600839, 40.77452779940927], [-4.0110011371726975, 40.77422107827599], [-4.011252697335113, 40.77333695763375], [-4.011349974612343, 40.77320359174599], [-4.011541905639367, 40.77306083810098], [-4.0116752495224315, 40.772914814277954], [-4.0118528659838, 40.77249995669506], [-4.01221750567342, 40.77221317467381], [-4.012357399230768, 40.771835311312], [-4.012431913659057, 40.7717400695002], [-4.012746260427572, 40.771489314672436], [-4.0133428103558435, 40.77108752830691], [-4.013614925002433, 40.77084137590606], [-4.013769871578404, 40.770628227551775], [-4.014144118054327, 40.77042117383315], [-4.014704742479521, 40.7700264524266], [-4.01481448853028, 40.76998909794761], [-4.0153599192156655, 40.770006010166405], [-4.015619632668613, 40.76990373152415], [-4.0157116002803654, 40.76981941428947], [-4.0160446810543995, 40.76933715012987], [-4.016337299461523, 40.769053966438115], [-4.016600964908273, 40.76888480852861], [-4.016816292019964, 40.76866941250698], [-4.017165264725205, 40.76849202911791], [-4.017824524167397, 40.76825875874771], [-4.0179241618249515, 40.768195992224875], [-4.017962807706268, 40.76804196817784], [-4.017948741431334, 40.7677491394032], [-4.018007396613584, 40.767632593892756], [-4.018214202127219, 40.767550324355234], [-4.018643409018388, 40.76747609524844], [-4.018916433526509, 40.76732315461033], [-4.019077346181324, 40.76718417554288], [-4.0192248745895744, 40.76693658768654], [-4.019252157687927, 40.76677581716925], [-4.019245896151487, 40.76642805846181], [-4.019397395747893, 40.766091972869184], [-4.019428141401789, 40.76583180912742], [-4.019379511601744, 40.76543298672619], [-4.019142703275915, 40.764791343030865], [-4.019225933053024, 40.76433748567487], [-4.019329252846808, 40.76408154989997], [-4.0195895513112845, 40.763717112817766], [-4.019715041458957, 40.76347043960718], [-4.020121261509306, 40.76318056247215], [-4.020224298728813, 40.763061821742355], [-4.020383507902457, 40.7626186467817], [-4.020680358289888, 40.762243073898716], [-4.0207435462818655, 40.76210630801498], [-4.020758633322692, 40.76189213952382], [-4.020914215888937, 40.76183950542492], [-4.024223208356866, 40.76121924192755], [-4.0266809518121125, 40.76171899270099], [-4.031336818210646, 40.76216483942309], [-4.0344920768392685, 40.7601160323594], [-4.035018643686939, 40.75709531282077], [-4.035012201262637, 40.75437980139821], [-4.035928632756922, 40.754166191454004], [-4.0363437435139184, 40.754114089279405], [-4.036873193010204, 40.75390340588054], [-4.03711684051761, 40.75377203598531], [-4.037448490839939, 40.753517540355894], [-4.037593377911956, 40.75330481501888], [-4.037767166511251, 40.75319100763084], [-4.037989620557607, 40.75293875351264], [-4.038235287116556, 40.752739173971065], [-4.038462605001032, 40.75262461368861], [-4.039350643103724, 40.752347542682], [-4.04013413778934, 40.75225652536589], [-4.0405601399338105, 40.75228853847117], [-4.041160496706854, 40.752463742179266], [-4.041470361128002, 40.75260643191727], [-4.042138028587816, 40.75284363594662], [-4.042432142485706, 40.752865032041974], [-4.042452519408974, 40.75296412057621], [-4.042546571597534, 40.75309272169856], [-4.042712525862203, 40.753236253130815], [-4.042804274146779, 40.75339171988911], [-4.043069033963278, 40.75361913149106], [-4.043261355707679, 40.75383512608952], [-4.043395820663783, 40.75386616049949], [-4.0435956629589045, 40.7539796610139], [-4.043708691139871, 40.75410944081229], [-4.043858232593594, 40.754187902679604], [-4.0439149941528525, 40.75431819120762], [-4.043721820133928, 40.75456298510522], [-4.043737988489825, 40.75490749573758], [-4.043784222829121, 40.75495509233629], [-4.043978718498341, 40.75500675281161], [-4.0440744438537894, 40.755075341553095], [-4.0440330636647674, 40.75532326672146], [-4.043985381611579, 40.755220642007586], [-4.043694173412097, 40.75498428323445], [-4.043313586029768, 40.75492592701323], [-4.043156417191315, 40.754935545463454], [-4.043107958978394, 40.75497300800463], [-4.043091109210166, 40.75528232856925], [-4.042996652007889, 40.75582539331816], [-4.043035767755175, 40.75589503503805], [-4.043106576550843, 40.75592322189758], [-4.043102996281202, 40.75604279570021], [-4.04284471922698, 40.756905877813736], [-4.042831684213237, 40.75709553226964], [-4.042904427041047, 40.757247387046746], [-4.043041083626801, 40.757312093425774], [-4.043288095696577, 40.75758533729894], [-4.043125099808933, 40.757950114837854], [-4.0430370810840275, 40.75842817517027], [-4.042683750101085, 40.7592589648272], [-4.042566608214818, 40.75941226053363], [-4.042375759751474, 40.759579648926355], [-4.042060290885534, 40.75964925024386], [-4.041795462788688, 40.75979856373084], [-4.041243904221931, 40.76036332325745], [-4.04081570701535, 40.76064238795799], [-4.040726972386938, 40.76082479742597], [-4.040654298945037, 40.76089761002791], [-4.040275805225263, 40.76103632416676], [-4.039962937389415, 40.761266155596765], [-4.03960512126122, 40.76132550193541], [-4.039508673208047, 40.761446542719696], [-4.039316437529867, 40.76152574187979], [-4.039185373685396, 40.76166069681939], [-4.039098374050844, 40.761970468042264], [-4.039131692410379, 40.762139525763814], [-4.039242339605531, 40.7625039952367], [-4.039508397502616, 40.762995618946775], [-4.0400230454845305, 40.76346599412748], [-4.0402836292476545, 40.76363633609991], [-4.040494736730678, 40.76371091401973], [-4.04065402298318, 40.76383568518538], [-4.040725706813726, 40.76393467147565], [-4.040715344689301, 40.76399953522943], [-4.040411876659674, 40.76439224023563], [-4.040244763818042, 40.764753361574364], [-4.039998598521696, 40.76514374721336], [-4.039736104979721, 40.76533772097364], [-4.038951589893721, 40.76560854792678], [-4.03882937755105, 40.76570378580914], [-4.038722715398036, 40.76595346747317], [-4.038660442081235, 40.76622292377781], [-4.038648152762663, 40.76668921826349], [-4.039013639813645, 40.766679261810275], [-4.040102322528561, 40.766279756066496], [-4.040356206480479, 40.76610297504518], [-4.040602146629809, 40.765842761883384], [-4.04093186647835, 40.76540125995589], [-4.04099579618694, 40.76523060945952], [-4.041386337093163, 40.763516582380234], [-4.041532904491292, 40.763228432552125], [-4.04173352606629, 40.76301843780097], [-4.0422329800931625, 40.76276512079973], [-4.042823436412165, 40.76260340086314], [-4.042961918093956, 40.762587105342426], [-4.043934623787079, 40.7627089360631], [-4.044151692424999, 40.76270255805408], [-4.04433464173696, 40.76266604006898], [-4.0445632445167545, 40.762518575641174], [-4.044672994827695, 40.762316519438365], [-4.0447899683939195, 40.761585060325054], [-4.044923090211671, 40.7612641517726], [-4.0462979027536035, 40.75985324135306], [-4.046443432786847, 40.75966697950976], [-4.046498098982029, 40.759541807650486], [-4.046477889119417, 40.75936362927918], [-4.046259408325391, 40.758704664605276], [-4.046093274864032, 40.757916319309544], [-4.046082529744323, 40.757646164894005], [-4.046128409330223, 40.7576860165169], [-4.04617445004516, 40.75806142932736], [-4.046315527607855, 40.75873262231243], [-4.046522199946326, 40.75943177679991], [-4.046529099189614, 40.7596525999822], [-4.046490278668791, 40.759760782468746], [-4.045053002974029, 40.76125315620491], [-4.044914205761094, 40.761589880976125], [-4.044793823627382, 40.762406590417605], [-4.044690336601007, 40.76256183650048], [-4.04458579850504, 40.762649984022126], [-4.0443752733873035, 40.76274134280262], [-4.044199291910903, 40.76277644654442], [-4.043495600951681, 40.76274263449375], [-4.043188638876111, 40.76268279702814], [-4.042795578791248, 40.76270094319346], [-4.042183801509407, 40.762900961025615], [-4.041891674718485, 40.763039981416604], [-4.0417433444850435, 40.76314644844046], [-4.041529563233017, 40.76342421496959], [-4.041140545618811, 40.764932297120346], [-4.04110386926085, 40.765216572316426], [-4.040673275725807, 40.76591364701081], [-4.0402982834498475, 40.76625627942715], [-4.040076375622996, 40.76636340756472], [-4.03912855309466, 40.766716242457335], [-4.038902551635274, 40.76675854484204], [-4.038641593661013, 40.76676296587812], [-4.0384525079930675, 40.7675935244467], [-4.038278329304118, 40.76817973125868], [-4.03839440425296, 40.76854235514854], [-4.039688528387575, 40.76944757538116], [-4.039590396429279, 40.770168674859605], [-4.039389243648635, 40.77103105268116], [-4.039360078789641, 40.7719124201389], [-4.039277127336185, 40.772794091735975], [-4.039216681919141, 40.77371375596232], [-4.039228000317837, 40.77444044949736], [-4.039440040929342, 40.77497606463255], [-4.039243476806799, 40.77543392891808], [-4.039237994328414, 40.775744041883186], [-4.039117951593206, 40.776299047591614], [-4.0388064555949885, 40.776986844121154], [-4.038601195793791, 40.77761783170406], [-4.038741328774193, 40.77826877153364], [-4.038613171396241, 40.77761826441454], [-4.038817872332636, 40.77698944385035], [-4.039129481094261, 40.776301285940384], [-4.039249856728102, 40.77574483588305], [-4.039255231897989, 40.7754354445537], [-4.039452485777694, 40.774976222779465], [-4.039239827393913, 40.7744389917244], [-4.039228534131734, 40.77371391947146], [-4.039371934893145, 40.77191285385057], [-4.0394011066139575, 40.77103193674743], [-4.039602146385201, 40.77016992025904], [-4.039701030303276, 40.76944385938748], [-4.039546823530717, 40.76895393167765], [-4.039568293902449, 40.76831648993751], [-4.039494094634007, 40.76786583846664], [-4.039455318346276, 40.767772590678895], [-4.038818515155974, 40.76731232152225], [-4.03882014427819, 40.76722672722085], [-4.03900950973634, 40.76704585011069], [-4.039325820080628, 40.766928955512086], [-4.039940926372729, 40.76681036311261], [-4.040346411421465, 40.766903548283935], [-4.04046692552079, 40.76688174244438], [-4.040644048211457, 40.76701770327048], [-4.041307168880316, 40.76781256187955], [-4.041668356361711, 40.76812630690695], [-4.041858408483594, 40.76846763024857], [-4.04217239019484, 40.76880864481063], [-4.042781560045059, 40.769340671459034], [-4.04391579748568, 40.769549049396325], [-4.044535525832853, 40.76979306342862], [-4.045380457527228, 40.77000359491261], [-4.045856524461783, 40.770160625609115], [-4.046998854371517, 40.77100416581651], [-4.047737102750799, 40.7713388823923], [-4.046534609941087, 40.772175407340946], [-4.046261439868193, 40.77227094098806], [-4.046159269987618, 40.772367356062716], [-4.046065787753326, 40.772625207888844], [-4.046090308953696, 40.772806053856826], [-4.04617846736263, 40.77298722371134], [-4.046176538736828, 40.77312110558686], [-4.045948391110347, 40.77329964780533], [-4.045678816565222, 40.773761243141884], [-4.045447301709639, 40.774042685952885], [-4.045206813370673, 40.77448546388631], [-4.04524899894406, 40.77462912558085], [-4.045117971647568, 40.77478237366392], [-4.045101598204398, 40.7748717903892], [-4.045170655353191, 40.77502124432793], [-4.045289624895277, 40.77507394663355], [-4.045378409331913, 40.775181603075076], [-4.0453889244860655, 40.775444552149466], [-4.045510255274663, 40.77560245055887], [-4.045558144994495, 40.77574705134587], [-4.045525147039355, 40.77595517336165], [-4.045583850296011, 40.77626830826147], [-4.045576448828271, 40.77646133452892], [-4.045790876093431, 40.776812609355005], [-4.045743296368826, 40.77702789007613], [-4.045834635328983, 40.777245690765334], [-4.045857675707571, 40.77749825663988], [-4.0457369065223325, 40.77773158682695], [-4.045749756924357, 40.777802906691655], [-4.046005056497722, 40.777941573556895], [-4.04619319560936, 40.77797644186431], [-4.046016890689535, 40.77792543139152], [-4.045771872858816, 40.77779252680502], [-4.045761358617035, 40.77773415781426], [-4.0458813096173465, 40.7775015556871], [-4.04585779360786, 40.77724133701881], [-4.045767076671456, 40.77702542246726], [-4.045815262870326, 40.776811037076314], [-4.045599481307409, 40.77645653155611], [-4.0456075160876415, 40.776266111974614], [-4.045548962275443, 40.77595495757364], [-4.045582075814839, 40.77574665433658], [-4.045531322535379, 40.77559325130614], [-4.045412075112679, 40.77543974814394], [-4.045401557044417, 40.77517661893077], [-4.045307209446461, 40.77506180620877], [-4.045189547450905, 40.77500936232863], [-4.045125757209425, 40.774870850906694], [-4.045140927547594, 40.77478784101684], [-4.045274789884605, 40.77463402672443], [-4.045231234607629, 40.774486143513236], [-4.04546851971093, 40.77405069133096], [-4.045699459051876, 40.77377033469778], [-4.045903005755533, 40.77345860200103], [-4.045918863315845, 40.773373779586], [-4.0461991613160295, 40.77312801709357], [-4.046201500014165, 40.772982510701596], [-4.046113598285743, 40.77280259970969], [-4.046089744291899, 40.77262652213503], [-4.046180732966581, 40.77237589959476], [-4.04627659690758, 40.7722853971202], [-4.046547648564239, 40.77219078348753], [-4.047042051342109, 40.77182389613558], [-4.047618527429431, 40.77146184225162], [-4.048016916973534, 40.77113870220713], [-4.048182683823849, 40.7710706246852], [-4.048293362252904, 40.77097268917706], [-4.04831904460871, 40.77090291122048], [-4.048322375829861, 40.77082838171071], [-4.0482786949099685, 40.77074815359498], [-4.048299735994035, 40.77066202256383], [-4.048527892953133, 40.77053780057696], [-4.048858774771389, 40.770420747503174], [-4.049020762596606, 40.77024063895701], [-4.049030768946639, 40.769904630225], [-4.0490025286309, 40.76978156230615], [-4.048902869087398, 40.76969805976556], [-4.048881233004723, 40.769603127993705], [-4.049041185703551, 40.76939168875382], [-4.0491100809999026, 40.769221434701315], [-4.049110739618744, 40.76899964701274], [-4.049304294703488, 40.76868736841421], [-4.049320623937926, 40.768610648730416], [-4.049290930234799, 40.76838012414052], [-4.049177136088716, 40.7681884696493], [-4.049203079546516, 40.7672537091809], [-4.0492561006511325, 40.76712936188271], [-4.049531924612677, 40.766804988691696], [-4.050198503625119, 40.7661866291276], [-4.05019023428749, 40.766112925757284], [-4.049936405122131, 40.76595993105965], [-4.049929743409247, 40.76589801401753], [-4.050240479675826, 40.765804922387005], [-4.050383214209106, 40.76569723427138], [-4.05056348492242, 40.76536958444553], [-4.050654103488977, 40.764819158098305], [-4.050739543528318, 40.76487279077804], [-4.050976355037621, 40.76487829587424], [-4.051035408358231, 40.76491153945641], [-4.05114568687662, 40.765022599237234], [-4.051183167539934, 40.765115404475225], [-4.051178033112584, 40.76523318627634], [-4.051223130405274, 40.76532060717052], [-4.051316366859762, 40.765380204006334], [-4.051714224573848, 40.76551521759261], [-4.051866539364151, 40.76551185195793], [-4.052366666187371, 40.76537757139823], [-4.0532417382446155, 40.76531499696331], [-4.05364318619517, 40.76514450147985], [-4.053887154231081, 40.76516794750727], [-4.054282623618107, 40.76530153269953], [-4.054615890523819, 40.76536010472386], [-4.054781774898893, 40.765450654195845], [-4.055015855244015, 40.76564291513517], [-4.053608396087309, 40.766325362653276], [-4.053415610356362, 40.76644494778807], [-4.053262889913476, 40.76659534040374], [-4.053135411571477, 40.76680612882912], [-4.0531562890085215, 40.767363372145994], [-4.053078242832487, 40.767530739375296], [-4.0522201043485415, 40.768082758969435], [-4.051426824465479, 40.768352579408145], [-4.051311377648534, 40.76840263682217], [-4.051175983447664, 40.76851773613635], [-4.051086481157834, 40.76868034184173], [-4.051032996416391, 40.76901612072548], [-4.051044724340155, 40.769151315188104], [-4.051476310619054, 40.76989904205669], [-4.051552752575192, 40.77063657712131], [-4.051860856886475, 40.77111202346096], [-4.0519935030938745, 40.771476013604804], [-4.052448652318086, 40.77216090897117], [-4.052759291808667, 40.77276568979576], [-4.053157984193457, 40.77331111170347], [-4.053502790528, 40.773610104819014], [-4.053283295719286, 40.77392271254607], [-4.052707023234964, 40.7742069559127], [-4.053292399770641, 40.773928935300646], [-4.053514876459206, 40.77361756150359], [-4.0539187503009, 40.77385241498445], [-4.054243119866064, 40.774117536370966], [-4.054878190142883, 40.77483231153654], [-4.055143021759101, 40.775595781262915], [-4.055476457567327, 40.777196841752506], [-4.055560976609357, 40.77740812541635], [-4.056368706222979, 40.778479299895565], [-4.056547761588492, 40.77879304312654], [-4.0566021192744435, 40.77973337367938], [-4.05658113469768, 40.779882383876235], [-4.0563680059548375, 40.78013377213501], [-4.055268984591579, 40.780487042298645], [-4.054964913790266, 40.78060828265205], [-4.05472458937834, 40.780759207605016], [-4.053823836219469, 40.781414052922216], [-4.052473806678166, 40.78224270295638], [-4.051712756681655, 40.78298886326406], [-4.050973584966825, 40.783447452783236], [-4.050753365349404, 40.783716821829636], [-4.050650753066891, 40.783944136122265], [-4.050499433964397, 40.78447213763377], [-4.050374137563947, 40.78506512247903], [-4.050345548491989, 40.785492558710196], [-4.05041226591844, 40.7856424808883], [-4.050557835060118, 40.785779704008206], [-4.049675911564792, 40.786237242604514], [-4.048729884343604, 40.78681705991813], [-4.049683018061406, 40.7862444747175], [-4.050565992496155, 40.785785935580066], [-4.050671920802273, 40.785866947038286], [-4.0510154861626395, 40.78599353828714], [-4.052208582282722, 40.786216971498376], [-4.053047652250028, 40.78630426926794], [-4.0537740503887, 40.786288989491275], [-4.054287660318039, 40.78620295677827], [-4.055259452322546, 40.78597444967524], [-4.055992877482423, 40.78570686245292], [-4.056865491835312, 40.785585192141816], [-4.057158246476962, 40.78558620368682], [-4.057644778248594, 40.78570678085925], [-4.057881798598302, 40.78581036599771], [-4.058122752489507, 40.78595265046109], [-4.058332855312337, 40.78613737645251], [-4.058530080092633, 40.786392124955945], [-4.059000689838833, 40.78772599161551], [-4.059066541259919, 40.78846938170218], [-4.059148638669769, 40.79018317657453], [-4.059574842540121, 40.792128838841144], [-4.058079018863544, 40.791808806939564], [-4.052972909405916, 40.790540292166995], [-4.051582093372687, 40.79056116952981], [-4.048742770239495, 40.79046989469859], [-4.047020952849067, 40.790297347789014], [-4.045689972260658, 40.789175627626584], [-4.044279188769647, 40.787042084550784], [-4.0423422175769455, 40.7840246936097], [-4.042235722196131, 40.78380044669636], [-4.041056369830139, 40.78417142311558], [-4.037735774568948, 40.78413907850178], [-4.037011218540277, 40.78384489365219], [-4.036628471293463, 40.78361979085198], [-4.036091057630236, 40.78351615710746], [-4.0356142453749575, 40.78329297652397], [-4.035209184011648, 40.78326363623565], [-4.034699030672392, 40.78315218438578], [-4.034185744842679, 40.782624396403676], [-4.033675801653553, 40.78231205164147], [-4.03237392255785, 40.781644206213514], [-4.032211911195136, 40.781590164107755], [-4.030303016793588, 40.781572447869834], [-4.029136854976549, 40.78162509950932], [-4.021520636402271, 40.781254322000414], [-4.022322402199, 40.779671666351696], [-4.022296475318655, 40.77241208157964], [-4.023032316272328, 40.772313292925965], [-4.02292063701392, 40.772245480383354], [-4.022530186859079, 40.77212876913413], [-4.022202104818519, 40.772076454524935], [-4.021612170402088, 40.77205627529844], [-4.021003988349648, 40.77216768231421], [-4.0206668938355525, 40.77237848785682], [-4.020539087133764, 40.772536544283575], [-4.020353754963209, 40.772884641104106], [-4.020098228347576, 40.77360990850981], [-4.01986811316004, 40.77407515350618], [-4.0193527299642655, 40.774731999782084], [-4.019090684534221, 40.774868624802636], [-4.018653951956449, 40.774888065534775], [-4.017424477861765, 40.77476838116537], [-4.016713754879244, 40.77477824440112], [-4.01641566802649, 40.77482077759351], [-4.015714087332067, 40.77503414354868], [-4.015495044532072, 40.77506156515439], [-4.015197877135124, 40.775086791021664], [-4.014414218903376, 40.775038547110334], [-4.0141931642575415, 40.77505877722714], [-4.01395347230371, 40.775123221674704], [-4.013698960567796, 40.77528075780586], [-4.012896877940335, 40.77591577097763], [-4.012820745729462, 40.776122821234004], [-4.012748327577211, 40.77668368348486], [-4.012684744999561, 40.77689044331559], [-4.012500259836522, 40.77704025008126], [-4.0116445016490125, 40.77752942485813], [-4.011226903264422, 40.777936300291245], [-4.010999002174013, 40.77824818099873], [-4.01054838459535, 40.779026393794844], [-4.010465359909834, 40.77927980583876], [-4.010313222247004, 40.78022034226137], [-4.010237966041661, 40.78037693613393], [-4.010119869540009, 40.780521473434646], [-4.009669494846516, 40.78096483919437], [-4.009294620070937, 40.78120602548577], [-4.009063590938084, 40.78128083372831], [-4.0083945817521425, 40.78140496222726], [-4.008039429360369, 40.78151245115906], [-4.0084538476154155, 40.78228356692179], [-4.009174875996895, 40.783803272123976], [-4.0099362443985616, 40.78469744752818], [-4.008438515738187, 40.78682477974225], [-4.0090133605968665, 40.78651771682268], [-4.009709482943588, 40.785937375460634], [-4.011812378170924, 40.78529300343341], [-4.012672260987089, 40.78445884314844], [-4.013574234041062, 40.784070392063136], [-4.014342480238158, 40.78305164096535], [-4.015171518864436, 40.78299534451458], [-4.015690950896528, 40.78272737317101], [-4.017730422487754, 40.78223302212153], [-4.018993192441573, 40.78105028939516], [-4.019204313438054, 40.781417049071884], [-4.019226930305647, 40.78153719030203], [-4.019355171518647, 40.781701180867884], [-4.019829161304749, 40.78271295180265], [-4.019849989177969, 40.783013106673096], [-4.019802641059542, 40.78321828082383], [-4.019813740791745, 40.78334772303097], [-4.019926378922333, 40.78364535478308], [-4.019940696863324, 40.78382980963473], [-4.019928437737272, 40.78412890113799], [-4.019847186000245, 40.78451175415471], [-4.0198242356468405, 40.78478563111061], [-4.019879258159572, 40.784989449974915], [-4.020080841671007, 40.785298366474535], [-4.0201069911746155, 40.78544271952032], [-4.020054213204952, 40.78572721979374], [-4.019795815211801, 40.78581057462406], [-4.018916558484349, 40.78633244509787], [-4.018192168879701, 40.78680573854845], [-4.017829890996304, 40.78688622660123], [-4.01650052852499, 40.78672038624129], [-4.015876906515245, 40.78670678075578], [-4.015476327925239, 40.786762460793405], [-4.014201425859635, 40.78710634829895], [-4.012713968711598, 40.78765125790828], [-4.01168871015463, 40.78812489882131], [-4.010639342414096, 40.78882295993282], [-4.009818680872994, 40.789472432362025], [-4.009330855169162, 40.790116109687986], [-4.009043140404472, 40.79063759329615], [-4.009200916488096, 40.79090484267744], [-4.009513725659222, 40.79125838682334], [-4.009465227907386, 40.791304033096736], [-4.009504440394279, 40.7912671264468], [-4.009636459586235, 40.79139499486498], [-4.009856856900197, 40.7913997642511], [-4.00996407733389, 40.79163518121482], [-4.009891538084568, 40.79165370044019], [-4.009955862075882, 40.79174511275002], [-4.010074433692761, 40.79182614094529], [-4.010305472639808, 40.79188258238473], [-4.010347208796019, 40.791930411636805], [-4.010382713132725, 40.79222430916876], [-4.010516357605416, 40.792509784680526], [-4.010522663772825, 40.79258954348631], [-4.010558557985346, 40.79267417791149], [-4.010767879793173, 40.792900616118246], [-4.010891378647843, 40.79332229177167], [-4.010889042969274, 40.793457437557066], [-4.0108209293177755, 40.79359306954099], [-4.010475285096466, 40.79392931166082], [-4.010100460203528, 40.79459281143719], [-4.009984303144137, 40.79473399826094], [-4.009465543488452, 40.79501995454469], [-4.009394572809017, 40.79517894229418], [-4.009330046507378, 40.79548912385788], [-4.00935414821574, 40.795609084432485], [-4.009574095840975, 40.795832368881555], [-4.009747684329333, 40.79607866508093], [-4.0097340696475445, 40.79637705072997], [-4.009766638623684, 40.79661764899156], [-4.009879831885821, 40.79706319769723], [-4.01009556201143, 40.79750046628152], [-4.010208754777601, 40.797937911582075], [-4.010464810925764, 40.79829032350391], [-4.010951895713769, 40.79878304713606], [-4.011083289609129, 40.79888008674501], [-4.011177223069677, 40.799008263058745], [-4.0112599754447835, 40.79933697298594], [-4.011345829226775, 40.80010462778204], [-4.011367205611484, 40.80055269109857], [-4.011340241598689, 40.800979022099895], [-4.010199671779812, 40.800968200472596], [-4.009244161172686, 40.800911067534386], [-4.008280080927785, 40.80099255440767], [-4.007628476641558, 40.801144087582344], [-4.007603803644599, 40.80140212186967], [-4.007421284499199, 40.8016714391826], [-4.006997913395715, 40.80203771646319], [-4.0065428011156135, 40.80235094421238], [-4.00633700290131, 40.80254758538141], [-4.006238843575241, 40.80276725415731], [-4.006229312146835, 40.80299957234885], [-4.006393368597903, 40.80368168988205], [-4.006424237513522, 40.80406139242389], [-4.006294697520866, 40.80469202063884], [-4.005904430314588, 40.80570597035025], [-4.005953165610891, 40.80619334692028], [-4.0059581435797185, 40.80673533064685], [-4.005905675813076, 40.80708423056004], [-4.005730853822007, 40.807802363248705], [-4.005804554312755, 40.80906440992947], [-4.005869627326572, 40.80936165808915], [-4.005983153264042, 40.80952326865177], [-4.0061454507883925, 40.809648060110675], [-4.006504857416676, 40.809753295413465], [-4.006775124461339, 40.8097420190184], [-4.007246122370503, 40.80960539987907], [-4.007807260512002, 40.80936970604432], [-4.008734544034696, 40.80889335809386], [-4.009270482132957, 40.80870102738799], [-4.009665958783202, 40.808643881922904], [-4.011263572344579, 40.8085518818061], [-4.0117978945392325, 40.8083943257], [-4.012609984900286, 40.80800948604753], [-4.012890975398221, 40.808002249560495], [-4.013151487150719, 40.80806725437636], [-4.014003436267233, 40.80848766545146], [-4.014873248904166, 40.808795489080374], [-4.015031515827086, 40.80893489695511], [-4.015157442141974, 40.809177103964494], [-4.015215142243875, 40.809447206441355], [-4.015223889304611, 40.81037146949472], [-4.015398210123615, 40.811354000465855], [-4.015463036486528, 40.81156989545167], [-4.015571332819876, 40.811697400912955], [-4.01575498474488, 40.81180595593596], [-4.016074742392758, 40.81188295398745], [-4.016454442748838, 40.81188664028701], [-4.0165498510344815, 40.81195417284134], [-4.016567966955471, 40.8120224764799], [-4.016537723762203, 40.812099944299064], [-4.016430436934071, 40.81219412122009], [-4.016144432902904, 40.81230906451124], [-4.015666813219035, 40.81236876155772], [-4.015180779404139, 40.812319885774066], [-4.014837990455168, 40.81217876841108], [-4.014592700732606, 40.81198562533992], [-4.014504238823226, 40.81184470231083], [-4.014402101706394, 40.81153724993057], [-4.014323412244913, 40.8114774058404], [-4.014315494197621, 40.811627009159295], [-4.014437286455106, 40.81207284133127], [-4.014503253785815, 40.81222369120536], [-4.014644459904484, 40.812402345659706], [-4.015529723713176, 40.81294271307254], [-4.016048019777711, 40.813178581764554], [-4.016442020133222, 40.81327195061132], [-4.016946212877995, 40.813228325681656], [-4.01741718631135, 40.81311355101154], [-4.0176752084644045, 40.81299813074359], [-4.017910520757603, 40.812847962485925], [-4.018052574001228, 40.812716809040275], [-4.018222205499741, 40.812442990439564], [-4.0183317637767795, 40.81234203557067], [-4.018484227960548, 40.81234906745092], [-4.018583794496827, 40.81243286666404], [-4.018596256242527, 40.81254995491693], [-4.018489309128903, 40.812790245727925], [-4.018232419955282, 40.813157980912536], [-4.018034986704068, 40.81333511078885], [-4.0166489728743375, 40.81420005162062], [-4.016383386837891, 40.8143015733293], [-4.015910740111143, 40.81436212392516], [-4.015784070335214, 40.8144140462172], [-4.015897276777635, 40.81445890176248], [-4.016133844348823, 40.814460336123325], [-4.01673421923771, 40.81438613294995], [-4.017558860547384, 40.814129606747315], [-4.018871018277161, 40.81359951149883], [-4.019047089726472, 40.81357616076527], [-4.0192102002486285, 40.81363561614565], [-4.019247011979093, 40.81370123183684], [-4.01923729481878, 40.81377130783064], [-4.019132738723743, 40.81388114209178], [-4.0184469345211316, 40.81423779758836], [-4.017992656898603, 40.81459970751993], [-4.017545828932721, 40.81513171259435], [-4.017316930100122, 40.81547757428992], [-4.017308101548869, 40.81563700929451], [-4.017401069208599, 40.815808248346436], [-4.018010628683566, 40.81625734076473], [-4.018133148830816, 40.81641471586359], [-4.018158820771042, 40.81648844758199], [-4.01814626533509, 40.816628903457115], [-4.018047664937986, 40.816764177675225], [-4.01781492943044, 40.816928651148324], [-4.017523827915318, 40.81706850124351], [-4.017108701220036, 40.81716945169941], [-4.016788949397445, 40.81718776459908], [-4.016419457712171, 40.81714796079299], [-4.015988534619887, 40.81703752661457], [-4.015426016342946, 40.81683510766441], [-4.0149606251171654, 40.81660237430158], [-4.014711345838137, 40.81656871400728], [-4.014645514254095, 40.8166605472729], [-4.014655143469327, 40.816825585049045], [-4.014927404530298, 40.81741827510258], [-4.015148196219434, 40.817675321586606], [-4.015777672487344, 40.81817803004371], [-4.01597678356217, 40.818475172617426], [-4.016032221938697, 40.81870466214468], [-4.016013732135867, 40.819552592873826], [-4.016034827756741, 40.81970725998162], [-4.016142852043504, 40.8199173733088], [-4.016709129677769, 40.82065142598058], [-4.016836254335641, 40.82091622638739], [-4.01686619164278, 40.821176032431765], [-4.016783115971832, 40.82176977719052], [-4.016775845299375, 40.822039099630445], [-4.01731562768197, 40.823078939783905], [-4.017167631784883, 40.82308655058941], [-4.016657825359863, 40.822130312929794], [-4.016631357047049, 40.821872458129825], [-4.016724150724099, 40.821169537204234], [-4.016718529691516, 40.82101887771131], [-4.016581924909018, 40.82070011085132], [-4.016016373363116, 40.8199669519946], [-4.015895489377769, 40.819730016937015], [-4.015871222869858, 40.81955402802348], [-4.015890148503633, 40.818711228213175], [-4.015841651937066, 40.81850924293396], [-4.015661948810698, 40.818241026122195], [-4.015037175307488, 40.81774305006884], [-4.014801173607889, 40.81746830070115], [-4.014511404974732, 40.81686269774656], [-4.014521759290709, 40.816608396466584], [-4.014616924419382, 40.816472885200746], [-4.014855467964325, 40.81645529272797], [-4.015489100531611, 40.816749784130664], [-4.016046312820217, 40.81693865145385], [-4.016454497231082, 40.817043155605404], [-4.016791804123971, 40.81707963964295], [-4.017081585035094, 40.817063212463815], [-4.0174685894067705, 40.816968730374704], [-4.017728129136999, 40.81684302715322], [-4.0179348395277845, 40.81669806128542], [-4.018009186291502, 40.8165973228677], [-4.017998900613912, 40.816451933818], [-4.017900820670376, 40.816326502631526], [-4.017280179394238, 40.81586606679116], [-4.017167557679091, 40.81565788665821], [-4.0171788404735675, 40.81544951485477], [-4.01753553069516, 40.81493109807292], [-4.01795804461839, 40.814460744305606], [-4.018447163636903, 40.81409772069184], [-4.019035366226396, 40.81380182816223], [-4.019098884043108, 40.81373757827322], [-4.019094962235407, 40.81370599371108], [-4.018921418844299, 40.81370086040165], [-4.017620934344051, 40.81422679951035], [-4.016773268648644, 40.81449010515267], [-4.01629303096235, 40.814557935377955], [-4.015878760564318, 40.8145664439918], [-4.015685737657154, 40.814512562165504], [-4.015637486970643, 40.814450829535026], [-4.015645032771986, 40.81437806595584], [-4.015780708145658, 40.81427913117231], [-4.016338658180516, 40.81419873201921], [-4.016571584909754, 40.814109299096785], [-4.017938209062606, 40.813255790670205], [-4.018112487370219, 40.813099674522086], [-4.01835986109805, 40.81274544599303], [-4.018454596175946, 40.812536157147505], [-4.018437395054845, 40.81245803117438], [-4.018379942562134, 40.81245366933182], [-4.018171925480889, 40.812775931376514], [-4.018012340362975, 40.8129236348162], [-4.017612540527866, 40.81315722999377], [-4.017333405398867, 40.81325626098671], [-4.016977346831878, 40.81333380443654], [-4.016437386603783, 40.81338009130128], [-4.016002228464803, 40.81327023934547], [-4.015444369265206, 40.81302913352319], [-4.014536457550207, 40.81247310997769], [-4.014371203364865, 40.81226466911403], [-4.014199348298764, 40.8117706320355], [-4.0141714328071, 40.81147090468999], [-4.014268704651858, 40.81137293981494], [-4.014350536201392, 40.81136663520529], [-4.014489432288386, 40.81143270611929], [-4.014710935345017, 40.81192504046117], [-4.0149251352231135, 40.81209314339719], [-4.015110497778041, 40.812181685909884], [-4.015517037535231, 40.812258106559604], [-4.015916453310609, 40.812240537098], [-4.016234706577184, 40.81216440643322], [-4.016413809575561, 40.81203689679219], [-4.01638316004511, 40.81199374669011], [-4.015928034810359, 40.81197378871402], [-4.015683728860929, 40.811899729354714], [-4.015468019164536, 40.81177226866106], [-4.015330020356331, 40.811609621791284], [-4.015257611390221, 40.811370727640465], [-4.0150822523168115, 40.810382174513364], [-4.015073631252337, 40.80945827066954], [-4.0150193671183, 40.809203542134284], [-4.0149083358935584, 40.808989580182114], [-4.014685592163879, 40.808835875484], [-4.01393707770234, 40.808583376630196], [-4.013382028662226, 40.80828971723331], [-4.0129691361334245, 40.8081290312254], [-4.012654236154944, 40.808112783547855], [-4.011866791647772, 40.808488939522725], [-4.0114335105070165, 40.80863281835869], [-4.010958509445181, 40.808691747750494], [-4.009680157286137, 40.80875149281183], [-4.009199823949764, 40.8088342481335], [-4.008808266280951, 40.80898585964275], [-4.007704819221028, 40.8095417591616], [-4.007129747682594, 40.809766038960525], [-4.006803406488155, 40.80984825069306], [-4.006489414785841, 40.80986116978177], [-4.006190706066527, 40.809794861576], [-4.005955784984328, 40.80966583893618], [-4.005794471183445, 40.80950410447109], [-4.005733545369063, 40.8093947339439], [-4.0056629101912495, 40.80907456294207], [-4.005585437116932, 40.80791623047832], [-4.005606686281805, 40.807658501472154], [-4.005765609102488, 40.807065092844], [-4.005816135640529, 40.80672891166947], [-4.005810962334659, 40.80619746939042], [-4.005762787902635, 40.80571576312123], [-4.005916174310346, 40.805187892996955], [-4.006133488863135, 40.80466207757142], [-4.006258394642332, 40.80405418646206], [-4.006229105264369, 40.803700508706534], [-4.006063877543432, 40.80301137464348], [-4.006075031700175, 40.802745170946174], [-4.006190523153591, 40.8024874260311], [-4.00629247578933, 40.80236978872934], [-4.006882150103976, 40.801947382186725], [-4.007284466285694, 40.801599846334916], [-4.007444977088364, 40.80136458827962], [-4.007472339192662, 40.80122202202045], [-4.007417585211797, 40.80102656863199], [-4.00720500044638, 40.800655839494034], [-4.005974119454686, 40.79878437865043], [-4.005787793807638, 40.79845558133737], [-4.005704860668853, 40.79809732153884], [-4.005709867631769, 40.79767470069691], [-4.005792301436777, 40.79745805195835], [-4.005874469970694, 40.797349505678135], [-4.006445853515838, 40.79681717854026], [-4.006567314963453, 40.79664189745092], [-4.006562110502084, 40.79645430339175], [-4.00634210017916, 40.79552737580716], [-4.006367728415303, 40.79527744071261], [-4.006469012996106, 40.794982884899795], [-4.006765367122807, 40.794646274114044], [-4.007643677309942, 40.7939855957966], [-4.007981430593507, 40.79363645902524], [-4.008080778208834, 40.793394707632515], [-4.008124176513948, 40.79308976043571], [-4.008068929944875, 40.792822604858365], [-4.007981872953159, 40.792662205926995], [-4.007341428589415, 40.79291939806423], [-4.006420314415826, 40.79317029705924], [-4.005788689229432, 40.79308581126378], [-4.005602643243334, 40.79311256621885], [-4.0042336947770165, 40.793779567941556], [-4.003136185140854, 40.79440879096107], [-4.002798459626512, 40.794722334845055], [-4.00280631383698, 40.795189525488254], [-4.00269146409399, 40.7956313925302], [-4.00259228947488, 40.79587079107988], [-4.002322600081683, 40.79613743935929], [-4.002005293287342, 40.796351346752985], [-4.000986900336591, 40.7979122266266], [-4.000449014649245, 40.79853954468424], [-4.000404903225545, 40.798767563697226], [-4.000518883831336, 40.79909538014505], [-4.000518328622485, 40.799176820446355], [-4.000252324700484, 40.799848712988414], [-3.999868998916008, 40.800349652270306], [-3.99970665433376, 40.80068553903719], [-3.999469805065275, 40.80186398212047], [-3.999401414633853, 40.80208599970432], [-3.99913091986479, 40.80258640940185], [-3.9990911076303766, 40.80277746083644], [-3.999105715498904, 40.80293731804562], [-3.999209938593135, 40.80312865354531], [-3.999839550838494, 40.80382359778753], [-3.999925927498029, 40.803899870547994], [-4.000343182817403, 40.80408650973544], [-4.000536656223046, 40.80422058780352], [-4.000718601751868, 40.80443953403168], [-4.000949196805497, 40.80496938168135], [-4.001116240448663, 40.805664186989794], [-4.001079914749768, 40.805787195780354], [-4.000980269687246, 40.80590156092353], [-4.000829487788544, 40.80565820699818], [-4.000736013115711, 40.80559145527189], [-4.000380616042823, 40.80485864601165], [-4.000295415593956, 40.804758581389095], [-4.000107930622865, 40.80462823452554], [-3.999739968985606, 40.80447179574805], [-3.9998184067979285, 40.804255636486225], [-3.9998235475595165, 40.803989940405856], [-3.9997490147404022, 40.80384221886085], [-3.999607456413465, 40.80371480626521], [-3.9995766379868494, 40.80375461990125], [-3.99974115274159, 40.80392660508099], [-3.999775639585064, 40.80407593482173], [-3.9997348915860265, 40.80430725732463], [-3.9995307275834797, 40.80468566505718], [-3.999632542394094, 40.80513456495689], [-3.9994562330689543, 40.80573406160034], [-3.9994643593510806, 40.80597541472975], [-3.999482595928789, 40.80613245228383], [-3.9995493022186954, 40.80628780874988], [-3.9997676400202296, 40.80656949947506], [-3.9998273423123196, 40.80671626845323], [-4.000060280521758, 40.80756003794506], [-4.000108741591668, 40.80805597274977], [-4.000096512999777, 40.80859216485927], [-3.9999314064839244, 40.809535408425354], [-3.999822355597882, 40.80994776416167], [-3.9993889091892183, 40.81116628441066], [-3.999011593073407, 40.812096234875234], [-3.99832745713162, 40.8116997547452], [-3.9979235942089275, 40.81141273004915], [-3.9977993676535983, 40.81126426618569], [-3.9976370523151687, 40.81089966130033], [-3.997551016683378, 40.81079158456828], [-3.9971299375187708, 40.810541910302476], [-3.997012389301543, 40.81034789574953], [-3.9968197214085626, 40.80984059415543], [-3.9967050028079774, 40.80969330807468], [-3.9961024377571053, 40.809309802415704], [-3.9956625394487153, 40.80890263926369], [-3.9952379399274287, 40.808344272584506], [-3.9949170310489204, 40.80779059981028], [-3.994819101876857, 40.80754407525718], [-3.994613623725291, 40.806804014510305], [-3.994439265830617, 40.80653652842136], [-3.994203730916036, 40.80635613941456], [-3.993158712599286, 40.805706630042565], [-3.992956709917416, 40.805476854315216], [-3.992678459808747, 40.805261697213595], [-3.992222003889301, 40.80498132030926], [-3.9920367719535674, 40.80488183953341], [-3.990934291437388, 40.80471825904924], [-3.990778492887499, 40.804645098057634], [-3.9905894100092754, 40.80449412027269], [-3.9900234143794986, 40.80394965396482], [-3.9899335844870865, 40.803951776006876], [-3.990733242049262, 40.804687375449284], [-3.9909079021357097, 40.80476929277006], [-3.992006215857151, 40.804931648161336], [-3.992631287672915, 40.80530228028861], [-3.992901742866371, 40.80551146899521], [-3.993120338193772, 40.80574092182479], [-3.9941634412316698, 40.80638918687621], [-3.994391781731683, 40.80656414288428], [-3.9945572843259964, 40.80681819286885], [-3.994761285592528, 40.807554663114104], [-3.994861181199508, 40.807805855096305], [-3.995185008747535, 40.808364457435744], [-3.9956134781192527, 40.80892792566589], [-3.996060949698426, 40.80934205012253], [-3.9966583620881955, 40.80972190709078], [-3.9967652214871134, 40.80985899161584], [-3.996956534588962, 40.81036333225724], [-3.9970806533024854, 40.81056819016684], [-3.997505702530289, 40.81082170386953], [-3.9975827942584123, 40.810918417387576], [-3.9977458381809265, 40.811284187131214], [-3.9978767035898954, 40.8114405209633], [-3.9982901610567767, 40.81173484512977], [-3.998994267971934, 40.81214268771807], [-3.998809862213767, 40.812812607904846], [-3.9987685995093925, 40.81345327270357], [-3.998877960004138, 40.8138516606163], [-3.9990054658426986, 40.81405225305644], [-3.99935734134943, 40.814484397858294], [-3.9998388769896227, 40.814873439111416], [-4.000622815090119, 40.81503599897494], [-4.000747646757873, 40.81507392225515], [-4.000849779581307, 40.81517149727133], [-4.000133949787686, 40.815280760327376], [-3.9995307871445034, 40.81550281352073], [-3.999217515320312, 40.81526491484857], [-3.998840646028541, 40.815063869501856], [-3.998054532256817, 40.81477961383209], [-3.997319056062762, 40.81458256156719], [-3.9943464466584744, 40.81397438984341], [-3.9928656507053177, 40.813744183907474], [-3.9914486159701004, 40.813439722836044], [-3.9910828805283254, 40.813387013617906], [-3.990378133706853, 40.813364329033966], [-3.989506967760775, 40.813209289364245], [-3.988714985695176, 40.812924930015136], [-3.9884432315450953, 40.81278078310751], [-3.9879769883751166, 40.81242642519824], [-3.9878042761286503, 40.81234106374908], [-3.9874267248669204, 40.812250518975624], [-3.9870331810959727, 40.812080836427945], [-3.9856374978298925, 40.81174882576141], [-3.9852567853929384, 40.81169262262951], [-3.984589355159088, 40.81148203032911], [-3.983901602117661, 40.811388260944035], [-3.9831913532431895, 40.81091056808846], [-3.979698161289241, 40.81300200027842], [-3.9811012183770385, 40.813544995283976], [-3.9827450245698612, 40.81405799224699], [-3.9835311520872527, 40.814428832403046], [-3.984060913274748, 40.814877704333306], [-3.984515072559785, 40.81540180795185], [-3.984747508948019, 40.81562079855853], [-3.985648131577752, 40.81636305112453], [-3.9876619920338268, 40.81755591679708], [-3.989221531272679, 40.81839717486554], [-3.98799979756356, 40.81865014391526], [-3.9868009919207266, 40.81876300462272], [-3.983254769946473, 40.81882389802148], [-3.9829157238749078, 40.818797510114244], [-3.9822366931885034, 40.81864086877272], [-3.98136807516876, 40.81830774615085], [-3.9807923335648665, 40.81814310551547], [-3.980072552503498, 40.818093096105635], [-3.9793336922460334, 40.81814900646106], [-3.978546935919645, 40.81806802689652], [-3.9778903680130626, 40.81811557289078], [-3.977643872744802, 40.81816567641227], [-3.9767947676232898, 40.81859571082367], [-3.975744631019414, 40.81887754533464], [-3.975168761912316, 40.81889790880553], [-3.9744991292825933, 40.818823208317085], [-3.974235906708926, 40.81886542844417], [-3.9734603500202366, 40.819072135798], [-3.9728880709971435, 40.81926532746469], [-3.9721106951300404, 40.81965707220697], [-3.9714316138478973, 40.819853854550274], [-3.9712158327846914, 40.81996178945225], [-3.970858774912678, 40.82020468214922], [-3.970164792857998, 40.82095009963352], [-3.9698825763727377, 40.821195152472576], [-3.9691272565505247, 40.821548496352776], [-3.9684972704030503, 40.82191852957705], [-3.968019028668352, 40.822155228589835], [-3.9670699985460964, 40.822538736149866], [-3.964940210942898, 40.82304499250059], [-3.9634534365422165, 40.82326956036911], [-3.9626990300703735, 40.82344403925144], [-3.9623067530780767, 40.82344686032108], [-3.9623196104684815, 40.82335590542801], [-3.9621617147370247, 40.82335722737543], [-3.9621885058807336, 40.82329542704664], [-3.959272704787134, 40.82331050726981], [-3.9587665742103972, 40.82325228699241], [-3.95745265907446, 40.822972585906356], [-3.95653967850782, 40.82289853947331], [-3.9560976989775396, 40.82294706026852], [-3.95576886843287, 40.823030409593954], [-3.953698384123215, 40.823652170249574], [-3.9533659064302387, 40.823596814575424], [-3.9527806569570645, 40.82337941402012], [-3.9526504937629388, 40.823324457122084], [-3.9524532235067524, 40.82315429705902], [-3.95238656113732, 40.823028730745975], [-3.9523854735967885, 40.82295270939297], [-3.952426551803575, 40.82277328460182], [-3.952544835855142, 40.82252031114244], [-3.953835000264751, 40.82147535536335], [-3.9544941451737716, 40.82048497465835], [-3.9558502891596117, 40.81804831557311], [-3.957992435599734, 40.81553515875056], [-3.9590067771939, 40.81512302980832], [-3.959191664089174, 40.815153907502285], [-3.9595100479146077, 40.81566599212967], [-3.9599511768155677, 40.816779717008075], [-3.9602147279435966, 40.81713064615041], [-3.9604653487353416, 40.81739097284737], [-3.9605768706710083, 40.81770758826541], [-3.960513082159993, 40.81802070868573], [-3.9606782153323747, 40.81768034997061], [-3.960543748812812, 40.81717016082806], [-3.9605440813541866, 40.81696305634717], [-3.9606140030807944, 40.816755012110434], [-3.9607194786821527, 40.816627926981546], [-3.960905557862007, 40.816498643518734], [-3.9622844655954927, 40.815777572390004], [-3.962539944144772, 40.815512037298305], [-3.962611026944674, 40.815228586826315], [-3.9624792312406414, 40.81444443379324], [-3.9625110977565625, 40.814204546032904], [-3.962643877334115, 40.81395724018947], [-3.9630831148418184, 40.81361657674804], [-3.9632022848366435, 40.813486041903396], [-3.9632655011585225, 40.813274272953336], [-3.9633112786079168, 40.81292211490227], [-3.963444950319942, 40.81264669911922], [-3.963623083008932, 40.81249378114193], [-3.963851888070831, 40.81237719360815], [-3.9645514076587336, 40.81220397687351], [-3.9647530965680757, 40.812122746799226], [-3.965068308004314, 40.81189769897255], [-3.9651528846051685, 40.81177772097452], [-3.965749057089077, 40.81063417623347], [-3.965948765241046, 40.81017154723195], [-3.9659962409032445, 40.80978226387054], [-3.965893737873674, 40.809115067455274], [-3.965915201316834, 40.80891913633603], [-3.9660153840094314, 40.80869840373948], [-3.966119168320461, 40.808578894741345], [-3.9663221932192565, 40.808434957113235], [-3.967188124178636, 40.80814763603062], [-3.9682529014689383, 40.8074706501888], [-3.9685800939007168, 40.80721576457962], [-3.9686512597795858, 40.80726687504018], [-3.9687385952276473, 40.807215154490976], [-3.969995355688057, 40.806094955503426], [-3.9711965729124836, 40.80477018468015], [-3.970698057493771, 40.804460799188114], [-3.9708308586016954, 40.804299693428135], [-3.9710147342847564, 40.80349424496075], [-3.971131022593611, 40.802362366161525], [-3.971045673980155, 40.80120740676302], [-3.970907929979124, 40.800418357174955], [-3.9705977306092204, 40.79944320410206], [-3.970409975281227, 40.798304419274295], [-3.9703592596990567, 40.79742626454758], [-3.970410786641551, 40.79697559759062], [-3.9707200622261607, 40.79608072180734], [-3.9713717542422753, 40.79463084443474], [-3.9713816691516266, 40.79398513563679], [-3.9714859140686385, 40.793289176612525], [-3.9715515652040128, 40.79247463188738], [-3.9716930974716096, 40.792125536717144], [-3.972059815587456, 40.79166915099497], [-3.9733492474467362, 40.79056152027043], [-3.974517075732862, 40.790105937425764], [-3.9755930455742634, 40.789627062626465], [-3.9764235331287274, 40.788970002345046], [-3.9768996008368904, 40.7881579258746], [-3.9773698199667087, 40.787465077736684], [-3.9781850188192984, 40.787331544779754], [-3.978118913283048, 40.7874182689538], [-3.9780796887754146, 40.78766193122876], [-3.9780633412362056, 40.787864848358694], [-3.978091821979422, 40.78819034982007], [-3.97857477920135, 40.78948128981504], [-3.9786164163712816, 40.78982271437159], [-3.978826443061178, 40.7901539723977], [-3.9795196598080618, 40.79200677774301], [-3.979469264981917, 40.79248167636084], [-3.9795297320029874, 40.79257151247809], [-3.979591560154899, 40.79303617971425], [-3.979468877019749, 40.79470619233794], [-3.979405570581495, 40.794939866227246], [-3.9792685361871727, 40.79514902800868], [-3.9791700494083826, 40.795908814050726], [-3.9790753783669754, 40.79619428172871], [-3.9789035471419854, 40.79701288379842], [-3.978928539408942, 40.79715680554892], [-3.9791964552354924, 40.79765818510271], [-3.9799599981007843, 40.799386257652266], [-3.979200369959333, 40.800047605673406], [-3.975935626865604, 40.80321032833489], [-3.975473535840642, 40.803818962415235], [-3.9755284641137307, 40.80669719313608], [-3.97549862220579, 40.80676428740553], [-3.9751037494240244, 40.807034448219646], [-3.9749331800642804, 40.80744981879749], [-3.9730750998870814, 40.80920022904304], [-3.971745595837343, 40.809999025407095], [-3.9707044979226627, 40.81043811376496], [-3.969933708652964, 40.81085266993393], [-3.9694389138266373, 40.81107860959208], [-3.9683099986911463, 40.8117509150874], [-3.9681636714474915, 40.811888709618316], [-3.9662919324903023, 40.814099446530896], [-3.9658320076079145, 40.81475414590313], [-3.96512542161098, 40.81561989609452], [-3.9649756821723874, 40.81597328463285], [-3.964741473480346, 40.81754349590185], [-3.9646868241278126, 40.81762628908128], [-3.9646729852814313, 40.81775143600389], [-3.964542887318633, 40.81797142634672], [-3.9643605327997227, 40.81808708641934], [-3.964155485765108, 40.818568219354574], [-3.963937154408449, 40.81891866187193], [-3.9638426399992484, 40.819155650075814], [-3.9622245586396647, 40.82189181322202], [-3.9624297980084084, 40.822639251962705], [-3.9653001855386445, 40.81778058363072], [-3.976278210678115, 40.80689258424744], [-3.9769555110401704, 40.804033906513254], [-3.980754145768711, 40.79942337151681], [-3.9833123198837437, 40.793401461458735], [-3.986233827505051, 40.7918670171144], [-3.988444537406712, 40.79032361372377], [-3.995159408144643, 40.792140534917465], [-3.999118180092767, 40.7891972879042], [-4.002304869840252, 40.78859246142326], [-4.00279781064967, 40.78864290230787], [-4.002691131059989, 40.78850735000582], [-4.0029623377382935, 40.78839878424919], [-4.003000137487765, 40.788453316617584], [-4.003152351908741, 40.7883923624786], [-4.003272587456155, 40.78856913770701], [-4.003261001923485, 40.78868922986765], [-4.0035543144681816, 40.78870832938721], [-4.003458955659041, 40.78857916667941], [-4.004087694648964, 40.78844476296042], [-4.004031949204051, 40.788387054015345], [-4.0040503736198865, 40.78812740322131], [-4.003987266010769, 40.788111250847024], [-4.004002257287795, 40.78805211560736], [-4.003777635138238, 40.78807424415723], [-4.003832256469395, 40.78840401564601], [-4.003591096248077, 40.78849286403806], [-4.003395233017725, 40.78841781619452], [-4.003354048873325, 40.788351062009234], [-4.003591977410035, 40.78833097604886], [-4.0035780567709125, 40.78824083330555], [-4.003640209281373, 40.78823605876945], [-4.003585813304957, 40.78787394968682], [-4.0038764110235014, 40.78779403989241], [-4.003812973793727, 40.78765838530137], [-4.0035585189879574, 40.78772796778726], [-4.003392269021967, 40.78735129194821], [-4.003142733477468, 40.787403187852945], [-4.002700110188269, 40.78668461810309], [-4.003524101119291, 40.786246048358926], [-4.003385985124872, 40.78614095074754], [-4.003386988230707, 40.785900513158936], [-4.003334935166115, 40.78566233409451], [-4.003353927130796, 40.78560127236878], [-4.003816999591901, 40.78522058809365], [-4.003863401033631, 40.785244798425715], [-4.0045940139651695, 40.78506043882187], [-4.004713983455113, 40.78499143961488], [-4.005070141393841, 40.784904609538394], [-4.005613826331948, 40.78456214867003], [-4.005306645105603, 40.78434410682724], [-4.006051129182561, 40.78366622866679], [-4.006364006738242, 40.783320736227175], [-4.006167198545059, 40.78319011957357], [-4.005932411741088, 40.78335431737], [-4.0058773889328085, 40.783340785421146], [-4.006580898468989, 40.78262250168095], [-4.007826304852236, 40.78160792667607], [-4.008024286529926, 40.781486656154364], [-4.0079848728211465, 40.78141943766022], [-4.007761283099549, 40.78155534517018], [-4.006509198016885, 40.782575382763824], [-4.005844554917473, 40.78324968531383], [-4.005597808216097, 40.783636179081135], [-4.0054232232159, 40.78380700740954], [-4.005232189567398, 40.78363490034262], [-4.004903865373614, 40.78384458791549], [-4.004851529279219, 40.7839342265813], [-4.004706012434961, 40.78387261530415], [-4.004424789394581, 40.78401505376446], [-4.004355299601368, 40.78389440596193], [-4.004036941509732, 40.78399491293981], [-4.003728799399716, 40.7841364128527], [-4.003797627042958, 40.78380385560064], [-4.0034754202318945, 40.7837746784562], [-4.003548976870497, 40.78341767201656], [-4.0030963938229975, 40.783354958928086], [-4.003051412907785, 40.78320103651961], [-4.002271831397943, 40.7831822296868], [-4.002327689851657, 40.78262906450218], [-4.002234159519186, 40.78199640799157], [-4.0020805180510255, 40.78174073793397], [-4.001590570424815, 40.78132862467394], [-4.001545991493259, 40.78115379868687], [-4.001748536193098, 40.7808626913753], [-4.002370530983043, 40.7802669798185], [-4.0026393955928095, 40.78007537786758], [-4.003838706976161, 40.779390772469924], [-4.004092254130233, 40.77916659996686], [-4.004312594744209, 40.77887795018421], [-4.004586043274901, 40.778338490238305], [-4.005020138839355, 40.777049043028924], [-4.005887705802397, 40.77562690613098], [-4.00634922260616, 40.77456368523145], [-4.007093765075081, 40.773261882741316], [-4.007254990314638, 40.77282681176598], [-4.007397433847572, 40.772019231986235], [-4.007509252713085, 40.77170287654727], [-4.008064037700628, 40.770769541118675], [-4.0089640183856385, 40.76952618369504], [-4.00991330857688, 40.7679571845503], [-4.0100286434971295, 40.767616022654344], [-4.0101570708259615, 40.76630003763089], [-4.010083360201853, 40.766001784262464], [-4.0097798071531185, 40.765649604656524], [-4.009729196534076, 40.76543663857734], [-4.009868031361414, 40.764926178940044], [-4.010082675748472, 40.76443776122534], [-4.0104986156780535, 40.763722640834615], [-4.010638481042669, 40.763538905811274], [-4.0108839969918355, 40.76343910880083], [-4.0116994447367205, 40.76326458653309], [-4.011960489871612, 40.76315771462085], [-4.012293560544411, 40.762971832732624], [-4.012568289266938, 40.762775291405674], [-4.012803195556412, 40.76255451050497], [-4.0130032315265485, 40.76230790636299], [-4.0131147881335645, 40.762109287213335], [-4.013247660521147, 40.76169202254567], [-4.013594535815462, 40.760863630998436], [-4.013692610584712, 40.76024578848241], [-4.013861263437174, 40.759587418540086], [-4.013939075730247, 40.758852639931256], [-4.01401642153156, 40.75868792175537], [-4.014187431188613, 40.75850462934196], [-4.015100526045674, 40.75794673246289], [-4.015908967907336, 40.757542442190335], [-4.016368853776129, 40.757433088996756], [-4.017509880412858, 40.757235213260024], [-4.020101201544193, 40.75637186080228], [-4.020446319050103, 40.75618765053173], [-4.020942144697927, 40.755811312471714], [-4.020988269455275, 40.755643708357624], [-4.021211684285224, 40.75537950129053], [-4.021205352144535, 40.755205695044474], [-4.021065658007545, 40.75505694112138], [-4.020738521749773, 40.75493696041619], [-4.019916292934916, 40.75476811120784], [-4.019407808797145, 40.75443974776444], [-4.019092043554132, 40.75414823185656], [-4.0187750008799386, 40.75364908245043], [-4.018164245676094, 40.752361772485045], [-4.018333078457051, 40.752335335759604], [-4.018002924042982, 40.75199799182732], [-4.017477405089713, 40.751559952805714], [-4.017422291812888, 40.751488011043214], [-4.017472863724888, 40.75136307338296], [-4.017956339885431, 40.751048109512716], [-4.018883743727483, 40.75058266271004], [-4.019149887592693, 40.75037150209654], [-4.0194381944544375, 40.75026166544372], [-4.019626696356893, 40.750116946493634], [-4.0197210553404545, 40.75008269155139], [-4.020972481197886, 40.74994010881165], [-4.021667890189719, 40.7495967740314], [-4.021912055514783, 40.74953695835109], [-4.022234377433338, 40.74952077130045], [-4.02227678100782, 40.74966977325475], [-4.022516931133475, 40.7499789045179], [-4.022947556206456, 40.75008293793712], [-4.023396889948039, 40.75011889300049], [-4.023677376632814, 40.75000712786642], [-4.024236951041457, 40.749638890478984], [-4.024826935785902, 40.74945889764292], [-4.0254769738352225, 40.74919891846439], [-4.0256769745473475, 40.74901890150499], [-4.025663652149124, 40.7488841549115], [-4.025596971951067, 40.748758903536434], [-4.025676951533236, 40.74843887860739], [-4.025677624768664, 40.74816949122796], [-4.025589452242699, 40.74798340782279], [-4.025525224939044, 40.747919596317146], [-4.025659884176534, 40.74786752999751], [-4.025925844614852, 40.7475771668899], [-4.025967744964368, 40.74738248282401], [-4.026239734179657, 40.74699099543015], [-4.026262411421126, 40.746894313608664], [-4.026229520649709, 40.74668876371076], [-4.026248628953646, 40.746583375456325], [-4.026432466017492, 40.74678397956698], [-4.026712530076806, 40.747018319664335], [-4.027029686247328, 40.747207467060434], [-4.027504935936363, 40.74720170531024], [-4.027867051018515, 40.747294960870605], [-4.0280052763046506, 40.74730228768678], [-4.028378334429828, 40.74719852465975], [-4.028741971484739, 40.747182942227035], [-4.0293391068414595, 40.74731553666115], [-4.0297422654970365, 40.74751228728321], [-4.030223538282079, 40.74768176436474], [-4.030562226550778, 40.74795277643647], [-4.03100406424762, 40.74823025293444], [-4.031182655890843, 40.748435130177334], [-4.031540021124535, 40.74910171204493], [-4.031589055728709, 40.749331704448146], [-4.0315598692144405, 40.74962723272985], [-4.031642369020719, 40.74961743395883], [-4.03168190528185, 40.74939951855229], [-4.031634522401447, 40.74910014664547], [-4.031431015901115, 40.74870892856213], [-4.031073125294285, 40.74820711490676], [-4.03069659911333, 40.74797130486157], [-4.030831009721759, 40.74786957044465], [-4.030930828379842, 40.74756050540818], [-4.03102447475223, 40.74738103193568], [-4.031456539461498, 40.7470177398321], [-4.031554633890391, 40.74684264028914], [-4.031807758705352, 40.74652841600561], [-4.032074218667024, 40.74634866216339], [-4.032401756381443, 40.746273935483934], [-4.03261021542794, 40.74615081718487], [-4.032693905795391, 40.746001969951664], [-4.032792349088557, 40.74553544840288], [-4.032639868007044, 40.74524953440045], [-4.0323346203834145, 40.74490408987303], [-4.030690045657942, 40.74342573777173], [-4.030487596713028, 40.74332403884089], [-4.0293905481403245, 40.74303006062606], [-4.029217337233841, 40.742919360487356], [-4.029062532705813, 40.742719136902124], [-4.0289874964012835, 40.742453787178725], [-4.0290115058613605, 40.742228722830454], [-4.029363426214737, 40.74144690074682], [-4.029511136572077, 40.74097174448967], [-4.029577800664487, 40.74040190730338], [-4.0295415857644095, 40.73983488409305], [-4.029238157053198, 40.738651635266685], [-4.029029905681732, 40.7381031672267], [-4.028685994979746, 40.737466008328035], [-4.028080426038465, 40.73653326601605], [-4.027766786836051, 40.736146268984875], [-4.027624089945576, 40.73603925823919], [-4.027479587301806, 40.73597649480518], [-4.027171647507573, 40.73593653136792], [-4.026810896503015, 40.735997215273706], [-4.025004776280371, 40.73654106954523], [-4.024171661917651, 40.73674520528499], [-4.022710508525956, 40.73694174965296], [-4.022625985839823, 40.73688232225321], [-4.022648037467446, 40.73680326971811], [-4.022763935086717, 40.73680409845778], [-4.023171070128663, 40.736625124393925], [-4.023296740826106, 40.73670659054977], [-4.023429039094616, 40.73674253312391], [-4.0242065033479975, 40.7366617482416], [-4.024983016262283, 40.73644280060074], [-4.026504144014333, 40.73594201973938], [-4.026976812784264, 40.73582755154621], [-4.0273472162309565, 40.73580930552185], [-4.027508191973869, 40.735834357294586], [-4.027810239887993, 40.735968596029636], [-4.027948972689747, 40.73608735281768], [-4.028371261281373, 40.7366620179043], [-4.029197261573583, 40.7381729316291], [-4.0294146583657575, 40.73873834371612], [-4.029655295733381, 40.73968198757176], [-4.0297072052915395, 40.74010699249956], [-4.029679894276725, 40.740693770363585], [-4.029534050352503, 40.741267192132376], [-4.029124711363072, 40.74222717291264], [-4.02909510967544, 40.74248129427526], [-4.029141093230531, 40.74266753878595], [-4.0292344101918784, 40.74278949143227], [-4.029448544595777, 40.74291991530443], [-4.030385676011108, 40.74316667085833], [-4.030791381801432, 40.74335339593095], [-4.032653384266958, 40.74507428979823], [-4.03291582549804, 40.74545479900585], [-4.032962960337385, 40.74573030497724], [-4.033382386495434, 40.745523680550576], [-4.03385011592308, 40.74515544688412], [-4.034886078121056, 40.7446294876699], [-4.035992061372894, 40.74322300216992], [-4.036017949127959, 40.74256548792285], [-4.036207701553454, 40.742561895765824], [-4.03696256925623, 40.74293094700443], [-4.038060154290258, 40.7423276997429], [-4.038522799946252, 40.741993288807244], [-4.038817060542412, 40.741730391724914], [-4.0389883224492085, 40.7415171521471], [-4.038988294864866, 40.741416438240805], [-4.038799165069594, 40.741242116175194], [-4.03838709646057, 40.74102764044702], [-4.037744786214165, 40.74091982153313], [-4.036967550702378, 40.74074168453847], [-4.03637655811331, 40.74066663796946], [-4.0362841970329, 40.74062179461601], [-4.036140672873907, 40.740455346383975], [-4.035880051988417, 40.740375258819796], [-4.035886000525795, 40.74030827283227], [-4.036205289857865, 40.740444496640386], [-4.036385183354731, 40.74063440044143], [-4.037663786120075, 40.74081389010888], [-4.037878803792308, 40.74088582573966], [-4.038374192323538, 40.74097469693977], [-4.038652650328237, 40.7410894809136], [-4.039008006041347, 40.7413283385907], [-4.039035827555999, 40.74130475630471], [-4.03904336185507, 40.74100462243574], [-4.038991176791738, 40.74091626920225], [-4.039058906954751, 40.74088476054715], [-4.039467676050756, 40.74113827006229], [-4.040195147188736, 40.74174050024562], [-4.040377639437426, 40.742035412491624], [-4.040629434435694, 40.742194393092994], [-4.040809664550438, 40.74219204717375], [-4.041293896307403, 40.74192923210408], [-4.041521087881045, 40.741899976598106], [-4.042195292193629, 40.741963435239185], [-4.042752515377986, 40.742097491942154], [-4.0430905412599545, 40.7422185778224], [-4.043221678304517, 40.74249331586538], [-4.043392856441739, 40.74267716165044], [-4.04360596472415, 40.742808018861346], [-4.0437804436234845, 40.74283923161637], [-4.043870137763645, 40.74318983872967], [-4.043867689165601, 40.74358659154845], [-4.043758106842285, 40.74381242823036], [-4.043552302333444, 40.744012654668765], [-4.043350018562798, 40.74443103273157], [-4.043178321011476, 40.74457806624106], [-4.043005574147064, 40.74466556785749], [-4.0427187107111635, 40.744681402411295], [-4.0426481449599665, 40.74462249433], [-4.042561387387474, 40.74443689398626], [-4.042456208481994, 40.744345868165794], [-4.04219594359835, 40.74428245734685], [-4.042080819686669, 40.74430547745188], [-4.041974154063345, 40.744377156606944], [-4.041933647531085, 40.74412681809325], [-4.042034918116024, 40.7439140257984], [-4.042477353872355, 40.743886792945936], [-4.042622647559068, 40.743823772774014], [-4.042788078287326, 40.74370021407908], [-4.043062547880742, 40.74338415076291], [-4.043185906358341, 40.74315260497904], [-4.043244035661985, 40.74290840183811], [-4.043398457199806, 40.74281575056597], [-4.043376333379501, 40.742794600632045]], [[-4.033569243373514, 40.746071520714274], [-4.033558256191994, 40.746004506405654], [-4.033579694095662, 40.74613448603789], [-4.033569243373514, 40.746071520714274]], [[-4.0205811425075675, 40.76199964364542], [-4.0204190413906264, 40.76212187977159], [-4.019892576902695, 40.76230336873165], [-4.01964027431734, 40.762554856182824], [-4.019447616447999, 40.762817531601456], [-4.019002243282458, 40.76380193468183], [-4.018675835242049, 40.7642835181871], [-4.018884358140284, 40.76414375871104], [-4.0205811425075675, 40.76199964364542]], [[-4.02987473887841, 40.76584483485907], [-4.029554248097374, 40.76665159875377], [-4.031336818210646, 40.76216483942309], [-4.02987473887841, 40.76584483485907]], [[-4.0315598692144405, 40.74962723272985], [-4.031521846003434, 40.74963174844632], [-4.031506392058125, 40.74963358394845], [-4.0315598692144405, 40.74962723272985]], [[-4.033457229168595, 40.74634660131931], [-4.033466012494942, 40.74632076760218], [-4.0334844763443645, 40.746266458970936], [-4.033457229168595, 40.74634660131931]], [[-4.034223837826852, 40.749310804817554], [-4.034191635837394, 40.74931463008769], [-4.0341860070423765, 40.74931529873988], [-4.034223837826852, 40.749310804817554]], [[-4.033511536188569, 40.747555419135615], [-4.0334772597733455, 40.74737544788724], [-4.0334747172604475, 40.74736209856424], [-4.033511536188569, 40.747555419135615]], [[-4.033606982222431, 40.74574687970406], [-4.033603267753717, 40.745751777516716], [-4.033644249494404, 40.74569817072517], [-4.033606982222431, 40.74574687970406]], [[-4.033320329461773, 40.74941813125439], [-4.033915415955147, 40.74945718721997], [-4.034025946338445, 40.749419807448604], [-4.034171925912865, 40.74931697145634], [-4.033320329461773, 40.74941813125439]], [[-4.031448243640184, 40.7496404899498], [-4.03093047186127, 40.749696393710515], [-4.030789469294722, 40.749651854446434], [-4.030116356154961, 40.749698383599025], [-4.029121125258727, 40.74986669730135], [-4.02808836177146, 40.74986352382873], [-4.027687502330866, 40.749802024611064], [-4.027319972332119, 40.74986061305224], [-4.026554840595073, 40.74983391479344], [-4.026616210256112, 40.74988348989688], [-4.026716971029844, 40.75005666940206], [-4.026555573748296, 40.750330439436084], [-4.026184535741449, 40.75065412533423], [-4.025765503283706, 40.75094689952153], [-4.03085224305973, 40.749711274004774], [-4.031448243640184, 40.7496404899498]], [[-4.025765503283706, 40.75094689952153], [-4.02316129786157, 40.75157938610826], [-4.0185555283461465, 40.75230050009002], [-4.018741108101147, 40.75254145859747], [-4.019011600829577, 40.752768205774295], [-4.019569188931713, 40.753083963320066], [-4.01988081169086, 40.75320274586473], [-4.02027453538672, 40.75327772081549], [-4.020689293454097, 40.75327405502694], [-4.02145145373952, 40.753177698595216], [-4.022174920494545, 40.75301715621734], [-4.022798000052035, 40.75273210467813], [-4.023734088822568, 40.75212392450473], [-4.0241044046664385, 40.75184922264242], [-4.025765503283706, 40.75094689952153]], [[-4.020674273849493, 40.7617214558695], [-4.020901641942179, 40.761420005447924], [-4.0212213712211655, 40.76115458611524], [-4.02187562988015, 40.76088664998725], [-4.022710519257856, 40.76039956112893], [-4.0239358395179226, 40.75977081825531], [-4.024035737980266, 40.759625887495254], [-4.0238798848564175, 40.75920450614635], [-4.0238896946594265, 40.7591026241743], [-4.023956481031644, 40.75900023665533], [-4.024189474973546, 40.75877395443152], [-4.024717443031574, 40.75839208566767], [-4.024986605979495, 40.757829106898726], [-4.025162860867289, 40.75761881657735], [-4.025415881447984, 40.75740118217924], [-4.026349283497161, 40.75673806815813], [-4.026405347773604, 40.75653974497077], [-4.0269290820808195, 40.75633159023435], [-4.027217949770447, 40.75604957861031], [-4.027419081155636, 40.75600193533917], [-4.027586214141404, 40.75592361005114], [-4.0281987770672965, 40.755545566292795], [-4.028826117258352, 40.75503496848479], [-4.030004954966371, 40.754398012969624], [-4.030203798612072, 40.75425634201675], [-4.029910518494284, 40.75422004344874], [-4.029340983827049, 40.75431421348109], [-4.028651299012374, 40.754475758111354], [-4.028409841716049, 40.75460483404979], [-4.028038245774276, 40.75471390361732], [-4.0277063678857, 40.754932881182796], [-4.027509358708766, 40.755117231348684], [-4.027303365572213, 40.755357157433906], [-4.027297594951324, 40.75541324108619], [-4.027346192654075, 40.75551505386626], [-4.0273160276342255, 40.75554865350068], [-4.026769091396198, 40.75571125373678], [-4.025920169623837, 40.756027341631494], [-4.0251966346820325, 40.756616700960436], [-4.0244913054108435, 40.75695014551594], [-4.024062820656863, 40.75720554888276], [-4.023991588643078, 40.75728059038742], [-4.023976880958511, 40.757357022074785], [-4.0240795948016155, 40.7576505052626], [-4.024101153562671, 40.757905071591296], [-4.023996667848681, 40.75816777846706], [-4.023851315384538, 40.75831545469078], [-4.023534113142868, 40.75844285472974], [-4.022952975244518, 40.758779962744406], [-4.022241902085564, 40.75952945244103], [-4.021890853059764, 40.76010882450597], [-4.021524517175963, 40.76029331693929], [-4.021228096629208, 40.76061870697898], [-4.020613703086527, 40.761184730660325], [-4.020488528805349, 40.76135861876408], [-4.020445809200922, 40.761509436799884], [-4.020447762816013, 40.761683641961966], [-4.020543064458815, 40.76198106276379], [-4.020674273849493, 40.7617214558695]], [[-4.023211416539272, 40.77228924822696], [-4.023350762421376, 40.77227054066248], [-4.023255489573505, 40.77228332399867], [-4.023211416539272, 40.77228924822696]], [[-4.023856793114012, 40.77220259014883], [-4.023591069019516, 40.77223827884669], [-4.023866744896124, 40.77220126860886], [-4.023856793114012, 40.77220259014883]], [[-4.0374066584461845, 40.764439826163006], [-4.037102554339727, 40.76400763916431], [-4.036888568066123, 40.76386200471283], [-4.03636690872699, 40.76409108531254], [-4.0368692683573295, 40.76454924338773], [-4.037124742000485, 40.76487124954798], [-4.03764859100854, 40.76470655131471], [-4.0374066584461845, 40.764439826163006]], [[-4.037273343187948, 40.764064838804465], [-4.0373333617646, 40.764023491298346], [-4.037121839414642, 40.76384585535335], [-4.037061820862086, 40.763887202750354], [-4.037273343187948, 40.764064838804465]], [[-4.025011505635186, 40.771584637893426], [-4.024480568938539, 40.7721188610581], [-4.025596115928758, 40.770996425440565], [-4.025011505635186, 40.771584637893426]], [[-4.024006050389299, 40.772176492669324], [-4.0240002725262825, 40.77218334216056], [-4.024000272526284, 40.77218334216056], [-4.024006050389299, 40.772176492669324]], [[-4.021964686183695, 40.75432218921735], [-4.021931552608763, 40.754247172327474], [-4.0216675842646366, 40.754314550269754], [-4.02170010604176, 40.75438831147456], [-4.021964686183695, 40.75432218921735]], [[-4.021358680856303, 40.754766889798915], [-4.021305480874719, 40.754921044083375], [-4.021463282131123, 40.75495252813657], [-4.021488507428864, 40.754874652373715], [-4.021578918780231, 40.75489168870989], [-4.021553233580997, 40.754970469403936], [-4.021729809060637, 40.75500566051474], [-4.021833936401727, 40.75470341179796], [-4.021592840958868, 40.75465545957242], [-4.021579574132434, 40.754694218585755], [-4.021450291674763, 40.75466842781711], [-4.0214126281402685, 40.75477767284313], [-4.021358680856303, 40.754766889798915]], [[-4.020533246345688, 40.754271793251355], [-4.020445025965349, 40.75426626748202], [-4.020434949771394, 40.75435878286735], [-4.020523288719886, 40.75436430759542], [-4.020553104183995, 40.75438512360884], [-4.020686244873485, 40.754399891002606], [-4.020703901283675, 40.75430730855259], [-4.020570762153305, 40.75429263124873], [-4.020553765274456, 40.754381874734975], [-4.02052370740931, 40.75436070052889], [-4.020533246345688, 40.754271793251355]], [[-4.018959984400716, 40.75341287023202], [-4.019065956424792, 40.753355271587445], [-4.019017669323047, 40.75330389960432], [-4.018911698712217, 40.75336158827655], [-4.018959984400716, 40.75341287023202]], [[-4.015940923719927, 40.76723073981809], [-4.0168631635311, 40.765960189560694], [-4.017445131997299, 40.76515836194261], [-4.015940923719927, 40.76723073981809]], [[-4.015722998531866, 40.7675481321192], [-4.015881576059857, 40.767317202361916], [-4.015940923719927, 40.76723073981809], [-4.015722998531866, 40.7675481321192]], [[-4.02512354686497, 40.7526748341488], [-4.025018955603397, 40.75267576317764], [-4.025020344524674, 40.75276619528342], [-4.02512137670522, 40.752765297867946], [-4.025122177768498, 40.752817449448564], [-4.025251873335226, 40.75281629730049], [-4.0252510646971045, 40.75275594813489], [-4.025124804104361, 40.75275706976908], [-4.02512354686497, 40.7526748341488]], [[-4.024698498390942, 40.75322965350109], [-4.024609857820943, 40.7532044062253], [-4.024552645292246, 40.75332039748373], [-4.024641404510038, 40.75334564825335], [-4.024698498390942, 40.75322965350109]], [[-4.0224063865809105, 40.75462077921605], [-4.0222243070890284, 40.754597438906124], [-4.0222011452534305, 40.754701691190746], [-4.02252535833119, 40.75471584484959], [-4.022558603209163, 40.75458159524137], [-4.02247453595943, 40.75456882749886], [-4.022442298979403, 40.75469928462227], [-4.022390654530636, 40.754691904853445], [-4.0224063865809105, 40.75462077921605]], [[-4.022101563143519, 40.75505308588692], [-4.022124561866521, 40.75502324452537], [-4.022088799588075, 40.7550473434656], [-4.022101563143519, 40.75505308588692]], [[-4.021877443333781, 40.755092635725234], [-4.021858516210239, 40.75507893037263], [-4.021743827696912, 40.755170750607746], [-4.0218072945869165, 40.75521523071158], [-4.02192104654014, 40.755124139380264], [-4.021884850361737, 40.7550889667732], [-4.021934145952932, 40.75512087043769], [-4.021976685688091, 40.75508292866144], [-4.021925474255047, 40.75504969071902], [-4.021877443333781, 40.755092635725234]], [[-4.021343699693816, 40.76020636482847], [-4.021487743033568, 40.76020508988248], [-4.021484983696891, 40.76002485620631], [-4.021340940746078, 40.76002613114424], [-4.021343699693816, 40.76020636482847]], [[-3.986752180494939, 40.79697001634469], [-3.986888941297612, 40.79684777429933], [-3.9871127745177004, 40.79672199459324], [-3.9872991891293794, 40.796662926259124], [-3.9884020908282034, 40.79650448969186], [-3.9886569201486513, 40.79641483973559], [-3.988816598686719, 40.79631158683358], [-3.988974096485722, 40.79613331276803], [-3.9890556293741173, 40.795947852423375], [-3.9891005193343365, 40.795665960863644], [-3.9891141340121354, 40.79473006012419], [-3.9891492365871035, 40.7943714065614], [-3.9892304905076896, 40.794159738607064], [-3.9894621735358236, 40.79392488583582], [-3.9896581426328956, 40.79382303211556], [-3.9899471390946535, 40.79374416652227], [-3.990156874783497, 40.79373966432467], [-3.9904661680919262, 40.793790339167614], [-3.990761617973967, 40.793938332280746], [-3.9945477341257503, 40.79633405233031], [-3.9947484546057535, 40.79640006482247], [-3.9949942416066646, 40.7964278532339], [-3.995314935906315, 40.796383648774544], [-3.995635244226384, 40.79625810579944], [-3.9961650904444888, 40.79593166832393], [-3.9988419131892288, 40.79402687836465], [-3.9991013734731258, 40.7938128454212], [-3.999321994564084, 40.79345096528167], [-3.9993772416764726, 40.792716219852366], [-3.9994384636836577, 40.792491021044455], [-3.9996326850733444, 40.79222692947319], [-4.000010389880121, 40.7920257428269], [-4.0025417572854085, 40.79141428208319], [-4.00275485055211, 40.79130261841414], [-4.002940354344944, 40.791153449138164], [-4.003036110669926, 40.79103397662935], [-4.0029379648247305, 40.791017894067586], [-4.002692861941608, 40.791247575535934], [-4.002497878800811, 40.79134971304652], [-3.9999724093769107, 40.79195913987263], [-3.9995610812791718, 40.7921787244893], [-3.9993480317706154, 40.79246775201216], [-3.9992827590177824, 40.79270739923317], [-3.999229383844905, 40.79343266963247], [-3.9990235760380966, 40.793770639269255], [-3.9987743011445644, 40.79397620609774], [-3.996102875205311, 40.795877254485546], [-3.9955831363783636, 40.79619747878106], [-3.995284152412732, 40.796314644565264], [-3.995075719080244, 40.79634337285015], [-3.994888295598616, 40.79572260621332], [-3.99444906473204, 40.79452666403063], [-3.9940882065837235, 40.79450842385263], [-3.993793746126474, 40.794411147849765], [-3.9932625788889653, 40.794155470144794], [-3.992733902297935, 40.79384391670021], [-3.9923822393860258, 40.79355894454343], [-3.9922826862094953, 40.793400262656164], [-3.992151973904326, 40.79307573440718], [-3.992075570251272, 40.79299144250792], [-3.991923839762899, 40.79291905861494], [-3.9909324979417518, 40.792627598343], [-3.990213620307518, 40.79233271051799], [-3.9899100151384115, 40.79228945860249], [-3.98974554084578, 40.792364738177696], [-3.989204664197455, 40.79278636927033], [-3.988826029313679, 40.793007256908574], [-3.987567005415239, 40.79337620354939], [-3.9872887152065024, 40.79348974836784], [-3.9871614787695564, 40.79366271661996], [-3.9871639481954904, 40.793821422864106], [-3.9872475214493805, 40.793989970453026], [-3.9876589834603156, 40.79447254033174], [-3.987753606313984, 40.79477864522214], [-3.987762348048594, 40.7950405335484], [-3.9876426604832234, 40.795395041725484], [-3.9874872482653054, 40.79559419554856], [-3.9872512080198836, 40.795727823128736], [-3.986096099900916, 40.7960664116797], [-3.985700092192591, 40.79624428745024], [-3.9854869829891872, 40.796422396986095], [-3.9853364297607525, 40.796822482914706], [-3.9852583109327306, 40.79737589846126], [-3.985284260229639, 40.797727903699574], [-3.985346619013304, 40.79781654940934], [-3.985801898373863, 40.79818335429538], [-3.9858621213020187, 40.79831183940961], [-3.9858898301488415, 40.79847807708814], [-3.9858509534185336, 40.798775234641205], [-3.9855124837116, 40.800031629936456], [-3.98550488084372, 40.80019123284225], [-3.985589483987575, 40.80078172395127], [-3.985488233503222, 40.80104572283601], [-3.985379311073612, 40.80117538251563], [-3.985113415763687, 40.80137601253884], [-3.9843124308796454, 40.801691470454514], [-3.983653337596062, 40.80203048615519], [-3.983405246460498, 40.80222555993658], [-3.9826802329534026, 40.80292681275705], [-3.982251072704764, 40.80325557862933], [-3.980870207146547, 40.80385979667488], [-3.980489035012599, 40.8041802161451], [-3.980300796148325, 40.80448773928514], [-3.9802867332415035, 40.804716760949155], [-3.9803237921850028, 40.80498741272548], [-3.9804914966449725, 40.80571755565119], [-3.9804305772168225, 40.80594426847104], [-3.9800838851795097, 40.80658662210621], [-3.980067860897209, 40.80673035128222], [-3.9801121772283308, 40.80686573060466], [-3.980219687767033, 40.80701786904594], [-3.981002146926984, 40.807830523080135], [-3.9812453185764363, 40.80820140062458], [-3.9813719967062693, 40.80846282629958], [-3.9816664617759545, 40.80924115984251], [-3.9818078897826146, 40.80985991048138], [-3.9817365408543637, 40.81019138950879], [-3.9815771408361393, 40.81043759249853], [-3.981447404618683, 40.81054021571653], [-3.981096839879678, 40.81071895012041], [-3.9800876592336984, 40.81109173032796], [-3.979476168069645, 40.81119249738111], [-3.9781603690035925, 40.811339592125066], [-3.9779235895504943, 40.81138754193409], [-3.9777664802552644, 40.81145940885058], [-3.977604218742874, 40.81162455103206], [-3.977465211698534, 40.81192048173516], [-3.977332524117335, 40.813188439577694], [-3.977222195667117, 40.81345133662368], [-3.9759023553587407, 40.81444260673639], [-3.975456042701163, 40.8146441997928], [-3.9752674061536863, 40.814669036090066], [-3.975079936864909, 40.814635938607424], [-3.974752139396669, 40.81450151166081], [-3.9744955771913055, 40.8142595531218], [-3.974058573661957, 40.813719320092424], [-3.9738270532835034, 40.81359254541277], [-3.9735501895114864, 40.813527139360765], [-3.972651412348599, 40.813468054007494], [-3.9717622337106775, 40.8135466228201], [-3.970761552993286, 40.81372818304548], [-3.9703190891635933, 40.81386062992738], [-3.9701688063239717, 40.81395440944101], [-3.9703662890896148, 40.81411354745557], [-3.9706203757672145, 40.81395853853954], [-3.9708528601616004, 40.81387524157431], [-3.9715387691625352, 40.81375226899704], [-3.9720562073800294, 40.81369584673411], [-3.972635512934629, 40.81367835261128], [-3.973250685346442, 40.81371361663587], [-3.9736081568075146, 40.8137939276052], [-3.97378910248173, 40.813875727585966], [-3.974227489384151, 40.81428406787952], [-3.974478524600917, 40.81459363172652], [-3.9747349277627033, 40.814816133622514], [-3.9750055153894053, 40.81493023485605], [-3.975443696540105, 40.814958875292334], [-3.9756613474360916, 40.81489920132663], [-3.9759575261677047, 40.814744815642506], [-3.9763739115539662, 40.81445915590086], [-3.9773345987190343, 40.81376648704023], [-3.9775781806365065, 40.81353516112547], [-3.9776451008358142, 40.81343343042838], [-3.9777064761294314, 40.813195905449426], [-3.9778061891898617, 40.812113253471104], [-3.977897670916248, 40.81191600620158], [-3.9780792037446266, 40.81174673657043], [-3.978167034224872, 40.811696536146755], [-3.978219962652788, 40.81175635317707], [-3.978486350536371, 40.811633472507154], [-3.9787085766317585, 40.81158753675453], [-3.980315024531992, 40.811403198759685], [-3.9806720029404805, 40.811313414616336], [-3.9817088117763824, 40.81091670228642], [-3.9819260839247437, 40.81080044736115], [-3.9822540861769933, 40.81053903031479], [-3.9823790876541696, 40.810388787884044], [-3.9824898590142723, 40.810109401312715], [-3.9824991231873144, 40.80988546514455], [-3.9824185306276587, 40.809541402210186], [-3.9820050635697104, 40.808371860346774], [-3.9818515618543007, 40.80799599193076], [-3.9815991416233922, 40.807552406919015], [-3.9810258161156202, 40.807070562464936], [-3.9809004110694883, 40.8069110099112], [-3.980800199720172, 40.80661900501731], [-3.981069921144242, 40.80572561054973], [-3.9810548311906744, 40.805392880392255], [-3.981096218039922, 40.80475735427166], [-3.98117550057205, 40.80457831473509], [-3.9812919528251043, 40.80441968271676], [-3.98143706245716, 40.80430719530646], [-3.981629272072107, 40.804189082144234], [-3.9826273299118826, 40.80376908923951], [-3.982956743383674, 40.803557203904745], [-3.983971308821726, 40.802658809874934], [-3.9843533504875204, 40.802391336076674], [-3.984741499635037, 40.80222407634489], [-3.9855869106247033, 40.802026966048174], [-3.986219176934979, 40.801806353720046], [-3.9864015436703846, 40.80167264670871], [-3.986591767649008, 40.80146157605334], [-3.9866424002702723, 40.80127836360605], [-3.98664836246797, 40.80108860121451], [-3.986549652657137, 40.80073055250168], [-3.9863909122238983, 40.80033761408295], [-3.9863376970625746, 40.8000336812307], [-3.986409641364799, 40.79982470292307], [-3.9870158209124957, 40.798996610082035], [-3.987156148599703, 40.79874642308349], [-3.9872136614610314, 40.7985157674901], [-3.9872117102587907, 40.79833606746799], [-3.9871674560592876, 40.798197447164], [-3.986667030752198, 40.79756817438466], [-3.986637011028477, 40.79733403360914], [-3.9866672787986057, 40.79713622146833], [-3.986752180494939, 40.79697001634469]], [[-4.007712289568615, 40.78769260759308], [-4.0077141674713355, 40.78769021163271], [-4.0078643938632155, 40.787131447924224], [-4.007712289568615, 40.78769260759308]], [[-4.004748167456358, 40.78557734358911], [-4.004857706425335, 40.78550846659185], [-4.004767087708687, 40.78542511756087], [-4.004657548779544, 40.78549399447258], [-4.004748167456358, 40.78557734358911]], [[-4.0029516733633566, 40.78883826226187], [-4.002951673363356, 40.78883826226187], [-4.002781166986876, 40.78889888185633], [-4.0029516733633566, 40.78883826226187]], [[-3.960738767863903, 40.819675813816346], [-3.9607137720671206, 40.81935658640768], [-3.960645082788097, 40.81918996368943], [-3.960652768898102, 40.81928709962875], [-3.960554062233997, 40.819547091321645], [-3.9606143763035635, 40.81979071500078], [-3.960693960149583, 40.81987409556448], [-3.960738767863903, 40.819675813816346]], [[-3.9605803073304933, 40.81806951465856], [-3.9604010293958707, 40.81840719387913], [-3.96037742091399, 40.81857080164157], [-3.960516772662317, 40.818844125528656], [-3.9607218498813834, 40.819143922420594], [-3.960710515241977, 40.81895007184306], [-3.9606038556992478, 40.818542882359054], [-3.9605803073304933, 40.81806951465856]], [[-3.96436293279688, 40.82264336379135], [-3.963378501161993, 40.82322311221447], [-3.963575237232847, 40.82318386255807], [-3.9636740500940886, 40.823206313354035], [-3.9638065051603646, 40.82313371539278], [-3.964066308859514, 40.82286982831204], [-3.96436293279688, 40.82264336379135]]]]}}]}