{"type": "FeatureCollection", "features": [{"type": "Feature", "properties": {"status": "ok", "version": 6, "n_rows": 3, "n_parcels": 3, "n_matched": 3, "foral": 0, "public_domain": 0, "declared_m2": {"expropriation": 0, "easement": 0, "temporary": 7294}, "parcels_m2": 420057, "catastro_date": "2026-08-21", "identifier": "BOE-B-2026-28327"}, "geometry": {"type": "MultiPolygon", "coordinates": [[[[-7.918603756173753, 43.43642149614981], [-7.91994922160744, 43.436528537662774], [-7.920143415253944, 43.43667024026415], [-7.92025573746319, 43.436922687827405], [-7.917280245968351, 43.43717512558015], [-7.9202438634868235, 43.43692369673647], [-7.920273712957026, 43.4371744064777], [-7.920797811197869, 43.43757226635405], [-7.920690188315592, 43.438001674499326], [-7.920687035328251, 43.43817904312177], [-7.9145164901110725, 43.438625034045735], [-7.914463935248776, 43.438554958835624], [-7.91414962014342, 43.43755387389376], [-7.91359798973966, 43.43607778007771], [-7.913540850076233, 43.43574930016788], [-7.918200530062809, 43.435396822610144], [-7.918257848632673, 43.43551586613866], [-7.918262615020872, 43.43562978876454], [-7.918142680854305, 43.43598236143282], [-7.91819504732724, 43.43614773933341], [-7.918292467698259, 43.43624674495518], [-7.918510850510387, 43.43638496938824], [-7.918603756173753, 43.43642149614981]]], [[[-8.08009603245157, 43.52230764099088], [-8.078323500201998, 43.522338035122964], [-8.077833608239953, 43.52328126380875], [-8.079955510647052, 43.52370543013173], [-8.07989367867235, 43.523841260638115], [-8.07960457963755, 43.524218469696415], [-8.07935051276501, 43.52447215685739], [-8.079089242510268, 43.52457288060193], [-8.078589025459669, 43.52495829091662], [-8.078341737518855, 43.524969448308596], [-8.077597218552242, 43.52486853969703], [-8.077406911985154, 43.524965154416876], [-8.077115184823896, 43.52505032071702], [-8.075076198153274, 43.52459111143325], [-8.073788475159116, 43.52411723579381], [-8.073668302891814, 43.52400479018444], [-8.073719925142242, 43.52377694746046], [-8.073793165596465, 43.52365660991105], [-8.074421186755021, 43.5230391229802], [-8.074884359290461, 43.52274689915996], [-8.075118339073528, 43.52255294631552], [-8.07618657509491, 43.521247203383645], [-8.07650208684717, 43.5209076736302], [-8.076621096881599, 43.52082002899406], [-8.077067298593365, 43.52062463442161], [-8.07773539159243, 43.52013360581388], [-8.078568296040878, 43.51984605510987], [-8.078667406970139, 43.5197976863725], [-8.078748381934583, 43.51967182977533], [-8.078712423410911, 43.51953043958954], [-8.078534636888822, 43.51940726993135], [-8.074724110987779, 43.51741661606502], [-8.074391938881119, 43.517211598195644], [-8.074289862170687, 43.51711451223118], [-8.075813143680369, 43.51617803504647], [-8.076654060093345, 43.515783588267865], [-8.077052952698788, 43.515945913520284], [-8.077639181547656, 43.51631091197915], [-8.07833586706363, 43.51692234275781], [-8.07885013612974, 43.51765926353658], [-8.079667027706758, 43.51893582298353], [-8.079830174164298, 43.51920861304627], [-8.07986481628539, 43.51932279958799], [-8.079902612276108, 43.519595850223865], [-8.079899814378113, 43.51966597048328], [-8.079853936282257, 43.519639759181736], [-8.079859425805601, 43.51978333042746], [-8.079923330594616, 43.519983472497564], [-8.079983841024182, 43.520374035182456], [-8.080103351229443, 43.520660250076105], [-8.08009603245157, 43.52230764099088]]]]}}]}