{"type": "FeatureCollection", "features": [{"type": "Feature", "properties": {"status": "ok", "version": 6, "n_rows": 7, "n_parcels": 7, "n_matched": 7, "foral": 0, "public_domain": 0, "declared_m2": {"expropriation": 0, "easement": 0, "temporary": 0}, "parcels_m2": 881427, "catastro_date": "2026-08-21", "identifier": "BOE-B-2026-31585"}, "geometry": {"type": "Polygon", "coordinates": [[[-5.7516484433908115, 39.702995058496576], [-5.751640960628904, 39.7030884722352], [-5.751666287880396, 39.70309778074519], [-5.752551656455464, 39.70293553823407], [-5.753050516642463, 39.70289028144593], [-5.746906165809633, 39.713207958589635], [-5.74653647825487, 39.713732608997226], [-5.746233125575819, 39.71363357725922], [-5.74461546216289, 39.713572301680095], [-5.742077982446356, 39.71368210057359], [-5.739290831914968, 39.71370503432038], [-5.73926803153993, 39.713455082228265], [-5.7392052890075, 39.71331300667733], [-5.739209972620094, 39.71317024901429], [-5.738706090364938, 39.71262608215602], [-5.735860517319815, 39.70911819702057], [-5.735384284667799, 39.70799905783387], [-5.735575479436845, 39.707523971686435], [-5.735245473148436, 39.70680898027682], [-5.734729905650424, 39.706391957498205], [-5.734154618361756, 39.70622942945032], [-5.7339074159152545, 39.70586850636406], [-5.734475126098628, 39.705503193937616], [-5.734802157318016, 39.70524290518632], [-5.7382620062466625, 39.706153292792614], [-5.740278622051077, 39.706641443972146], [-5.742347116972239, 39.70725258106732], [-5.746433335621045, 39.708222387274354], [-5.746746852141351, 39.707896736884486], [-5.747123704907483, 39.70739749076389], [-5.74807964073089, 39.70580002872797], [-5.748847143822021, 39.70475689238205], [-5.749390433152255, 39.70390345602798], [-5.749578068394568, 39.70354182896397], [-5.749840448812853, 39.703215373336235], [-5.75008924661679, 39.70309002592076], [-5.7503056663190675, 39.70305120486042], [-5.751352605775116, 39.70297243223753], [-5.7516484433908115, 39.702995058496576]]]}}]}