{"type": "FeatureCollection", "features": [{"type": "Feature", "properties": {"status": "ok", "version": 6, "n_rows": 175, "n_parcels": 155, "n_matched": 155, "foral": 0, "public_domain": 0, "declared_m2": {"expropriation": 2314738, "easement": 6459, "temporary": 26737}, "parcels_m2": 17896228, "catastro_date": "2026-08-21", "identifier": "BOE-B-2026-30631"}, "geometry": {"type": "MultiPolygon", "coordinates": [[[[-6.53496396775827, 40.059085645433136], [-6.536283530833311, 40.060272886892434], [-6.53718798358922, 40.06141210327332], [-6.537765759209172, 40.06204243927352], [-6.538094275578144, 40.06245532818672], [-6.540338317134382, 40.0644330007601], [-6.540534082828622, 40.06441085970726], [-6.5404945554126765, 40.064577659349624], [-6.54086120047926, 40.064909014908636], [-6.541252330584989, 40.06515315780029], [-6.541269899489111, 40.06529054207014], [-6.541362113621517, 40.06543554696655], [-6.541441667565411, 40.06566198791094], [-6.541728035956623, 40.06718278064291], [-6.542008667182146, 40.06823403921974], [-6.541724409274476, 40.06818656622396], [-6.541431251778399, 40.06798233999389], [-6.541170036640161, 40.06784519126947], [-6.540161430540617, 40.067817101306574], [-6.539826520096218, 40.06788700612314], [-6.539446518866701, 40.0678742468199], [-6.53907497592991, 40.06781203054881], [-6.538394835308515, 40.06752210880165], [-6.5386037603814, 40.06756132236905], [-6.539752519256078, 40.067506550853054], [-6.540229023968785, 40.067418034633505], [-6.54038975405086, 40.06736947153714], [-6.540532391526346, 40.06727972097691], [-6.540846659523513, 40.067249007487206], [-6.54100282786888, 40.067174047024025], [-6.5412402693339144, 40.066964877628045], [-6.541285559588321, 40.06676189236205], [-6.541293231575546, 40.066483438751995], [-6.541191709456623, 40.065798645732094], [-6.54114650891919, 40.06568643829303], [-6.541098721261577, 40.06567857715516], [-6.54101377803257, 40.065683443800424], [-6.540798350623552, 40.065805520066924], [-6.540694919322363, 40.06554542113121], [-6.5410925768988575, 40.06564079212858], [-6.54130419088491, 40.06563447608253], [-6.5413738883539105, 40.06561667842154], [-6.541338757396411, 40.06548837992003], [-6.541178989977975, 40.06528527846785], [-6.540068582857877, 40.06426260381091], [-6.539977710786618, 40.06427914457274], [-6.539755824973315, 40.06412795569467], [-6.539750849868242, 40.06407073759264], [-6.539608769122876, 40.063839007710165], [-6.538011509447787, 40.062530224149434], [-6.537710002338065, 40.06213547549905], [-6.536616202492981, 40.06085954769592], [-6.5362162121923495, 40.060283349880294], [-6.535183917394512, 40.059410112150495], [-6.5349458231263915, 40.059253979423964], [-6.53496396775827, 40.059085645433136]]], [[[-6.537626790484328, 40.0690410270657], [-6.537983676920328, 40.067863332841], [-6.538113417371005, 40.067568463304504], [-6.538101327519649, 40.06752000755783], [-6.537948822240395, 40.067418313470725], [-6.538076140070575, 40.06743479887859], [-6.538777858609414, 40.06775058896634], [-6.539321525497793, 40.06788744497752], [-6.539773140406795, 40.06792712970586], [-6.5401630086186255, 40.067835151351325], [-6.541162258437183, 40.067862592193066], [-6.541712930778868, 40.068202532877024], [-6.541986081040792, 40.06826544446347], [-6.542042333911836, 40.068504182003494], [-6.542524374918551, 40.06905418031697], [-6.5424846067589035, 40.06904838168273], [-6.542892299507803, 40.06953365247707], [-6.543319905900791, 40.070006732824545], [-6.544850108589872, 40.07184504104609], [-6.545932517982569, 40.07294751620951], [-6.548275398455674, 40.074130634990865], [-6.54851717287669, 40.07432699092436], [-6.549468433614065, 40.075803021525445], [-6.550332920032179, 40.07702172963185], [-6.55117502447285, 40.07846002517133], [-6.551765965331567, 40.07924091387703], [-6.552534554091174, 40.08013734317127], [-6.5526546615492824, 40.0804575043288], [-6.552729404382937, 40.08104542273444], [-6.552970838591153, 40.08216257723025], [-6.553065580605471, 40.08248040012814], [-6.553185490082569, 40.082737503220415], [-6.55387290641337, 40.08388470496254], [-6.554138442896486, 40.08424091189925], [-6.5550022339920675, 40.08513032343322], [-6.555193412274807, 40.085454144828965], [-6.555362630073145, 40.085896956136544], [-6.5555846926516805, 40.08610180393876], [-6.556496453413034, 40.08645470829468], [-6.557732007609925, 40.08664102776094], [-6.558302284175854, 40.08678367652046], [-6.5592161211839155, 40.08742044452828], [-6.559997219015593, 40.08752185320331], [-6.560460579817279, 40.0877750168324], [-6.560784854386995, 40.08789345741552], [-6.561577928001939, 40.08816554403418], [-6.561938537423448, 40.088222319485624], [-6.56335706610761, 40.0886396162246], [-6.56370925558984, 40.08881088861226], [-6.564447092428773, 40.08908034743912], [-6.565013226095502, 40.089007758920545], [-6.565277292114252, 40.08901259209859], [-6.565381369622263, 40.08904405774058], [-6.565796743241939, 40.08934149805801], [-6.566223325231027, 40.0895382845104], [-6.566440637263974, 40.089798858586164], [-6.5662111864712935, 40.089921686657604], [-6.565787711646414, 40.09023653557972], [-6.565190692881422, 40.09061916407852], [-6.565222086712055, 40.090797913115], [-6.565179304110806, 40.090915562004], [-6.565080039808406, 40.09100544405215], [-6.5646047222417945, 40.09110949034707], [-6.564054442374528, 40.09105278596726], [-6.56390356072834, 40.0910805994662], [-6.563520104220677, 40.091078560780595], [-6.562727078935151, 40.09097485255249], [-6.562476279632688, 40.09097930558064], [-6.562435728953869, 40.0910145748686], [-6.562414688054082, 40.091199877550274], [-6.562341100211993, 40.091263637915915], [-6.562261924785199, 40.09127692443082], [-6.56197805564618, 40.09113006199065], [-6.561505449104175, 40.0910726345912], [-6.561347857269677, 40.091015715899076], [-6.561120859834036, 40.09102021695781], [-6.560964525594631, 40.09063254566704], [-6.560975874491735, 40.09052496047256], [-6.560908139166045, 40.09042155995117], [-6.56070322413901, 40.090307166090106], [-6.560679872457274, 40.090241814624704], [-6.56075546353061, 40.090121980599314], [-6.560723380421384, 40.09004167163142], [-6.560634226701075, 40.08998628406335], [-6.560207355984051, 40.0901786230934], [-6.559284889632827, 40.09071750103282], [-6.55835226452079, 40.09121516964552], [-6.557532862596422, 40.09174089745108], [-6.556895539477081, 40.092087864817415], [-6.556448593926771, 40.092162208426366], [-6.55532691966553, 40.09224212644496], [-6.554939564407959, 40.092158817125366], [-6.554721516603756, 40.092165652075785], [-6.554437955420514, 40.092334782462515], [-6.554154019178805, 40.09237337025651], [-6.553058453056564, 40.09270649449599], [-6.552135699124348, 40.092897328988975], [-6.550926457302087, 40.093227213856835], [-6.550753402282393, 40.09331048216495], [-6.550668389176818, 40.093391559305275], [-6.550272515728444, 40.093872771547815], [-6.54968865800896, 40.0944508012221], [-6.549210385311959, 40.09448211932507], [-6.549076219363081, 40.09452422998013], [-6.54894472169886, 40.09469116102739], [-6.54866943689426, 40.09456372097293], [-6.54854586314433, 40.094539484445384], [-6.548353593719035, 40.094559734970666], [-6.547746646778746, 40.09478081882091], [-6.5473782459251275, 40.094959935155444], [-6.547060333828516, 40.09519633148934], [-6.546969164265972, 40.09530492614534], [-6.546919554055979, 40.09548448543534], [-6.546511982620638, 40.09587869167519], [-6.5461727989060465, 40.09626614856059], [-6.545804415369971, 40.097113562565816], [-6.545486015251533, 40.09752623052171], [-6.545114460383532, 40.097730495548916], [-6.544978640721856, 40.09786075231265], [-6.544766733288811, 40.09797030222559], [-6.544687768677923, 40.09798394139219], [-6.544016499138022, 40.09788854217116], [-6.543980832558147, 40.09792787207012], [-6.544584853528455, 40.09801121540746], [-6.544829266042226, 40.098002436622224], [-6.545230771402463, 40.09771233318227], [-6.545544149134789, 40.09753079616984], [-6.545745885849783, 40.09728969371725], [-6.5458933418496414, 40.097041224501965], [-6.546355627193219, 40.09716155026794], [-6.544989036257509, 40.09904282944524], [-6.54689094700975, 40.09973136271407], [-6.549122931336065, 40.100594762607386], [-6.549926342318021, 40.10072878204107], [-6.551532363559583, 40.10088499516044], [-6.551948226579997, 40.100966212094136], [-6.553147340955902, 40.101298826085745], [-6.553932915188299, 40.10162008224652], [-6.554852712887183, 40.10179318586801], [-6.554827044917561, 40.10182858653845], [-6.553946249287854, 40.101650631661585], [-6.55312674604317, 40.101326856773696], [-6.552599357358834, 40.101156446881326], [-6.551779200574748, 40.100965884936514], [-6.54924135689174, 40.10067465053178], [-6.548709257620252, 40.10177921520153], [-6.548653098907087, 40.10202007249638], [-6.548504660646494, 40.10184180913497], [-6.545143326611774, 40.100999048336355], [-6.545123910082061, 40.10099422254907], [-6.545023908139419, 40.10097624732649], [-6.545065514842375, 40.100983795779015], [-6.545953824488081, 40.102338793528695], [-6.546018053029267, 40.10294729574274], [-6.546535567005966, 40.10468492962879], [-6.546697149490712, 40.10515370984275], [-6.547010718510266, 40.10560751405299], [-6.547093759150914, 40.105826547462335], [-6.547117454361893, 40.10612692865348], [-6.546870080564758, 40.107428215808724], [-6.546935601508316, 40.108268701620084], [-6.546963024078186, 40.109362952072054], [-6.546974486677894, 40.10941940623934], [-6.547123119928626, 40.109563349817144], [-6.5474350723174, 40.110885217509946], [-6.547492606445215, 40.1108937331761], [-6.547495810173634, 40.11094496319789], [-6.547613445545353, 40.11096565211505], [-6.5478900403365, 40.11094736981687], [-6.54944944220011, 40.11061141717033], [-6.5512820976729405, 40.11029762367792], [-6.5551344118965, 40.11032345480967], [-6.5553773645327515, 40.11044506233192], [-6.556061857655662, 40.110951527333974], [-6.5568586148364725, 40.11161565964382], [-6.557913443893183, 40.11240602724373], [-6.557898223574502, 40.112451193152395], [-6.556750762512376, 40.11161014475287], [-6.556118506607547, 40.11106325425496], [-6.555279541878341, 40.11045110375784], [-6.555145167589908, 40.11039655849931], [-6.551552157084773, 40.1103567550851], [-6.549292483793573, 40.11074826200651], [-6.54793985940576, 40.11104652461175], [-6.547611610366471, 40.111039570659365], [-6.546930522990371, 40.11087092277568], [-6.546671021236289, 40.110844523999965], [-6.546519627013204, 40.11087212325629], [-6.545831801199666, 40.111223721421005], [-6.545597029776416, 40.1112664916165], [-6.543445474588068, 40.11099601446759], [-6.542120714720198, 40.110725044511305], [-6.541929176965099, 40.110645488496324], [-6.54183985320198, 40.11057189080719], [-6.541081307679266, 40.10950599030558], [-6.540926645746668, 40.109334526046794], [-6.539743151884253, 40.10877115103119], [-6.539649805568604, 40.10869845707868], [-6.538840604947607, 40.10772442107783], [-6.538724421227908, 40.10762808972954], [-6.53751958551941, 40.10700739665902], [-6.537329045317388, 40.10697866061911], [-6.537164347208062, 40.106958941805686], [-6.5340854268487005, 40.10737209325191], [-6.529590357905335, 40.10775297042794], [-6.526906180701821, 40.10764972563072], [-6.52492909201276, 40.10713824492049], [-6.5237289887529535, 40.106979351320355], [-6.5226601699467786, 40.1073827491793], [-6.522406083474615, 40.10737586968892], [-6.5228317371909785, 40.10713554734702], [-6.523131432623262, 40.10700737817198], [-6.523595097835995, 40.106831549712346], [-6.523717530974746, 40.10681660296438], [-6.524336987873269, 40.10684453191888], [-6.5245393184387925, 40.10688101826865], [-6.526834006907894, 40.10745937639049], [-6.527204867723954, 40.107536293242624], [-6.527349815948247, 40.107524706250224], [-6.527334168491111, 40.10748059668381], [-6.527113627147833, 40.10729905457429], [-6.5266209425985995, 40.107035947458435], [-6.526497508770594, 40.1067677573929], [-6.526452527468703, 40.106516638664715], [-6.526458842957631, 40.10634237948995], [-6.526310551182282, 40.10594781355576], [-6.526227345508627, 40.105518155188825], [-6.526282334805742, 40.10501712795917], [-6.526411895854301, 40.10459498452911], [-6.526407152622374, 40.10417880358691], [-6.526312391484323, 40.103656929070475], [-6.526351113639168, 40.1032487888814], [-6.526486117677282, 40.10288658048391], [-6.526593963150262, 40.102704216815475], [-6.52668079548134, 40.10238934836778], [-6.526669844798719, 40.102235078686114], [-6.526499888075171, 40.10167456929914], [-6.526475527540549, 40.10150190656575], [-6.526451881396865, 40.101257733978265], [-6.526495367269817, 40.10063710633228], [-6.526735464199148, 40.10002896703387], [-6.526998789589759, 40.09956311250454], [-6.5270761345509625, 40.099241194652635], [-6.526742312838926, 40.09845072749837], [-6.526755184301763, 40.0979043891434], [-6.526825234339599, 40.09764150393484], [-6.5269538607513615, 40.097361033914254], [-6.52666326234853, 40.09681515728013], [-6.526554285186957, 40.096530426077145], [-6.526570220493391, 40.09627187520353], [-6.526594023782776, 40.09608753989059], [-6.526756706316982, 40.09573789847016], [-6.526857785047052, 40.09533072948418], [-6.5270664699447245, 40.094918837219026], [-6.5270534773389475, 40.094633094018214], [-6.527201666560954, 40.09439862749306], [-6.5272476261030485, 40.09406217066954], [-6.5276378481555835, 40.09331084734845], [-6.527842321548347, 40.09281410074655], [-6.527881556576135, 40.09257270776109], [-6.52780324586666, 40.0924225845813], [-6.527707866920819, 40.09235514805906], [-6.527770964774712, 40.092300198743985], [-6.524890945481552, 40.090180867403], [-6.526529119598042, 40.087287174180325], [-6.526915486798541, 40.08480127757207], [-6.527026919236526, 40.084395860232576], [-6.527018763424373, 40.08403482562026], [-6.526965345516432, 40.08389711988088], [-6.526917758620573, 40.08381215120547], [-6.526806517787595, 40.084442417348534], [-6.526409196864153, 40.08502171198845], [-6.525875170378126, 40.08560662121339], [-6.525625876309063, 40.08567686768469], [-6.525165242827076, 40.085624327022394], [-6.524165454349233, 40.08531055212805], [-6.523585358609884, 40.08525688713377], [-6.523361769624823, 40.085193915553525], [-6.522470773521668, 40.084778223868554], [-6.522120031479697, 40.084670735071086], [-6.521832829558963, 40.08480637238452], [-6.521582971255908, 40.085011725791134], [-6.521402356114827, 40.084805084068485], [-6.521530470494327, 40.084645413275325], [-6.5217503029532535, 40.08448535911262], [-6.522139497941627, 40.08405977305209], [-6.52175883422691, 40.083855876403675], [-6.521567912366967, 40.08370064038857], [-6.5210529854164365, 40.083460991540115], [-6.520712058848607, 40.08314471357591], [-6.518201651267755, 40.0805416491378], [-6.517922032067541, 40.08074644238689], [-6.517899024736804, 40.080714780692745], [-6.517868292006753, 40.08074727202862], [-6.516654027773344, 40.08337175917429], [-6.516301707858194, 40.08402106636002], [-6.516210499052304, 40.084116938711496], [-6.51581448907916, 40.08440642886312], [-6.514664927668763, 40.085016460580306], [-6.510618075913234, 40.0870789945365], [-6.51248004125307, 40.08888154011673], [-6.512129310216566, 40.08906965684304], [-6.514576092502993, 40.091022110723955], [-6.516478093660382, 40.09290345884361], [-6.516660824185642, 40.09314221814779], [-6.517457663729999, 40.09447250638249], [-6.519564326936837, 40.09678165062202], [-6.5190279093716965, 40.097153544320236], [-6.518820399235319, 40.097263681059985], [-6.51867615702473, 40.0972723855582], [-6.5183026697665, 40.09721159574831], [-6.516624364517702, 40.097318464715585], [-6.516424875006149, 40.09723040875136], [-6.516314843312654, 40.097117702163004], [-6.516180485759938, 40.09704509597595], [-6.515856180312398, 40.09699282584472], [-6.515591314824588, 40.097076948892145], [-6.515334242650483, 40.097091789938965], [-6.515198518347314, 40.09699230886992], [-6.515164864939843, 40.09681151722514], [-6.515121232818299, 40.09677598918121], [-6.514518058158003, 40.09668025479198], [-6.514051849153412, 40.09664682265288], [-6.513707922205977, 40.09653773387257], [-6.513386072521931, 40.096563245774966], [-6.513066807717722, 40.096794563887954], [-6.512954783906607, 40.0968431390331], [-6.512161866551503, 40.09709066248054], [-6.512094020637547, 40.09715955832066], [-6.5119611401561865, 40.09771925474801], [-6.511885964576324, 40.09789590650016], [-6.511914904903164, 40.09802876872747], [-6.511905493949862, 40.09854769927274], [-6.511571403738255, 40.09891840236759], [-6.511473439344901, 40.09912483141963], [-6.51176520446897, 40.09958087747633], [-6.512127836806619, 40.09979180628565], [-6.512195188374879, 40.09993611909878], [-6.512007985062546, 40.10021899738138], [-6.511988512252022, 40.10038009560314], [-6.5114723509563275, 40.10091182463913], [-6.511214519714129, 40.10123020681426], [-6.511318032599734, 40.10159888065673], [-6.511228256675724, 40.10168369931024], [-6.510942756298882, 40.101728092113746], [-6.51074987339242, 40.1018545586319], [-6.510587709518723, 40.102084198551005], [-6.510529870772044, 40.10212313117001], [-6.510338017283361, 40.10257832760905], [-6.510147730355249, 40.10274592620813], [-6.5100994784626005, 40.102856315002725], [-6.5099102990536535, 40.10309014712918], [-6.509680768041581, 40.10314042947593], [-6.509560764808906, 40.103281793907286], [-6.509522218971749, 40.10343815730993], [-6.509410752839951, 40.10356736404359], [-6.509262345354393, 40.10390521140921], [-6.5090858226347414, 40.10419066554667], [-6.509089202637681, 40.10426198845126], [-6.509160311382686, 40.10435792429001], [-6.509169235763611, 40.10448305522614], [-6.509071818128031, 40.10455833917432], [-6.508762795228444, 40.10468131205347], [-6.508716850124384, 40.104725183943465], [-6.508767600373549, 40.10493535142466], [-6.509026350255575, 40.105309169551944], [-6.509038688402808, 40.10539861599277], [-6.508969322601666, 40.10575311731459], [-6.5088372947429, 40.106002140041625], [-6.508709828311461, 40.10616136370633], [-6.50836091637523, 40.10641913998504], [-6.508134836359026, 40.10682440188448], [-6.518195071123046, 40.10721532474098], [-6.5180852895930546, 40.10735331842335], [-6.479703751527134, 40.105907007374796], [-6.475393082271486, 40.10478875506487], [-6.474497545515181, 40.10450960521316], [-6.471310930143976, 40.103683897579906], [-6.471073686427342, 40.10362493608499], [-6.470785553530286, 40.1036446697331], [-6.470678480971716, 40.10356153170822], [-6.471072154010165, 40.10352698420754], [-6.475082154097384, 40.10453983452019], [-6.475508925507427, 40.10444150015692], [-6.475782838370666, 40.104260739495764], [-6.476155283875059, 40.10426732938286], [-6.476256146188432, 40.10423944132565], [-6.4763586223284815, 40.10416790339982], [-6.476572234380464, 40.10410788191434], [-6.476711034681056, 40.10395480114579], [-6.476866802260512, 40.10392360533456], [-6.476934056162914, 40.103852830508906], [-6.476950562368566, 40.103752209053084], [-6.476878063557915, 40.10348885227218], [-6.476977943973053, 40.103052702282824], [-6.477126457351129, 40.10280812980537], [-6.477253683753043, 40.10270163840012], [-6.477537444608996, 40.10232390434611], [-6.476924818285856, 40.10244296787771], [-6.476591420924943, 40.102446415599], [-6.476167655444268, 40.102378173571616], [-6.4749976668863365, 40.1021018714645], [-6.473083186318898, 40.10196406307954], [-6.472827453701278, 40.10206558240982], [-6.47168829151875, 40.10216736081481], [-6.470983461806251, 40.10229554440958], [-6.470806581503112, 40.10233636011263], [-6.469881930855075, 40.1027902375904], [-6.46919963492629, 40.10285459369445], [-6.4691818153129725, 40.1028289813249], [-6.46987102988324, 40.10276468646894], [-6.470790231793647, 40.10231222140326], [-6.470975748553298, 40.10226943246382], [-6.471681760125483, 40.10214100448357], [-6.472816086198744, 40.10203993128793], [-6.473077625411234, 40.1019368271937], [-6.4750032203653625, 40.10207541859498], [-6.476177518742658, 40.102352535262185], [-6.476595222122346, 40.102419748791085], [-6.477113594292689, 40.10238807910514], [-6.477560528337034, 40.102296031725494], [-6.477629541821111, 40.10221249423204], [-6.478103797592648, 40.10187620327409], [-6.478639640237475, 40.10139667559578], [-6.478814814149541, 40.10128753343869], [-6.4795353910966, 40.101170625647256], [-6.4798844850018975, 40.10101176026288], [-6.480454376454973, 40.10064862531316], [-6.48065721517399, 40.100667002749965], [-6.480702011768173, 40.1006419441592], [-6.480731457452267, 40.10060691724699], [-6.480724402289556, 40.100241843636915], [-6.480639369210148, 40.10001902761308], [-6.4807684642183725, 40.09967088874768], [-6.4808005518860545, 40.09948160971621], [-6.480946826691477, 40.09914149691128], [-6.480974374101431, 40.09898940824416], [-6.480969314275074, 40.09869419564565], [-6.480844556030302, 40.098581585750935], [-6.480732317234091, 40.09803118633557], [-6.480723581312915, 40.09774661339294], [-6.4806881162765615, 40.09761738982049], [-6.480748899167403, 40.0974101739527], [-6.4809718026751595, 40.09689084942892], [-6.481133254789388, 40.09668600861145], [-6.4813051498585486, 40.096372941109756], [-6.481378526574029, 40.096129335678114], [-6.481521903008032, 40.09602967205157], [-6.4818355524607965, 40.095959570299215], [-6.481950408898575, 40.09590486698199], [-6.482069544540928, 40.095788194942656], [-6.482068348793224, 40.095725201928666], [-6.4819700138166265, 40.095662708323935], [-6.481900128398317, 40.09535041578824], [-6.481899289758899, 40.09517915250727], [-6.481983698221061, 40.094871833185806], [-6.482091440763168, 40.09473644654616], [-6.482505699950384, 40.09467330104789], [-6.482705684212068, 40.09450776068409], [-6.482800124633862, 40.09415409117576], [-6.482863622291628, 40.09407340758521], [-6.48288005590074, 40.09363399112494], [-6.48309393702981, 40.09337453136081], [-6.483298297927499, 40.09320800407288], [-6.483416878281463, 40.09303618852504], [-6.483555003079835, 40.09290992408858], [-6.4837257714287135, 40.09281463646797], [-6.483905038370944, 40.09275925929856], [-6.484332766839832, 40.09266442539643], [-6.485090564313857, 40.09257523418735], [-6.485611183417003, 40.09246448727787], [-6.485845316249299, 40.09250515473147], [-6.486084394821651, 40.09259961777335], [-6.486511259510119, 40.09295830457154], [-6.48685537708625, 40.09313062515793], [-6.487221533103265, 40.093261895473006], [-6.487337389429752, 40.093275400212136], [-6.487585670094479, 40.09320899843352], [-6.4877084243600365, 40.09314022329384], [-6.487856107662225, 40.09297407925763], [-6.4881944963186635, 40.09277613052803], [-6.488459314420567, 40.09273837131579], [-6.4885958437589775, 40.09266494408527], [-6.488662077538179, 40.09237569643409], [-6.488783309048188, 40.09235463487868], [-6.48901361056236, 40.09238152040082], [-6.489121357327117, 40.09236673745146], [-6.48922502735772, 40.09230971225856], [-6.489327455131468, 40.09215870933734], [-6.489314486027282, 40.092010608521086], [-6.489395835076277, 40.09190031119228], [-6.489598756957622, 40.091848955825945], [-6.489910588118191, 40.09168717935537], [-6.490325541573659, 40.09156934553429], [-6.490407281300444, 40.09150580383768], [-6.490951647239115, 40.09131970320465], [-6.49104008835713, 40.09126847183164], [-6.491188159471646, 40.09105296700811], [-6.491464853613723, 40.090809986291895], [-6.491726610692915, 40.09068287766901], [-6.491757399452418, 40.090626973444316], [-6.491738181808345, 40.09049557821679], [-6.49180190905558, 40.09014321701441], [-6.491764634992402, 40.08989351806883], [-6.491824043605984, 40.08957249727266], [-6.491821155362951, 40.08944037485512], [-6.49171494554854, 40.08933043045655], [-6.49170753023141, 40.089254511037765], [-6.4917934805074635, 40.08907621431044], [-6.491881188353831, 40.08900956237876], [-6.491892956505658, 40.08878813064826], [-6.491916964928692, 40.088805045680616], [-6.491953091595673, 40.08872511962047], [-6.492190078768384, 40.08859216286873], [-6.4927607477691165, 40.08835634854794], [-6.492842719366201, 40.08827354157587], [-6.493267164472735, 40.08809770963766], [-6.493811350873616, 40.0878899716156], [-6.494913852502609, 40.0877219644817], [-6.495945380778348, 40.08748088665865], [-6.496307941792698, 40.08745396131727], [-6.496359644567072, 40.0874160740597], [-6.496503167391981, 40.08739449547754], [-6.4970087012185544, 40.08717536678155], [-6.499068816570393, 40.08615082125548], [-6.499839934975467, 40.086179192400984], [-6.500909577547119, 40.08613256906336], [-6.501780433827034, 40.086201270510934], [-6.502663441810539, 40.08634824299219], [-6.504096186250437, 40.08664479297622], [-6.504893238634053, 40.08676286621332], [-6.505540872330983, 40.08679439322033], [-6.505986860638885, 40.08701362286262], [-6.506216393780787, 40.087041988865685], [-6.506803654940594, 40.08724650786942], [-6.507557788692354, 40.087445072597006], [-6.505242551039588, 40.085322890043656], [-6.503294698479153, 40.0836545857326], [-6.506572892962696, 40.08172897535387], [-6.508752778136809, 40.08346708200336], [-6.512082936264952, 40.08080224099914], [-6.513766616716909, 40.08223808858898], [-6.513855319570402, 40.081988759021336], [-6.514022812969503, 40.081926600339976], [-6.514032562405852, 40.081839159803664], [-6.513998562853353, 40.081091297711296], [-6.513887663838151, 40.08084209579418], [-6.513851683548077, 40.08051604561806], [-6.515763922665406, 40.07905365470534], [-6.51540357173991, 40.078740543278386], [-6.515287314086822, 40.078690219103166], [-6.5150423411157945, 40.07865820235325], [-6.514842106172897, 40.07867291617284], [-6.514132111993297, 40.0780881785857], [-6.514085173626419, 40.077915028230876], [-6.514401049823669, 40.077906226142474], [-6.511669238785451, 40.07583990520581], [-6.511802722190375, 40.07577764917032], [-6.511839150101655, 40.07572402243844], [-6.5118224301434395, 40.07529443062087], [-6.511893947991235, 40.075188319434126], [-6.51209073077652, 40.075049322144054], [-6.512368725686088, 40.07495980856266], [-6.512548855170879, 40.07484981943847], [-6.51283643486929, 40.07474177805715], [-6.5130827980097985, 40.07454510605445], [-6.519343863619577, 40.07932670616684], [-6.519579701400505, 40.079116287071656], [-6.520719912268766, 40.077948670202815], [-6.521297150145394, 40.07730037603991], [-6.522212174119563, 40.076410325659246], [-6.5228127067926875, 40.075775313775], [-6.524318492888419, 40.074372533741744], [-6.52493844647666, 40.07365658573131], [-6.525108597942949, 40.07337790501278], [-6.525139606246999, 40.073314789551866], [-6.525091748613264, 40.073325116911896], [-6.525009518271351, 40.07324508204011], [-6.524731575547166, 40.072683160872884], [-6.524298350028136, 40.07204144329416], [-6.524191623081603, 40.071809095270524], [-6.524247882179203, 40.071712649031596], [-6.5239738952730155, 40.07137196280599], [-6.523949567046792, 40.07125055200289], [-6.523974488245893, 40.071148485665404], [-6.52418971880418, 40.07091986511102], [-6.52425917302313, 40.07079253701626], [-6.524260518417605, 40.07072950812905], [-6.524186947233514, 40.07058533903012], [-6.524195157391787, 40.070462286419456], [-6.525783979198167, 40.07090070697541], [-6.52626519081397, 40.070948909710985], [-6.526759055799194, 40.07083866007454], [-6.526891459241032, 40.07065979666968], [-6.527117166945297, 40.07024177538686], [-6.527364753386767, 40.069617580812505], [-6.527407746072988, 40.06943716756474], [-6.527454466843047, 40.06945185784741], [-6.527609242578599, 40.069185821115035], [-6.5279203302164435, 40.068384433278055], [-6.528106378863107, 40.06817428405392], [-6.528487921192019, 40.06797596476903], [-6.52865234464006, 40.06779634137223], [-6.528714533275138, 40.06768479544963], [-6.528753921760003, 40.06746124526412], [-6.528764002545398, 40.06673495435368], [-6.528821631621645, 40.06616237251621], [-6.528807752687164, 40.065391794497366], [-6.5288786012380875, 40.065014698916094], [-6.528976421388496, 40.06485454803923], [-6.528844144962651, 40.0644111404651], [-6.528961687815259, 40.06418862751527], [-6.529063635592379, 40.06407333563076], [-6.52908429916079, 40.06389415208591], [-6.529046715028353, 40.06360734704347], [-6.529205453774672, 40.062909991667546], [-6.529344229470356, 40.0627942287269], [-6.529138535018141, 40.063551653727224], [-6.529130184237286, 40.06406808971411], [-6.529061634810939, 40.06419030560404], [-6.529005913322162, 40.06439549545817], [-6.529100873458538, 40.064784867751875], [-6.529523103878745, 40.06552001917239], [-6.529779182555818, 40.06588598400475], [-6.530121859225615, 40.066327938013146], [-6.53037811115878, 40.06659517481937], [-6.530921220112821, 40.0673082168354], [-6.531449178141703, 40.06859700626453], [-6.531548262294976, 40.06904168047252], [-6.5315637191711, 40.0693473850869], [-6.531654851271074, 40.06959966266011], [-6.53172869563234, 40.06994120366169], [-6.532197133538993, 40.070323761228536], [-6.532742745233969, 40.07069922351749], [-6.533151749473036, 40.071026465750414], [-6.5333522821103625, 40.07085985176575], [-6.5337201282004225, 40.07111252768261], [-6.534307886838137, 40.07077850354504], [-6.534802679252547, 40.07117197593159], [-6.535118204317849, 40.070999699810116], [-6.535560922702716, 40.07069140771853], [-6.5361728900610245, 40.07036527602512], [-6.534775088682438, 40.069271490071905], [-6.535105402319392, 40.06909529936749], [-6.535276995525869, 40.068963558315154], [-6.534027722435826, 40.06800147296332], [-6.533202480492778, 40.067678338263455], [-6.533399633936227, 40.06770577984973], [-6.533538612015508, 40.06779242719126], [-6.534063156616916, 40.06800402930216], [-6.535687272074643, 40.069229567148824], [-6.536077928592608, 40.069434792716635], [-6.536311566263764, 40.06960515151419], [-6.536735906715638, 40.06945500441877], [-6.537626790484328, 40.0690410270657]], [[-6.527260630996107, 40.09941016160986], [-6.527289638501928, 40.099729847300736], [-6.527218602218808, 40.09996488530372], [-6.5272500119322086, 40.10016643467533], [-6.5270859496083355, 40.10052784326563], [-6.52702528273618, 40.100858855307216], [-6.527076292235329, 40.101137843533756], [-6.527235534527494, 40.101495528831194], [-6.527478073568017, 40.10185625425279], [-6.527722988237527, 40.102060926795126], [-6.528213474810709, 40.102293178640984], [-6.528167869549498, 40.102240587825804], [-6.527753414657855, 40.10202716528994], [-6.5275190407546955, 40.10185550780399], [-6.527273421446676, 40.101492374536214], [-6.527077994738299, 40.10102284517215], [-6.527062569497288, 40.10086902039519], [-6.527112300180653, 40.10071037186083], [-6.527117335351472, 40.10055842097429], [-6.527296623268533, 40.10018147863049], [-6.5272542527722015, 40.100004017284874], [-6.527351891034101, 40.099753337226005], [-6.5273129522682165, 40.099510279390294], [-6.52735100518045, 40.099211033446885], [-6.527109715160539, 40.09861206738809], [-6.526944659520985, 40.097990682069366], [-6.526958767910122, 40.0978473071035], [-6.527013353080036, 40.09775875148817], [-6.527085764852427, 40.097903438777124], [-6.527202925407792, 40.09799133482045], [-6.527658908836666, 40.098129436747584], [-6.528094212283892, 40.09830727189806], [-6.528536438701804, 40.0986148813178], [-6.528742611406207, 40.098820066798936], [-6.528892542508839, 40.09888758603635], [-6.529057071081476, 40.09908639148641], [-6.529323462538023, 40.09920621138638], [-6.52946943355193, 40.09923085187864], [-6.52956836018731, 40.09929439908244], [-6.530033308625296, 40.09973625512068], [-6.53057573887653, 40.09992996914327], [-6.5306714209254135, 40.10003478936561], [-6.530667790562589, 40.10009948093162], [-6.531032006289647, 40.10050819594352], [-6.531323041891266, 40.100728703666455], [-6.531735681845831, 40.10096630684763], [-6.531893164495266, 40.10119504549345], [-6.531974627912654, 40.10126155136454], [-6.532368426509578, 40.10147226197631], [-6.532751142415616, 40.10152555083839], [-6.533006345039588, 40.10161134309445], [-6.533494876397739, 40.10188838737403], [-6.533796567625556, 40.10211614239264], [-6.534262355491808, 40.102337933518996], [-6.534550277494542, 40.102612506227985], [-6.53442077646197, 40.10242409333519], [-6.534313624670765, 40.10232803556724], [-6.533857468465684, 40.10211563821421], [-6.533473026582314, 40.101840538636765], [-6.533000160562065, 40.101571485097786], [-6.532820544240988, 40.10150712189219], [-6.5324161364814195, 40.1014634600568], [-6.532012019542397, 40.101252619700816], [-6.531748083332164, 40.100931529351996], [-6.531396197659937, 40.10073945213449], [-6.531069755763207, 40.10049909204928], [-6.530604700346752, 40.09991085898306], [-6.530029489729518, 40.099686182594354], [-6.529658203214672, 40.0993011808191], [-6.529488288559317, 40.09921225146605], [-6.529135915337934, 40.099095641314655], [-6.52890847094883, 40.09885909979613], [-6.528544322585557, 40.09857207598921], [-6.527998454083576, 40.098214609025], [-6.527205157565846, 40.09795237697245], [-6.527106230072013, 40.09785658288056], [-6.527036726711524, 40.097689892135385], [-6.526937618566706, 40.097777041688246], [-6.526909154025464, 40.098116123989804], [-6.527051400890691, 40.098644877170564], [-6.527176716689629, 40.09888671750884], [-6.527222708438878, 40.09910019899188], [-6.527302641827858, 40.0992864800393], [-6.527260630996107, 40.09941016160986]], [[-6.529754353876398, 40.09356015169853], [-6.530915348691069, 40.094275832022156], [-6.5314757751473325, 40.09503806002395], [-6.531513583330886, 40.095036979017245], [-6.531217210170979, 40.09444567445715], [-6.5311832118277335, 40.09428640932447], [-6.529856300437892, 40.09354989572166], [-6.529214818760471, 40.093330008136476], [-6.529754353876398, 40.09356015169853]], [[-6.529052852347095, 40.09328115423244], [-6.528889600869496, 40.09323200242563], [-6.529214818760471, 40.093330008136476], [-6.529052852347095, 40.09328115423244]], [[-6.528744143262434, 40.09086107325357], [-6.528755160512972, 40.09080839552729], [-6.528696734143108, 40.091087749716195], [-6.528744143262434, 40.09086107325357]], [[-6.5298226662063, 40.09028947002807], [-6.529033817392191, 40.08769634558668], [-6.529822666206299, 40.09028947002807], [-6.5298226662063, 40.09028947002807]], [[-6.529542303281923, 40.082142079904166], [-6.52956680204414, 40.08207856003348], [-6.529541978487929, 40.08214292154848], [-6.529542303281923, 40.082142079904166]], [[-6.5311615398094895, 40.081518182949345], [-6.53111624028082, 40.08138064268794], [-6.531114302710679, 40.081374759981095], [-6.53111645582685, 40.081381298129244], [-6.5311615398094895, 40.081518182949345]], [[-6.529511196537112, 40.08208882066954], [-6.529494076582225, 40.08210999086115], [-6.52952174924946, 40.0820757717818], [-6.529511196537112, 40.08208882066954]], [[-6.5288617208564546, 40.075885601944634], [-6.528861720856454, 40.075885601944634], [-6.5289574029284765, 40.0760358298986], [-6.5288617208564546, 40.075885601944634]], [[-6.529098075509488, 40.070087057422995], [-6.5317074670639155, 40.070123163578785], [-6.531586139089988, 40.069612885697424], [-6.5315254777468, 40.0694907017243], [-6.531478549616029, 40.069069470977425], [-6.531326955172347, 40.068513956650904], [-6.530808535791114, 40.0672729381557], [-6.529508067153468, 40.06565058368965], [-6.529271198050111, 40.06526881333604], [-6.529123256944387, 40.064947309255324], [-6.529049941506192, 40.0648867451132], [-6.528999643977276, 40.06490296303158], [-6.528945613096711, 40.06502585351064], [-6.528854266160368, 40.06548349579892], [-6.52887561427525, 40.0657686075769], [-6.5288548190272655, 40.06635675366034], [-6.528806791242936, 40.066741452733666], [-6.528818729610504, 40.06737128488905], [-6.528798786406766, 40.06756939647067], [-6.528670470510094, 40.0680376042436], [-6.528652385760076, 40.06807405744539], [-6.528392559839485, 40.068096977231654], [-6.528180966555011, 40.06816732312667], [-6.527896655948313, 40.068481396996475], [-6.527716727373164, 40.069027949753185], [-6.5275792235990036, 40.0693349826489], [-6.527438608770334, 40.06955312765401], [-6.527214768170072, 40.070169186151425], [-6.52699807032379, 40.07059730464368], [-6.527163017411864, 40.07065965153714], [-6.527271803223664, 40.07065711050268], [-6.528195168928182, 40.07050098648202], [-6.528900448066405, 40.07024120452252], [-6.5291029083814305, 40.070206339618615], [-6.529098075509488, 40.070087057422995]], [[-6.53633529098184, 40.10065350238135], [-6.536329235528744, 40.10054500920971], [-6.536316756394678, 40.10032197501725], [-6.53633529098184, 40.10065350238135]], [[-6.536344590472744, 40.10081837492926], [-6.536342532874925, 40.10078112722051], [-6.53633529098184, 40.10065350238135], [-6.536344590472744, 40.10081837492926]], [[-6.536328101945461, 40.10085270112352], [-6.5363423051754435, 40.10082319072694], [-6.536338125208496, 40.10083174965028], [-6.536328101945461, 40.10085270112352]], [[-6.536135631424833, 40.10082284568272], [-6.536220793851948, 40.10084221979156], [-6.536138767636202, 40.100823543009874], [-6.536135631424833, 40.10082284568272]], [[-6.5358555222218335, 40.100724909545804], [-6.535957007786452, 40.10076994889393], [-6.53594084458479, 40.10076275860287], [-6.5358555222218335, 40.100724909545804]], [[-6.53565889719211, 40.100641181350184], [-6.535744964867603, 40.100677875349426], [-6.535743118670754, 40.10067702530896], [-6.53565889719211, 40.100641181350184]], [[-6.53550527091585, 40.1006432301258], [-6.535557128143438, 40.1006332495405], [-6.5355391749889815, 40.100636650776735], [-6.53550527091585, 40.1006432301258]], [[-6.535376978147751, 40.100625905422056], [-6.535430676031948, 40.10063317427122], [-6.53541666873478, 40.10063125457043], [-6.535376978147751, 40.100625905422056]], [[-6.534953695667457, 40.100484566452636], [-6.534976416783686, 40.10049855809967], [-6.534972288064355, 40.10049594788193], [-6.534953695667457, 40.100484566452636]], [[-6.535065140304494, 40.09991573335829], [-6.534998797247744, 40.1002716764257], [-6.535058301958268, 40.09995243133314], [-6.535065140304494, 40.09991573335829]], [[-6.535076584931952, 40.099868418197914], [-6.535094240332907, 40.09979528712818], [-6.535065140304494, 40.09991573335829], [-6.535076584931952, 40.099868418197914]], [[-6.535430461661514, 40.096223094713366], [-6.535404681882909, 40.09639135534663], [-6.535406670227375, 40.09637851592838], [-6.535430461661514, 40.096223094713366]], [[-6.535430461661514, 40.096223094713366], [-6.5368138357132, 40.09552738570069], [-6.536492959866056, 40.09500935024336], [-6.5365238548081575, 40.09455942552557], [-6.53637951777124, 40.09441492934905], [-6.536386529011761, 40.09417834701856], [-6.5351907607276445, 40.09379437509256], [-6.534553032622216, 40.09350262571851], [-6.533982908627366, 40.094151500875306], [-6.533177225662665, 40.0949082176709], [-6.533224482309723, 40.09514883871195], [-6.5328867444395415, 40.09620522334397], [-6.5325068177389385, 40.096650049730364], [-6.5327493076978955, 40.09703859876326], [-6.534172194825562, 40.096539422416], [-6.534311238917235, 40.09641131454933], [-6.534454482713398, 40.09635545176575], [-6.534724566686262, 40.09633075602686], [-6.53527853289917, 40.096064833149924], [-6.535430461661514, 40.096223094713366]], [[-6.540367033236038, 40.10116332706784], [-6.540131528973561, 40.101178321113316], [-6.5405385680792145, 40.10115246845507], [-6.540367033236038, 40.10116332706784]], [[-6.541806775006915, 40.10254898412771], [-6.541555957450463, 40.102288909747145], [-6.541806771765377, 40.10254907414103], [-6.542245154125584, 40.102301112420875], [-6.541806775006915, 40.10254898412771]], [[-6.542062677607403, 40.10093143447412], [-6.54211010054311, 40.1010607184401], [-6.542080942865141, 40.100981097259236], [-6.542062677607403, 40.10093143447412]], [[-6.532153290922267, 40.080907938942204], [-6.532205513120762, 40.08083659574411], [-6.532166790741978, 40.080889495889046], [-6.532153290922267, 40.080907938942204]], [[-6.533304398117661, 40.09396255596578], [-6.533205809517722, 40.09401622056734], [-6.533402986402109, 40.093908895775755], [-6.533304398117661, 40.09396255596578]], [[-6.533052712993828, 40.094117809296655], [-6.532899495560758, 40.09421948532311], [-6.533205809517722, 40.09401622056734], [-6.533052712993828, 40.094117809296655]], [[-6.534457463475829, 40.097162908091654], [-6.5344358650907814, 40.09717307777129], [-6.5346209266638295, 40.09708621637228], [-6.534457463475829, 40.097162908091654]], [[-6.534797424547752, 40.09700507978325], [-6.534795188573575, 40.09700606551811], [-6.5346209266638295, 40.09708621637228], [-6.534797424547752, 40.09700507978325]], [[-6.534854725724664, 40.09703345720157], [-6.534862885189187, 40.09698940061828], [-6.534852255416249, 40.09704664667325], [-6.534854725724664, 40.09703345720157]], [[-6.534134650784253, 40.097475008600895], [-6.534221869088218, 40.09744398644681], [-6.534112905613766, 40.097482742873886], [-6.534134650784253, 40.097475008600895]], [[-6.533563754331385, 40.09766363944678], [-6.53376509448107, 40.09758406260397], [-6.533505326363432, 40.09768671672761], [-6.533563754331385, 40.09766363944678]], [[-6.534968728229494, 40.09965227105385], [-6.534883690340663, 40.09961325628046], [-6.535016383252182, 40.099674184878864], [-6.534968728229494, 40.09965227105385]], [[-6.533717501101126, 40.0990673048108], [-6.533584160690733, 40.0989462761692], [-6.533850722322693, 40.09918823617527], [-6.533717501101126, 40.0990673048108]], [[-6.533453887501403, 40.098837928730646], [-6.533323495067309, 40.0987294840201], [-6.533584160690733, 40.0989462761692], [-6.533453887501403, 40.098837928730646]], [[-6.534582388142508, 40.107037038704746], [-6.534381798304697, 40.107043125679596], [-6.534394968118599, 40.107204653020084], [-6.534604134770039, 40.10718523639616], [-6.534582388142508, 40.107037038704746]], [[-6.509384316436645, 40.08392314878091], [-6.509394591567058, 40.08393059441407], [-6.509695782164153, 40.08414883852374], [-6.509384316436645, 40.08392314878091]], [[-6.528096663097661, 40.09255001072222], [-6.528111719835532, 40.09255852970012], [-6.5281010319940505, 40.092552446146136], [-6.528096663097661, 40.09255001072222]], [[-6.528076433358204, 40.092538588736986], [-6.528067353743613, 40.0925334403418], [-6.528051951932845, 40.09252473382549], [-6.528076433358204, 40.092538588736986]], [[-6.528790261335631, 40.07608996061472], [-6.528675566375306, 40.075412719013634], [-6.528549671105519, 40.07525266224703], [-6.528374859866747, 40.0751224593337], [-6.5275617862026385, 40.07495727813348], [-6.527276690760244, 40.07485146833118], [-6.527087002968781, 40.07473048998836], [-6.526908653336799, 40.074477697312254], [-6.526801009330238, 40.07441612821211], [-6.526471456273999, 40.07435620956468], [-6.526127163103126, 40.07436984254333], [-6.525717208552027, 40.074328472263836], [-6.525587228493181, 40.074274982516755], [-6.52550790667215, 40.07418582175812], [-6.525495417664176, 40.07402880705847], [-6.525431014507939, 40.07394879317268], [-6.525292241262761, 40.07389529532205], [-6.525013294162829, 40.0738627582681], [-6.524890495580087, 40.07380851593878], [-6.52485711579259, 40.07384644765455], [-6.525043328694139, 40.07391086920427], [-6.525259791940949, 40.07423114031912], [-6.52554220955989, 40.074452829282954], [-6.525794257322084, 40.074509562874916], [-6.5264794161178115, 40.07453798563139], [-6.526616597020166, 40.07458694393671], [-6.5270274470533245, 40.07485650425402], [-6.527376778940654, 40.07502773062102], [-6.527624889875837, 40.07520940596801], [-6.528185241795558, 40.075301089170694], [-6.528561301858227, 40.07540442454807], [-6.528660094447719, 40.0756167811178], [-6.528747489079819, 40.07619939852087], [-6.528790261335631, 40.07608996061472]], [[-6.528257918781886, 40.07749944281789], [-6.528350806402172, 40.077247870256954], [-6.528354114316594, 40.077238911023784], [-6.528257918781886, 40.07749944281789]], [[-6.5118247558846045, 40.0844362152436], [-6.512016422790486, 40.084164597848755], [-6.512046213722486, 40.08396490009491], [-6.51169209961301, 40.08380568583711], [-6.511337316112678, 40.083697077724146], [-6.510229715094301, 40.0845449639542], [-6.510541358924195, 40.08481740334717], [-6.511077099771639, 40.085183661064185], [-6.511026151047766, 40.085130322627], [-6.511046421205029, 40.08472854666019], [-6.511233398674112, 40.08421559458887], [-6.511224453127202, 40.08426476723912], [-6.5118247558846045, 40.0844362152436]]], [[[-6.530503828103063, 40.062606003557626], [-6.530580164716513, 40.062563435812386], [-6.530718399236359, 40.062699707007056], [-6.530636257636356, 40.062753238397946], [-6.530778358840632, 40.06282446140772], [-6.531049139049066, 40.06285473367491], [-6.531840720351993, 40.063111405564925], [-6.531942211524904, 40.06310924051718], [-6.532283249008454, 40.062917886497814], [-6.532249530737642, 40.062967087108376], [-6.531951268515081, 40.0631193021183], [-6.532508330421704, 40.06321057827428], [-6.532574731486538, 40.063202894990084], [-6.53258251939747, 40.063159285333604], [-6.532662671618458, 40.063189635128424], [-6.532524459091061, 40.06322821784255], [-6.531827635849846, 40.06312310762432], [-6.531193585181218, 40.06293879339873], [-6.530970966219391, 40.06290594067378], [-6.530550112695152, 40.0627396904107], [-6.530450578037704, 40.0626031436342], [-6.530470206847619, 40.06258242352053], [-6.530503828103063, 40.062606003557626]]], [[[-6.468588843328893, 40.06822049115133], [-6.461477789571915, 40.06787460405302], [-6.461170521152835, 40.066484865288004], [-6.463077900320017, 40.06651173069974], [-6.463174222750281, 40.0670185599679], [-6.463208702661438, 40.06707831896074], [-6.463657547056273, 40.06723858905752], [-6.463936644210525, 40.06722759186938], [-6.464101848441471, 40.067078972404886], [-6.464561977057537, 40.06718796393839], [-6.4647832992872605, 40.067182536669755], [-6.464935043524498, 40.06711541995381], [-6.46484606076189, 40.06709626145351], [-6.464656895349761, 40.06714193889667], [-6.46408001523224, 40.06700382096465], [-6.463931373676878, 40.067075778846544], [-6.463893027292186, 40.06718655009932], [-6.463705024549088, 40.067210352585], [-6.463509533850402, 40.06717670326586], [-6.46327853420451, 40.06707327304191], [-6.463203132571058, 40.06683353955339], [-6.463172258052669, 40.06658820569375], [-6.463058728292458, 40.066371238074325], [-6.462663841486271, 40.066128372239255], [-6.462466199825597, 40.066067649537], [-6.462188673372501, 40.066058413770826], [-6.4620209795641355, 40.06600897638908], [-6.461774545835589, 40.066018072714556], [-6.461419905651335, 40.06610281125222], [-6.461101717004731, 40.066134024288054], [-6.460752792873926, 40.064616355573484], [-6.460857799122735, 40.0645133529981], [-6.4611901553161815, 40.06431499385499], [-6.4615080903304944, 40.06424602619195], [-6.461705272077403, 40.06428440014652], [-6.4620664504260406, 40.06452851209149], [-6.462266279398169, 40.064599822949], [-6.46287707576979, 40.06470797512107], [-6.463397809526179, 40.06468705014511], [-6.4634039048970235, 40.06473762945029], [-6.467231474683102, 40.06440499814703], [-6.467125439483513, 40.06296058186298], [-6.468582248923421, 40.06300424764988], [-6.468738067343602, 40.063048371303765], [-6.469437981499043, 40.063535875373034], [-6.470736745293253, 40.06394476008024], [-6.470946524718377, 40.06404203227041], [-6.471703889910407, 40.06457771033726], [-6.472080527934535, 40.06582832477838], [-6.4722598289024, 40.06561181829395], [-6.4724460915339606, 40.0655239111575], [-6.472546755200353, 40.06553790939178], [-6.472967220976161, 40.06574940659952], [-6.473256898811224, 40.0659848068897], [-6.473359184627289, 40.06597397724158], [-6.473391584650884, 40.065820644379436], [-6.473237495682866, 40.065259958908044], [-6.473484004067767, 40.065343889762225], [-6.4736513567246865, 40.06534564984471], [-6.47477085118355, 40.06505191201314], [-6.475845730128751, 40.06468962917471], [-6.477268856086055, 40.06356041852794], [-6.479428830831305, 40.063478657871165], [-6.479382380239434, 40.06380040115624], [-6.4793792818988045, 40.06410696805642], [-6.479892317581046, 40.06529323658903], [-6.480111056830617, 40.06589829435285], [-6.480527048473921, 40.06605057767896], [-6.4784719154633486, 40.0682810761946], [-6.4782875889006615, 40.068456324491926], [-6.477965203616372, 40.06869026673748], [-6.4814125803619405, 40.070737455331084], [-6.481713741478033, 40.07029351144578], [-6.4824759277129145, 40.068340663065705], [-6.482750509326813, 40.06807351400159], [-6.483784498727371, 40.0676056834012], [-6.4845909572873826, 40.06709164728063], [-6.486529161794775, 40.065965404085944], [-6.488739067949345, 40.06472116281352], [-6.490739045792664, 40.063546822281104], [-6.491040224059851, 40.06340327688507], [-6.494480840438061, 40.06139414265192], [-6.494863773795678, 40.06118181739346], [-6.49489469492238, 40.06119221527869], [-6.49105837459244, 40.06342303333925], [-6.490757908903721, 40.06356632848273], [-6.490266898189308, 40.06387321643831], [-6.4856352897036755, 40.066513858786315], [-6.484610304692343, 40.067110714580735], [-6.483801085224574, 40.06762649247057], [-6.4830106146092215, 40.067983051499354], [-6.48267095786588, 40.068177085617315], [-6.482575369979401, 40.06827021931491], [-6.482435988814767, 40.068533650863536], [-6.482037311265881, 40.069581619073375], [-6.483899821371503, 40.07116438907425], [-6.485158783357764, 40.07212263523771], [-6.486140316809054, 40.0729576523037], [-6.491164582070509, 40.069354889803854], [-6.493758887426486, 40.06767487247293], [-6.494107885676893, 40.06745858171106], [-6.50009176156869, 40.06427191247067], [-6.500401145570446, 40.064047810605636], [-6.500445839517596, 40.064092014925585], [-6.500084213179614, 40.064369308471406], [-6.495060965847758, 40.067036641717365], [-6.493681301626439, 40.067830656383464], [-6.4911571486193065, 40.06945517014691], [-6.487691780053065, 40.0719607290666], [-6.489350541239665, 40.07350943509141], [-6.490733819647945, 40.074863069787575], [-6.490854214494084, 40.074831988496236], [-6.491025178173575, 40.074863799177024], [-6.491181056369501, 40.074795656602745], [-6.491476431356934, 40.07450173282249], [-6.4918256006375925, 40.07430751431008], [-6.491886491331178, 40.07429063689351], [-6.492406728404548, 40.0744098241633], [-6.492505874329894, 40.07434423442698], [-6.492719090884554, 40.07428867741182], [-6.492954781975289, 40.0741383044739], [-6.493180251420888, 40.07394690259201], [-6.493201852736218, 40.07369370401502], [-6.493169117976632, 40.073588770397954], [-6.493197215080176, 40.07346534040733], [-6.493292930300455, 40.07337814159119], [-6.493723271243105, 40.073221175976556], [-6.493804682484095, 40.07311456969657], [-6.493803259212483, 40.07303508658312], [-6.493848863085564, 40.0729649990791], [-6.494021151099782, 40.07279451434709], [-6.494498292685427, 40.07253784711203], [-6.494623201652449, 40.07216266071832], [-6.494883170355704, 40.07166653833335], [-6.495129057166648, 40.071522326804164], [-6.4956632031367105, 40.07132876973438], [-6.496314138830241, 40.071282047216066], [-6.496641402011602, 40.071214630494616], [-6.496977442870252, 40.071064252380836], [-6.497165234188658, 40.070946976132575], [-6.49737273466432, 40.070743106344096], [-6.497869169328281, 40.070483959286065], [-6.4979163810547105, 40.07043047994641], [-6.4979168180523725, 40.070357698581915], [-6.498015603763583, 40.07024399237584], [-6.498203787900454, 40.0701544681559], [-6.498404230264409, 40.069966928947004], [-6.498447162606331, 40.06979346218081], [-6.498668613203748, 40.069547818542844], [-6.49870873181438, 40.06945104080537], [-6.499046621547838, 40.06913459410099], [-6.499174383013895, 40.068876030177115], [-6.499212980913235, 40.06888181840029], [-6.499206044025271, 40.06895283341977], [-6.499109487081761, 40.06912108850581], [-6.499576974996077, 40.06868159032585], [-6.499913513106243, 40.068251072345625], [-6.499884082693739, 40.06811648473637], [-6.499747085454835, 40.068156495536364], [-6.4996251868421675, 40.0682547505344], [-6.499588693373073, 40.068252340937185], [-6.4996323008506245, 40.068178879373605], [-6.499847364462602, 40.06805948511217], [-6.500015085181801, 40.068067426200834], [-6.500362367095641, 40.06792323062143], [-6.500400254222736, 40.067829827188504], [-6.500491015111457, 40.06775900025761], [-6.500810999996583, 40.06760772808401], [-6.500830473125351, 40.06742789858354], [-6.5009788207439225, 40.06731165173374], [-6.500955946305983, 40.067231795644034], [-6.501022074419953, 40.06712900243049], [-6.501084403431616, 40.06706918193763], [-6.501207135155192, 40.06700895348669], [-6.501300226526547, 40.06698015897473], [-6.5012914379518, 40.06692871256539], [-6.501234961775631, 40.06688281297155], [-6.501213083466512, 40.066769292206956], [-6.501336724074951, 40.066680977595745], [-6.501384727129176, 40.066602655671645], [-6.50137823554357, 40.06648837699167], [-6.501444151308837, 40.06643304772117], [-6.501426592126946, 40.06629133439872], [-6.50147555159863, 40.06615781270775], [-6.501780777575184, 40.06582641974278], [-6.5018415487641645, 40.06569368872909], [-6.501774250729279, 40.06546288745634], [-6.5017263819181155, 40.065418889887795], [-6.501730782505913, 40.065359440528056], [-6.501847341633835, 40.06524007884325], [-6.502046748054456, 40.0648910833556], [-6.501949093431106, 40.06465665901609], [-6.502159282062754, 40.064275466328475], [-6.502167540841625, 40.0641842155828], [-6.502076903552381, 40.06376419774605], [-6.50212932632698, 40.06346859796368], [-6.502051578860011, 40.06275042031944], [-6.5021958076354895, 40.062364741555406], [-6.502174242225929, 40.062223392245656], [-6.502194539297077, 40.06217806835179], [-6.502413154365041, 40.06197028488252], [-6.502436512350194, 40.06185080372373], [-6.5024981662716215, 40.06184474689442], [-6.502428842247599, 40.062012601600614], [-6.502227641813432, 40.062189772498336], [-6.502224593527547, 40.06237265920989], [-6.502097855573177, 40.062699986263326], [-6.502086289532404, 40.062811163922426], [-6.502176121615017, 40.06345852739347], [-6.5021342867144325, 40.06376597622288], [-6.502219852013501, 40.06418363254479], [-6.502183881969095, 40.064346621469], [-6.5020976973388365, 40.06444655501192], [-6.502035417908731, 40.06459798624784], [-6.502035216300077, 40.06477994790339], [-6.502083808414712, 40.06480414737508], [-6.5021204810963145, 40.064801605516394], [-6.502218758973064, 40.064701212197555], [-6.502329256411676, 40.064430200990536], [-6.502539512365978, 40.06362031685642], [-6.50256882827533, 40.06335061701819], [-6.5025016314292, 40.06305911187532], [-6.502547222230647, 40.06282849842647], [-6.502521033658373, 40.06266605580138], [-6.502717712309176, 40.062391408005574], [-6.5025985980533845, 40.06219885993314], [-6.502592112931663, 40.062087558593035], [-6.502769973614102, 40.062398570701305], [-6.502585021386731, 40.062660319520425], [-6.50258946200816, 40.063633014874156], [-6.50233840743839, 40.064513454173934], [-6.502244532245192, 40.06474347175138], [-6.502120273285326, 40.064858623053034], [-6.502033231761378, 40.06505239917151], [-6.501855007519647, 40.065325457475105], [-6.501840958243528, 40.06547567714317], [-6.501901336177154, 40.06566822431444], [-6.501872358396544, 40.06575533911584], [-6.501493547201709, 40.06619153144444], [-6.501462067875473, 40.06643685748197], [-6.501418075040383, 40.06652752166014], [-6.50144714830657, 40.06661742498074], [-6.501378970560834, 40.06671521970457], [-6.501282433273636, 40.066767726107194], [-6.501253551743119, 40.06683934417307], [-6.501363680605118, 40.0669442343754], [-6.501349274746834, 40.06704643696368], [-6.501255806173032, 40.06713044372601], [-6.501126100062884, 40.067349512167134], [-6.501115177030828, 40.067670865130786], [-6.501015916307536, 40.06779781043113], [-6.500765874788427, 40.06789267018421], [-6.500191357675528, 40.068021236676856], [-6.49953236157306, 40.06879214846375], [-6.499242829600533, 40.06904019235995], [-6.498841648503473, 40.06977586112613], [-6.49836046062779, 40.07004795339677], [-6.4979999051529465, 40.070320493123916], [-6.497958600617747, 40.070446255888676], [-6.4978963876608145, 40.07050274408736], [-6.497351122369662, 40.07081137177758], [-6.497055892151984, 40.071092882901155], [-6.496809191660564, 40.07120168325979], [-6.496528578055113, 40.07127614467639], [-6.495730534637556, 40.07133761286647], [-6.495354837774904, 40.07145974449397], [-6.494968062878563, 40.071644143100805], [-6.494847984612591, 40.07179153147895], [-6.494725757956863, 40.072029486721696], [-6.49453293501948, 40.07254922647348], [-6.49401472337531, 40.07282590391248], [-6.493843939781066, 40.07302570234604], [-6.49382703932527, 40.07311883709551], [-6.493736381982061, 40.07324415594658], [-6.493331201630575, 40.07338968996838], [-6.493281866122759, 40.073443211461225], [-6.493229449189106, 40.07352638875724], [-6.493228216808045, 40.073930740001785], [-6.4931188489829195, 40.074076822472016], [-6.493003919226256, 40.074160357599474], [-6.492820996465028, 40.07427872772786], [-6.4924946055853034, 40.0743765099461], [-6.492391102876428, 40.074445788748434], [-6.491869261840067, 40.07431917993969], [-6.491411984412041, 40.07458672048072], [-6.4912347496364795, 40.07480555806398], [-6.490999626021155, 40.07489225180592], [-6.490810888224662, 40.07487825241581], [-6.4907071621900805, 40.07494077320331], [-6.4918067851730115, 40.07597017671029], [-6.491801568710679, 40.076051583327725], [-6.492055495778816, 40.07592854190273], [-6.502227764187457, 40.06891771980825], [-6.504746589871219, 40.06731888056894], [-6.504808630873663, 40.067427600097815], [-6.504631486394823, 40.06755881098468], [-6.50228514102177, 40.06905453122332], [-6.500899088720046, 40.07000189970418], [-6.500633690867895, 40.070212002925], [-6.496721123950489, 40.072879326962315], [-6.496600889551462, 40.0730022114675], [-6.494566536062833, 40.074469384429634], [-6.498915334248308, 40.07806549488423], [-6.505185870388831, 40.07371488720997], [-6.506157888971403, 40.07307023002762], [-6.507503389460638, 40.07209642804086], [-6.507532004009651, 40.07211560098543], [-6.506183134199649, 40.07309176294539], [-6.505211115527441, 40.073736420335536], [-6.497766221402721, 40.07890218572102], [-6.500991060259817, 40.08166471960255], [-6.5011419979024225, 40.081613027639506], [-6.5013282958158225, 40.08148606948897], [-6.501633653211845, 40.081370963380174], [-6.501884624784947, 40.08136746104225], [-6.502087506743125, 40.08130950646354], [-6.5022915408275646, 40.0813228267192], [-6.502435558609664, 40.08129035588417], [-6.50268830827264, 40.08113555693583], [-6.502873770347217, 40.081130639306195], [-6.503393269481285, 40.08087088139052], [-6.503782651107252, 40.080773255761144], [-6.504033521048347, 40.08061841328561], [-6.504314979513359, 40.08056340543996], [-6.504382930146164, 40.080510640865306], [-6.504572397690828, 40.080238718174094], [-6.504648421418273, 40.08020891819958], [-6.504837731686053, 40.08003130753052], [-6.505075329464398, 40.07995058443584], [-6.505193467492481, 40.07984972063355], [-6.505321874572607, 40.07970511345174], [-6.5052998692344435, 40.07960122510318], [-6.50532520680934, 40.07953357898656], [-6.505435666907434, 40.079485427629706], [-6.5054624854749665, 40.079380429346884], [-6.505759529809344, 40.07901398880693], [-6.505871245684182, 40.078934781265], [-6.5060634131965145, 40.07889072714477], [-6.506123063926101, 40.07882094187417], [-6.5064460847280605, 40.07834038458525], [-6.506588099448799, 40.07786133305289], [-6.5066671114660934, 40.077849162071495], [-6.507027055986519, 40.07791492625598], [-6.507425829382697, 40.07782604814816], [-6.507579965918772, 40.077824682303124], [-6.507835743843236, 40.07792999946941], [-6.508000561397647, 40.07804732092662], [-6.508477134455114, 40.078140273459084], [-6.508967402081009, 40.078330447026694], [-6.509479884670918, 40.07822977092962], [-6.509935751966929, 40.07802221757044], [-6.510101503533857, 40.077904712099375], [-6.510315161105042, 40.07765050555407], [-6.510430571559566, 40.077569301085504], [-6.51067449377028, 40.07744348109183], [-6.510857377662703, 40.07740282710285], [-6.511100732782362, 40.077092960714836], [-6.511287106793466, 40.07677618473212], [-6.511587186543921, 40.07655059234303], [-6.51163483757463, 40.076346594067886], [-6.5115681156986955, 40.07596987775271], [-6.511378018961586, 40.07561952493149], [-6.511454246708928, 40.07567710446336], [-6.511612356770373, 40.075997943376876], [-6.511678635508863, 40.07639005419028], [-6.5116119555191485, 40.076562745312074], [-6.5112851362506134, 40.07683028173705], [-6.511134138955508, 40.07710944324572], [-6.510871886906504, 40.07742944303166], [-6.510708497491067, 40.077453220434634], [-6.510573058531481, 40.077520752453495], [-6.510373732412982, 40.077639153605574], [-6.510202577960629, 40.07784058989832], [-6.50997654887105, 40.07802237437024], [-6.509471019114016, 40.078260658536344], [-6.508984168910524, 40.07835945389387], [-6.508390385322881, 40.07814273046212], [-6.507958615447471, 40.07804957091207], [-6.507595473723593, 40.07784960856897], [-6.507408766214599, 40.07785018310585], [-6.507116155133965, 40.07794125705698], [-6.506617344633511, 40.0778793487428], [-6.50658535306899, 40.07790766616887], [-6.506490330173997, 40.078345661488285], [-6.5061073863537455, 40.07888419758286], [-6.5058087959234, 40.07900397461519], [-6.505505380544196, 40.07938432630445], [-6.505463525216379, 40.079486838633365], [-6.505347820468893, 40.07954694799786], [-6.505341213747939, 40.07972787051829], [-6.505189635843751, 40.07989684104563], [-6.504780914370102, 40.0801003469391], [-6.504701498474564, 40.080203756474795], [-6.504585228962349, 40.08028232419722], [-6.504374996822005, 40.08055766831896], [-6.504029808875096, 40.08063977276972], [-6.503831943605477, 40.08077539956305], [-6.5032796247905305, 40.080948148639074], [-6.502908924672314, 40.08113779338545], [-6.5026516918079755, 40.08117160609546], [-6.502439564702067, 40.08130908477393], [-6.502276152271597, 40.081336367339624], [-6.502116281415105, 40.0813243602652], [-6.501910825513226, 40.08138198910784], [-6.501574085295651, 40.08140607098315], [-6.50115090332648, 40.08162925444751], [-6.500525739729046, 40.081885635396574], [-6.500401638473978, 40.08196970489839], [-6.500315122294631, 40.082077822436155], [-6.500213827049722, 40.08235921318261], [-6.500195394674651, 40.08261293180769], [-6.500224165565861, 40.082704801545155], [-6.5001319036415275, 40.08273595947554], [-6.4998445043885775, 40.0826323746012], [-6.498185088190238, 40.08225187261075], [-6.49773215681509, 40.08228469249765], [-6.497122289101929, 40.082033332544334], [-6.496269784792833, 40.08158710432172], [-6.495358055534034, 40.08105490710705], [-6.494456732421938, 40.080594277363254], [-6.494261727253845, 40.080462955797444], [-6.4941484963984255, 40.080333669677046], [-6.494051898073917, 40.07993639852437], [-6.493662439750338, 40.079262361662295], [-6.493551703508258, 40.07898206162523], [-6.493270907549898, 40.07875051158757], [-6.493349063939876, 40.07855384798551], [-6.491900400350811, 40.078527693245746], [-6.491178931829638, 40.078449273927845], [-6.489849058987008, 40.07821559677607], [-6.489302980801744, 40.078046022166454], [-6.488984716240306, 40.07827909322886], [-6.486319411753069, 40.081208217853685], [-6.4859266679152645, 40.08153667656147], [-6.4839271440116875, 40.08259257233527], [-6.478936464643953, 40.08509513776445], [-6.472185510067799, 40.088576864040654], [-6.47206326682047, 40.08848906763745], [-6.483236602469501, 40.08267664770013], [-6.4832619430584195, 40.082619095875295], [-6.485164305949829, 40.0816095696398], [-6.485804069339973, 40.08123215458939], [-6.486402747225101, 40.08061009605433], [-6.486756339137525, 40.080297085982664], [-6.488108009359224, 40.07878407178106], [-6.486657443215381, 40.076743882005196], [-6.486543400236638, 40.076768070386215], [-6.486286538338891, 40.07688112684501], [-6.486107845647885, 40.0770592977322], [-6.4859229452162035, 40.07716697961474], [-6.48586249028032, 40.07722926455222], [-6.485752922203511, 40.077475961351574], [-6.485579762061329, 40.07765650357783], [-6.485402168277719, 40.077740831932346], [-6.48520694979621, 40.07778802829108], [-6.485154400240272, 40.07811018141939], [-6.485079776185539, 40.07832159935258], [-6.485016720406788, 40.07845129859529], [-6.48485632112533, 40.078591044088355], [-6.484841561447991, 40.07865431667953], [-6.485016901953275, 40.0793510215345], [-6.485142394441626, 40.07968506396903], [-6.485219623891338, 40.07976925649962], [-6.485464605713162, 40.079851867935], [-6.4856667411311015, 40.08000560924574], [-6.48586098247233, 40.080099999541204], [-6.485979809193137, 40.080239143991285], [-6.486130057490695, 40.08052841631697], [-6.486136936336537, 40.08061873305544], [-6.48610112721555, 40.08067722929921], [-6.486109831579829, 40.08053311178565], [-6.485911404520147, 40.080186131738586], [-6.4855600718728414, 40.07994384304814], [-6.485234886722118, 40.07981336778943], [-6.485142431423333, 40.079738213028826], [-6.4848770706118275, 40.07910404679096], [-6.484806849621152, 40.07861293566062], [-6.485012426346276, 40.07842778404313], [-6.4851259669373365, 40.07813397594591], [-6.48515534430314, 40.077804198512496], [-6.48556486858121, 40.07764059595471], [-6.4857762805021615, 40.07740205653253], [-6.485832307529673, 40.07722095213812], [-6.486060290766368, 40.07707375918873], [-6.486254419301505, 40.07687763691936], [-6.486553914180084, 40.07674046335608], [-6.486970408892318, 40.076658071693146], [-6.48700052522106, 40.07661080186561], [-6.486943909957635, 40.07645715895556], [-6.486856218681931, 40.07637688421836], [-6.486493595535218, 40.0762253314598], [-6.486168018453495, 40.07597828898438], [-6.4861960021308915, 40.075963492605226], [-6.486449144601536, 40.07616500245488], [-6.486806276945197, 40.07631598574736], [-6.487097037527562, 40.07654993403674], [-6.487400184541011, 40.07652381386261], [-6.4873309535602734, 40.07629548972014], [-6.4871056523013655, 40.07609891001205], [-6.486768108460273, 40.07590952759644], [-6.486475612408789, 40.07581210490958], [-6.486120891615065, 40.07563694096042], [-6.485952352406013, 40.07550419842751], [-6.485460776059357, 40.07524039270871], [-6.485315697803565, 40.075110496439954], [-6.485154285529788, 40.07507411047227], [-6.484846314161845, 40.07506579882097], [-6.484495901847, 40.07498738135715], [-6.484323969340869, 40.074934190596], [-6.484068972108181, 40.07479289609554], [-6.483800042753933, 40.074753090720165], [-6.483768308769608, 40.074774200822844], [-6.4835208679465355, 40.07470477449695], [-6.4833000924648605, 40.0746979036007], [-6.483075972130271, 40.07473392859863], [-6.482841994685792, 40.07482441401053], [-6.4823580921906405, 40.07513565522721], [-6.481968497853078, 40.075270952928484], [-6.4810035489711035, 40.075281125425754], [-6.480248259622978, 40.075450338951136], [-6.4801067506189165, 40.07545284405894], [-6.479710053389786, 40.07543402972508], [-6.47922096905678, 40.07535762203184], [-6.478601796277462, 40.07536845645235], [-6.478331732455796, 40.075403741849534], [-6.477772065508933, 40.07520661248681], [-6.477475403325971, 40.07501268891407], [-6.477304438364896, 40.07498743418634], [-6.477173717248646, 40.07501854653068], [-6.477377673416002, 40.07487436037532], [-6.477713819188693, 40.074703867362366], [-6.477838006429566, 40.07456686056494], [-6.477863678954201, 40.07445905147615], [-6.478130532736381, 40.07417705781662], [-6.478296152494661, 40.073835566541284], [-6.4787868052503645, 40.07312552159041], [-6.479175536638762, 40.07293716205098], [-6.4797729124278405, 40.072474098577764], [-6.479880304219681, 40.07242680117694], [-6.480360853671857, 40.07192308238164], [-6.477204049080756, 40.070290620928624], [-6.474801468439873, 40.07084591698773], [-6.473254745257978, 40.0710418637325], [-6.47265871025187, 40.07281933899279], [-6.472519380046741, 40.07312288149724], [-6.472303357542542, 40.073150009181425], [-6.472778616479049, 40.07181207489119], [-6.468156883963762, 40.07155374389662], [-6.467362230130223, 40.07309204664204], [-6.4689951601004285, 40.07351537801015], [-6.469719272334897, 40.07363092641932], [-6.4720659834214835, 40.07386056160283], [-6.472032252771483, 40.073957739397905], [-6.469702966627293, 40.07373560529255], [-6.468956766427012, 40.073618037996745], [-6.468774679547667, 40.074880587258335], [-6.46852499880176, 40.074938811272105], [-6.468420401338358, 40.07513190670651], [-6.467813812979256, 40.07506883033704], [-6.467350152188368, 40.07513597374957], [-6.467225805480864, 40.07512469571412], [-6.466695545373492, 40.075020755765124], [-6.466098395529988, 40.07478545621318], [-6.465666737647949, 40.07474204701884], [-6.46536554206113, 40.074747344063965], [-6.465029683540957, 40.07468819364692], [-6.464846731868201, 40.07470472619067], [-6.464541277600765, 40.0748595488778], [-6.464109338340184, 40.075104920308284], [-6.46397512353593, 40.075267906173885], [-6.463908578983047, 40.075291581244265], [-6.463661319127735, 40.075328507399945], [-6.463281656036821, 40.07546692752558], [-6.462851652100875, 40.07557469642148], [-6.462590357107775, 40.07557887431473], [-6.462330315997564, 40.07564100605473], [-6.461740879039852, 40.075706540913316], [-6.461405878819104, 40.075169795349794], [-6.460892949967274, 40.07410433144715], [-6.460015598036339, 40.07245860043308], [-6.459981194089848, 40.072321101794536], [-6.460000859079034, 40.072262079386185], [-6.461380175137144, 40.07164196112743], [-6.460127534557378, 40.07128623008952], [-6.459373407409608, 40.0711211390455], [-6.459252877185205, 40.07098868643591], [-6.460373933388625, 40.07125335064558], [-6.464146924212649, 40.07227849155039], [-6.4660451345535925, 40.07274974266203], [-6.468588843328893, 40.06822049115133]], [[-6.501244440227391, 40.06701480320523], [-6.501034445946392, 40.06719484474638], [-6.501040785043463, 40.06732289820118], [-6.500856694450639, 40.067615020169846], [-6.500558123163025, 40.067789905852564], [-6.500496815408665, 40.06783443413205], [-6.500484406387138, 40.06788199534302], [-6.500595474454711, 40.067897094666215], [-6.500836966932846, 40.067843488527664], [-6.501045917601387, 40.06772765341872], [-6.501095415309569, 40.06760207077639], [-6.50109351717554, 40.0673588080458], [-6.501150613356853, 40.067211224659026], [-6.501291332037702, 40.06700537018346], [-6.501244440227391, 40.06701480320523]], [[-6.484901293624078, 40.07385252768253], [-6.4838876887750025, 40.07297464941907], [-6.483405748892397, 40.07333179408281], [-6.484393679025291, 40.07421587478887], [-6.484901293624078, 40.07385252768253]], [[-6.489784264919563, 40.07467142442622], [-6.4893392699231205, 40.07427253579632], [-6.489284510847985, 40.07412252847346], [-6.489084009680039, 40.073889286563116], [-6.488822948599845, 40.07373111572877], [-6.488562679070506, 40.07349720710133], [-6.488185741844058, 40.073349222709325], [-6.4879803693801374, 40.07320415349677], [-6.487855777266442, 40.07317721807695], [-6.487422314363128, 40.07297548693796], [-6.4876685788724835, 40.07312468744491], [-6.487955145760981, 40.073226842835645], [-6.488200863877581, 40.07340675280082], [-6.488532055313994, 40.07352644998942], [-6.489075615989797, 40.07393900989965], [-6.4891932543958895, 40.07407226552811], [-6.489316841600542, 40.074295740961176], [-6.489767717847906, 40.07472285824573], [-6.490166152054094, 40.07488589684724], [-6.490597254782989, 40.07499280049444], [-6.490628495800561, 40.0749595167559], [-6.490064461774285, 40.07482594978745], [-6.489784264919563, 40.07467142442622]], [[-6.498469498883775, 40.069849520920584], [-6.498477460721289, 40.069904282681755], [-6.498514069653007, 40.06991957686794], [-6.49881844879288, 40.06976581124042], [-6.499040898572248, 40.069198063928624], [-6.498916550469323, 40.06935355743342], [-6.498767366510893, 40.069444380316895], [-6.4986614732343275, 40.069627567091445], [-6.498469498883775, 40.069849520920584]]]]}}]}