{"type": "FeatureCollection", "features": [{"type": "Feature", "properties": {"status": "ok", "version": 6, "n_rows": 9, "n_parcels": 9, "n_matched": 9, "foral": 0, "public_domain": 0, "declared_m2": {"expropriation": 0, "easement": 0, "temporary": 0}, "parcels_m2": 1656949, "catastro_date": "2026-08-21", "identifier": "BOE-B-2026-32471"}, "geometry": {"type": "MultiPolygon", "coordinates": [[[[-5.715114763908621, 39.12097961903395], [-5.715717313353217, 39.12038025711565], [-5.716260130766724, 39.11989408777671], [-5.717185678487472, 39.12059384616361], [-5.716961781922772, 39.12082684079082], [-5.715169886996608, 39.12324115103991], [-5.7146941304160315, 39.12397570519554], [-5.7143764483349475, 39.124515680504736], [-5.714401544881214, 39.12452617235765], [-5.713078408551555, 39.12624332736842], [-5.712622646398709, 39.12689295187962], [-5.712612189721368, 39.12701693067016], [-5.711929786165399, 39.12793699469847], [-5.7113471467603505, 39.12849879269609], [-5.710655230350711, 39.12937865160303], [-5.710080639511644, 39.12994804445998], [-5.709317366510482, 39.13082356025681], [-5.7077507482810015, 39.132331934605276], [-5.707648132328547, 39.13238425742862], [-5.706654962762791, 39.133256892849765], [-5.706178899526099, 39.13372313407682], [-5.705936899498469, 39.13353270962248], [-5.7057810671292435, 39.13332083236774], [-5.705734088549687, 39.1331481383732], [-5.705703797988834, 39.132357028720236], [-5.705729150037388, 39.13201319351118], [-5.705818000622503, 39.13164202713057], [-5.706104254227002, 39.131281680202505], [-5.706205482732275, 39.131028245029995], [-5.706203294008892, 39.13088955589748], [-5.706084983772419, 39.1305518510598], [-5.705869038565704, 39.13019559870707], [-5.705384749656407, 39.129924138100826], [-5.7052396312595475, 39.12990120200579], [-5.704918996008498, 39.129919369115186], [-5.704383175269031, 39.13006631206952], [-5.704072862652055, 39.13010639505627], [-5.703910933358929, 39.13008546920206], [-5.703610414575053, 39.129912799058665], [-5.703297332182135, 39.12985024507742], [-5.702994789392207, 39.12973662986139], [-5.703366272136401, 39.129390712743806], [-5.7031868273246715, 39.1287906326717], [-5.7030211568533575, 39.1271656278059], [-5.703926976096719, 39.12682820936116], [-5.704716398935981, 39.1266835831732], [-5.705950060510742, 39.126278540133264], [-5.7069894932929515, 39.126123851741816], [-5.707510862296586, 39.12592047574164], [-5.708289599310065, 39.12567237919934], [-5.708834413096817, 39.12536583866847], [-5.709553325948984, 39.12512335473774], [-5.710334906045562, 39.12496805774796], [-5.710836120889528, 39.12479756868855], [-5.711426458725012, 39.12452932645824], [-5.71273741676498, 39.12371439130597], [-5.713207314189378, 39.12320452390858], [-5.714034263940861, 39.12218624614071], [-5.715114763908621, 39.12097961903395]]], [[[-5.718670958111526, 39.12118562849446], [-5.718030256631244, 39.12182698158942], [-5.717779516329467, 39.12211895595423], [-5.717406321856237, 39.12276649660054], [-5.716595167891331, 39.12222638946852], [-5.7169424094425425, 39.12147522605054], [-5.717161233836706, 39.12111129010602], [-5.717534043143365, 39.120613309979944], [-5.718670958111526, 39.12118562849446]]], [[[-5.705106239249323, 39.13470117185959], [-5.7045589896309625, 39.1350940997468], [-5.703774063367806, 39.13574070693715], [-5.699556378523834, 39.139581048733014], [-5.6976765365221285, 39.14118978938101], [-5.697248621706673, 39.14161026664994], [-5.696903110063694, 39.141859769746524], [-5.6952125431377, 39.14342243504766], [-5.69354144990055, 39.14485391754444], [-5.692826591764432, 39.14552215876746], [-5.692704326303921, 39.145427153584244], [-5.687953208487864, 39.13892677734384], [-5.687128583373001, 39.1380774078539], [-5.689696831464296, 39.137502379762765], [-5.690734337529808, 39.13718449035702], [-5.691040105627983, 39.13712423291841], [-5.692068419988543, 39.137076587032574], [-5.693208590167729, 39.13711102181766], [-5.693671857644389, 39.1370503719131], [-5.693931959187042, 39.136979707086766], [-5.694675612988, 39.13626056837312], [-5.695257682641604, 39.13584124518304], [-5.696192915409043, 39.13537347395818], [-5.698025022744814, 39.132834547541194], [-5.6983827889047785, 39.13224049274903], [-5.698745719036067, 39.13153027551591], [-5.69956649657642, 39.13106008903173], [-5.702520266622467, 39.12999521045851], [-5.704434763190763, 39.131112241191275], [-5.705726691547, 39.1318130686531], [-5.705652042156486, 39.13222282435254], [-5.705711732875217, 39.13326514519372], [-5.705875940864673, 39.13353277440542], [-5.706152182040449, 39.13376852997847], [-5.705106239249323, 39.13470117185959]], [[-5.698204082268279, 39.140534905853535], [-5.698039525503831, 39.140432469848], [-5.698341432590429, 39.14062046793155], [-5.698204082268279, 39.140534905853535]], [[-5.6970463717373505, 39.13978251440572], [-5.696200698622721, 39.13922451176269], [-5.6961589300266375, 39.13919691981431], [-5.696200704573662, 39.13922451612949], [-5.6970463717373505, 39.13978251440572]], [[-5.695866883446735, 39.13900430856627], [-5.6957795697436895, 39.138935333301575], [-5.695382014783644, 39.13862128766905], [-5.695779569915447, 39.138935337802145], [-5.695866883446735, 39.13900430856627]]]]}}]}