{"type": "FeatureCollection", "features": [{"type": "Feature", "properties": {"status": "ok", "version": 6, "n_rows": 35, "n_parcels": 35, "n_matched": 35, "foral": 0, "public_domain": 0, "declared_m2": {"expropriation": 0, "easement": 0, "temporary": 0}, "parcels_m2": 3698154, "catastro_date": "2026-08-21", "identifier": "BOE-B-2026-30850"}, "geometry": {"type": "MultiPolygon", "coordinates": [[[[-3.8052783092543434, 38.74036107681235], [-3.8042079739291554, 38.74095865319377], [-3.8039602707180005, 38.74100225633221], [-3.804248633041315, 38.74085978695684], [-3.8035142323348765, 38.740175723056325], [-3.8034581205161997, 38.7399635304251], [-3.8033935542078456, 38.739890169468524], [-3.8036128964250606, 38.739852164943905], [-3.803910418061199, 38.73992149082004], [-3.804793192468132, 38.740559833479544], [-3.8051952362303214, 38.740335655206316], [-3.8052783092543434, 38.74036107681235]]], [[[-3.7981610926892757, 38.759404661633354], [-3.7989027520906027, 38.75948763723418], [-3.799053742119773, 38.75956960133434], [-3.799225724378825, 38.75974793525855], [-3.7964418295037685, 38.760646626979494], [-3.7967779451774546, 38.76104381752657], [-3.797194463884071, 38.76134312958666], [-3.797277102376226, 38.761601647549206], [-3.7970446553328876, 38.7616991156996], [-3.796882937959876, 38.761501423947344], [-3.7964865912199106, 38.76140202492031], [-3.796483877339827, 38.76152027026307], [-3.796002550848393, 38.76165511781079], [-3.7955796096720302, 38.76173125682063], [-3.7954465969502573, 38.761350708328315], [-3.794909121601383, 38.76176789547652], [-3.7945621405047762, 38.76197823662817], [-3.791940849204586, 38.76284561725385], [-3.7919151139691025, 38.76292275014981], [-3.79199489410681, 38.7635489573499], [-3.7919730368876046, 38.764071139162475], [-3.792217174562607, 38.76543598444616], [-3.792513867539463, 38.76820121103418], [-3.792567312637055, 38.76845407253052], [-3.7926817830116706, 38.76856341704824], [-3.7928182926067797, 38.768593851198304], [-3.792782868823463, 38.76864851661587], [-3.7925985743223154, 38.76855379385498], [-3.7925486478002166, 38.768494115666535], [-3.7924752564276787, 38.768269509888476], [-3.7921634160694158, 38.76540426777699], [-3.791934457297917, 38.76414214112577], [-3.7919415874546116, 38.76353715299372], [-3.791851909913332, 38.76293182945963], [-3.7918777702700464, 38.76285559688333], [-3.791936332989645, 38.76280149132773], [-3.794560879417558, 38.76192679383485], [-3.7948872173099786, 38.76172316699982], [-3.79546069598865, 38.76127293292389], [-3.7955023629552462, 38.76119019376947], [-3.7959675434234286, 38.761145848461126], [-3.796144846944343, 38.76096441009922], [-3.7960725979326098, 38.760884339080704], [-3.795842720914338, 38.760767042409746], [-3.795803359209453, 38.76071531385338], [-3.795764893232293, 38.76065096303171], [-3.795797776845364, 38.760409594890035], [-3.7959662434568515, 38.76024092321921], [-3.796353272728481, 38.76002093302168], [-3.7981610926892757, 38.759404661633354]]], [[[-4.040302982093468, 39.021584305758886], [-4.0406946863864865, 39.02192286970111], [-4.041365560010259, 39.02230607238765], [-4.041638306183853, 39.02252683981205], [-4.039506922889829, 39.022961788393204], [-4.0394795468979545, 39.02331724189503], [-4.039502581987876, 39.02425075293646], [-4.039758967322654, 39.02420702165997], [-4.040029751285129, 39.024696153577274], [-4.040435161550089, 39.02503081130969], [-4.040715285116659, 39.025533559457905], [-4.040746259302137, 39.025660969051614], [-4.040389501120176, 39.02504455487644], [-4.039988420143479, 39.024713643008866], [-4.039736452351378, 39.024247226730644], [-4.039502783117142, 39.024288146831374], [-4.039510891960556, 39.02494470224848], [-4.039636666143746, 39.02541593830551], [-4.039623402758695, 39.026087727950646], [-4.039818849996582, 39.02646498867517], [-4.041729590803899, 39.02947905578538], [-4.043970439634532, 39.02872968842319], [-4.043907171439318, 39.02834764762444], [-4.043974292248212, 39.02831622926293], [-4.044046659733504, 39.028751353475286], [-4.041753720311553, 39.02951731724534], [-4.042743831191154, 39.031100082483896], [-4.043026397523442, 39.03165695412388], [-4.043363872920146, 39.032215230647935], [-4.043912231662079, 39.03295607390088], [-4.044102199234047, 39.03342168359008], [-4.044163206799266, 39.033681100065685], [-4.044056549121066, 39.03353850975163], [-4.044026806006083, 39.03354292104902], [-4.043889925781817, 39.03316010220709], [-4.0437313911069515, 39.03287551205831], [-4.043349294345358, 39.03236305126174], [-4.042641751176943, 39.03112703231572], [-4.042557882708809, 39.03109606329195], [-4.04260705080054, 39.03104561276141], [-4.042377837740168, 39.03066028317078], [-4.039567206842593, 39.02620248836772], [-4.039558263680538, 39.026459471850806], [-4.039607634158827, 39.0266358277574], [-4.039727271369448, 39.026869673783416], [-4.039691358876954, 39.02717826037152], [-4.039687880959132, 39.027760938391474], [-4.039751831470062, 39.02882978965141], [-4.039636017048549, 39.02978048692193], [-4.039634899094591, 39.0300191982894], [-4.039683258425424, 39.030362892822104], [-4.039640110026192, 39.03036697193862], [-4.039586378176232, 39.02957809172955], [-4.039667019265278, 39.02863951241103], [-4.039593445061093, 39.027426214838144], [-4.039635978212553, 39.02689923263295], [-4.03949894685643, 39.02636907944485], [-4.039596400443509, 39.0254352203036], [-4.039474967587028, 39.025086855662856], [-4.039445139679471, 39.0248880683087], [-4.039452421129811, 39.023909862917364], [-4.039412932126342, 39.02324854084651], [-4.039457129691063, 39.02267748417433], [-4.039561872922258, 39.02228890151104], [-4.0397839988828546, 39.02195684829759], [-4.040302982093468, 39.021584305758886]]], [[[-4.039001467166429, 39.0410509987937], [-4.0425522975494355, 39.04189263537399], [-4.043212406865609, 39.04164463785218], [-4.043278741738613, 39.04167675434375], [-4.043362763942469, 39.041842976175566], [-4.043598571687913, 39.042037485971875], [-4.0437498295907295, 39.04210885101037], [-4.0439237365436185, 39.04213279559044], [-4.044848490712482, 39.041985213822926], [-4.045130923890072, 39.0419168129575], [-4.0454265300189824, 39.04178576164132], [-4.045499602757829, 39.041796730775275], [-4.045569211812061, 39.041627601440446], [-4.045492301294048, 39.04147384272653], [-4.045501659329639, 39.041364005104946], [-4.045428413084691, 39.04123931895774], [-4.045457553744609, 39.0411389457561], [-4.045541590697715, 39.04107070468424], [-4.045652731041647, 39.04103825997095], [-4.0459941499107615, 39.0411046266785], [-4.045803833841945, 39.04247590307217], [-4.043687579610525, 39.04239140399559], [-4.042495389848532, 39.04209066701329], [-4.042599852685313, 39.04233412991881], [-4.043813780219002, 39.04248926288264], [-4.04453700118372, 39.042669855747974], [-4.044876302926825, 39.04279072185975], [-4.045457927823662, 39.0430535816467], [-4.046116531099367, 39.043404602582555], [-4.0460758860639805, 39.04354632954635], [-4.044756763475314, 39.04291956392748], [-4.044498822440502, 39.04281572497773], [-4.044156767774659, 39.04272759676998], [-4.041284375226661, 39.04230577890541], [-4.040208442717654, 39.042191470145724], [-4.035188193865173, 39.04196920543675], [-4.033468221073511, 39.04194263918101], [-4.032103135385735, 39.04203050089122], [-4.030739670390024, 39.04222177844524], [-4.03050283063156, 39.042223871353855], [-4.029810082378579, 39.04212626930292], [-4.029457575888831, 39.04199286037135], [-4.029062759838575, 39.041773647095496], [-4.029129009645227, 39.041728457230505], [-4.02933127505839, 39.041715410785066], [-4.029156108164154, 39.041590416208386], [-4.029922694018182, 39.04154499563894], [-4.03332603659936, 39.04042519307476], [-4.036784785807941, 39.04051101418916], [-4.037606907431039, 39.04058844320119], [-4.039001467166429, 39.0410509987937]], [[-4.0451485340430295, 39.04230995087374], [-4.044858073312335, 39.042245243400856], [-4.045148534043027, 39.04230995087374], [-4.0451485340430295, 39.04230995087374]], [[-4.032294650473022, 39.041152311687874], [-4.0323681918595105, 39.04101735376833], [-4.032471696687975, 39.040983094167615], [-4.032624062763384, 39.04080076629241], [-4.0299877836697116, 39.04166910227422], [-4.032577097747733, 39.041759314563144], [-4.032309764512092, 39.04128572075137], [-4.032294650473022, 39.041152311687874]], [[-4.030477022593961, 39.04205406205002], [-4.030937436897858, 39.04202728543216], [-4.032363495476379, 39.04185779878199], [-4.029558482280593, 39.04175841833951], [-4.029453533846515, 39.04178319277451], [-4.029832703163937, 39.041940983866695], [-4.030213772366912, 39.04203610848918], [-4.030477022593961, 39.04205406205002]]], [[[-4.012523975605622, 39.04166171106002], [-4.0197094677488785, 39.04430892104956], [-4.019443306686456, 39.0446113994795], [-4.019540449154817, 39.04483383813672], [-4.019533314706178, 39.04490022139122], [-4.0190406085411245, 39.04530334943908], [-4.0185113515790265, 39.04605037911854], [-4.018372909482864, 39.046194772689326], [-4.018073241663249, 39.04640950317643], [-4.017688531248624, 39.046625249857016], [-4.016717567214235, 39.047096333762084], [-4.015609987529711, 39.047986073949396], [-4.015478161794902, 39.04813319986843], [-4.015227092353489, 39.04824901429095], [-4.014713574320972, 39.04882386990212], [-4.01389768574974, 39.04935449976448], [-4.013383053656682, 39.04975607791964], [-4.01254001613977, 39.05053960223819], [-4.008049577230287, 39.04912248933743], [-4.0069529876750085, 39.05095063722126], [-4.006764385466539, 39.05091018421659], [-4.00684111411663, 39.050909792141105], [-4.013138675404497, 39.040444223606315], [-4.013245598387091, 39.040458441782846], [-4.012523975605622, 39.04166171106002]]], [[[-3.996029048346025, 39.05854302218335], [-3.996261168884643, 39.05848075589879], [-3.9963300024351507, 39.05841844673274], [-3.9951528864737695, 39.05723135728817], [-3.995160054046793, 39.05708824672816], [-3.9952956314903316, 39.05694404028651], [-3.9957346509583576, 39.056632743081494], [-3.9966052010240936, 39.056346403102914], [-3.9978762003055968, 39.056445490807135], [-3.997897627401559, 39.05650418973757], [-3.997943710158979, 39.05641990312557], [-3.9982974253380563, 39.05614573965526], [-3.998443058566728, 39.05596607987277], [-3.998493152819285, 39.05564972581348], [-3.9988220419483644, 39.05492594486068], [-3.9989634473657043, 39.05432388553581], [-3.9991194156756733, 39.053975896697295], [-3.9998359971355897, 39.05310299731712], [-4.000355391173258, 39.05257348182945], [-4.000522793806547, 39.052446883103926], [-4.000610612382994, 39.05219219995816], [-4.000601668687308, 39.05209892283957], [-4.000714732698846, 39.0520936319284], [-4.000573084723603, 39.05246465382982], [-4.000322891757975, 39.05266179346226], [-3.9998783952304637, 39.053126512931044], [-3.999185313596958, 39.05396118485489], [-3.9990137494274403, 39.054334177709414], [-3.9988448453911296, 39.05502694292994], [-3.998668447977687, 39.0553524842242], [-3.9985478774757945, 39.055653942954535], [-3.99854029325187, 39.05586216166412], [-3.9984992843716194, 39.055978394069776], [-3.998361229798289, 39.05616276486304], [-3.9979883037873343, 39.056459715007826], [-3.9978123913566135, 39.057041523207616], [-3.9974994943024607, 39.05750690957071], [-3.997165149101305, 39.05785281262129], [-3.996925786742734, 39.05796698730114], [-3.9965662538700584, 39.05829406825092], [-3.9964833150937116, 39.058412343290144], [-3.9964558734847566, 39.05855307251472], [-3.996488062413075, 39.058564241409634], [-3.996278447653924, 39.05853421912489], [-3.996029048346025, 39.05854302218335]]], [[[-3.921968600203588, 39.12383769952467], [-3.924216228524249, 39.1229932826988], [-3.92669977704403, 39.12238253788645], [-3.9287257258743105, 39.121979574646], [-3.9290262930628237, 39.121720168993], [-3.9289615337398263, 39.12176332120404], [-3.928931443837498, 39.12173589746528], [-3.9292669119928925, 39.12151249959065], [-3.9295251054067726, 39.12128966067511], [-3.9295810836765046, 39.12133124933344], [-3.9311442500690084, 39.1201463884402], [-3.931301410096276, 39.11969804815866], [-3.9312910311776883, 39.120549785203295], [-3.931438528873437, 39.12048660971456], [-3.931507648597248, 39.12041256156843], [-3.9315348734073323, 39.12045204884203], [-3.931447372326634, 39.120531136819615], [-3.931305063232264, 39.120594484423606], [-3.9315480026070913, 39.12078732873654], [-3.92916813939244, 39.12259113449572], [-3.926935988107441, 39.12303498797534], [-3.924478211704906, 39.123639595691515], [-3.922253870847008, 39.12448495020244], [-3.920383804591564, 39.12476873773978], [-3.918636252869176, 39.12536257162379], [-3.9197064528357646, 39.12600987520183], [-3.92026697060159, 39.12642039961763], [-3.921731596843356, 39.12716854209591], [-3.922916497944966, 39.127879859373365], [-3.9232847080310975, 39.12803742774205], [-3.923868913231231, 39.128177248183434], [-3.9246096338506478, 39.1285016248123], [-3.924329327527774, 39.12857295725738], [-3.9242325617921927, 39.128737452941], [-3.9242080817821208, 39.128962739736366], [-3.924324291444609, 39.12945372411409], [-3.9242505807230343, 39.129921695777526], [-3.9242604676435584, 39.13041253198274], [-3.924224684615029, 39.12992316264839], [-3.9240150795716846, 39.12928812224239], [-3.923829064394148, 39.12896141467109], [-3.922661584230312, 39.12830169618682], [-3.9212005725764247, 39.12759381141369], [-3.9210219311844767, 39.127592069310204], [-3.920297354220482, 39.128035448360684], [-3.918144757387701, 39.126897039603705], [-3.9171547126508695, 39.126418465379885], [-3.9168455932076656, 39.12684247738498], [-3.91590759231576, 39.12767308973235], [-3.9151482233601675, 39.1288020264548], [-3.9147852873016364, 39.12862667637709], [-3.9146846876253454, 39.12876647600293], [-3.914637506306547, 39.12874022122652], [-3.9147397794728307, 39.12860435348861], [-3.9144900777003033, 39.12848230635601], [-3.9152838538796733, 39.12730232394936], [-3.9161330396717027, 39.126447274181196], [-3.9164819947709324, 39.12597923431781], [-3.9181556187629893, 39.12478650556163], [-3.919727555826068, 39.124281940579664], [-3.921968600203588, 39.12383769952467]]], [[[-4.257478590448887, 39.320298573884884], [-4.255235830622583, 39.320398096166535], [-4.254882748100948, 39.32030746062341], [-4.254636819205732, 39.320195084680655], [-4.253047519714283, 39.318289383562814], [-4.252900941466935, 39.318154786767636], [-4.252725292192576, 39.31803568525158], [-4.252437596590326, 39.31791480671131], [-4.251562237015498, 39.3176960106929], [-4.251280073729745, 39.317554386321255], [-4.2510358893962765, 39.31735186149034], [-4.248549389186374, 39.3140675069958], [-4.251456572987587, 39.31229467616738], [-4.25229611990509, 39.31193758240055], [-4.253306994633238, 39.31179614109773], [-4.254128481985044, 39.31184496887001], [-4.254801400130726, 39.31193314177219], [-4.2553057513583745, 39.312115738118074], [-4.255866049762772, 39.31397772063661], [-4.251291798651544, 39.31754968297283], [-4.251447506187002, 39.31763115275466], [-4.255900796225766, 39.31407928082749], [-4.2565320852035935, 39.31597058822355], [-4.256941234517767, 39.31730446783708], [-4.256975854893014, 39.317533278830865], [-4.256836403079771, 39.317766753797294], [-4.254303663978307, 39.31975774996122], [-4.25436529406654, 39.31983750388948], [-4.2569282452969235, 39.317822144824234], [-4.2570569331753605, 39.317646078835246], [-4.257091689887197, 39.31754063280811], [-4.25709421252074, 39.31743239026841], [-4.256837549243799, 39.316577544451114], [-4.256184657484735, 39.314521711764506], [-4.2559793319694865, 39.3139610319143], [-4.255441531580627, 39.31217263885666], [-4.255752871288167, 39.312277986910765], [-4.2567319587355295, 39.312888694426555], [-4.257184249113918, 39.31269648773693], [-4.257355197686667, 39.312740594495814], [-4.257714943654996, 39.31582132735105], [-4.257727213216231, 39.316390203687895], [-4.258054088880777, 39.319621497002615], [-4.258227929273741, 39.32178832855639], [-4.2584786738284786, 39.32397297908648], [-4.258778095282997, 39.32500863820957], [-4.259488309878248, 39.32654119584146], [-4.259771807557601, 39.32728923596994], [-4.26044148315165, 39.32884267939939], [-4.260871456081116, 39.33006442476764], [-4.2611502773881895, 39.3306538337836], [-4.2622268744251866, 39.333418179160226], [-4.26231404833342, 39.333840001886124], [-4.26121315742657, 39.33405788362408], [-4.2610824464995, 39.33370199241603], [-4.261201505078958, 39.332172537263254], [-4.261174418024688, 39.331929982270765], [-4.261023159863939, 39.33149377846871], [-4.25953017542291, 39.329102985108], [-4.256201439728856, 39.32462838587327], [-4.256104511804429, 39.3242463989064], [-4.256263951565915, 39.3231954277397], [-4.256175044676704, 39.32279415744662], [-4.255940523155354, 39.32241020414652], [-4.254902438168909, 39.32145210894043], [-4.2547775637583065, 39.32123949359826], [-4.254744160852026, 39.32103211826227], [-4.254773767354561, 39.32068166733059], [-4.2547561292922325, 39.32045868715719], [-4.255066639379227, 39.320558761040104], [-4.255410186672174, 39.320583146061175], [-4.258111047238064, 39.320424760202904], [-4.2580967856887035, 39.32024449856545], [-4.257478590448887, 39.320298573884884]]], [[[-4.259016780209528, 39.35881107806528], [-4.2595519396833, 39.357363778987065], [-4.260098642208901, 39.35624184430391], [-4.260307448074152, 39.355693648946826], [-4.260416102264802, 39.35510707258736], [-4.2605044951685205, 39.35380619274213], [-4.2607214947928345, 39.35283595174376], [-4.260819874195284, 39.35209784141719], [-4.260823867495693, 39.35153230674936], [-4.260749786870279, 39.349663824726754], [-4.260524010946293, 39.34859484588467], [-4.260539729656077, 39.34654392084139], [-4.260469645754714, 39.34562688185385], [-4.260342582518317, 39.344716411149705], [-4.260287117849016, 39.343934639606914], [-4.260362446210036, 39.343644865055246], [-4.260594147174834, 39.343255359113044], [-4.260667397529938, 39.34301795723143], [-4.260535014596242, 39.342651226594725], [-4.260297446304451, 39.34218390759703], [-4.259979336739389, 39.34165736076355], [-4.259690555945927, 39.340968308402395], [-4.2596442139365145, 39.34035150774668], [-4.259604495161984, 39.33894650026715], [-4.26119592846912, 39.338987305124235], [-4.261273037098233, 39.33899719183871], [-4.261345507683901, 39.340453292942115], [-4.261728747272516, 39.35047397462804], [-4.260874253387671, 39.35441128734435], [-4.2603253758193835, 39.356715093225546], [-4.259406726626445, 39.358056635441685], [-4.259016780209528, 39.35881107806528]]], [[[-3.2926470125571963, 38.668227719513915], [-3.293196235710073, 38.66850994682321], [-3.2934543342760034, 38.66860338322131], [-3.294012103497826, 38.668979578755014], [-3.294316672483785, 38.66913732658918], [-3.2940913762592388, 38.67117058615301], [-3.2940202154494083, 38.672213606035236], [-3.293934682175583, 38.672803821517725], [-3.293431227373733, 38.67400418706828], [-3.29416980619419, 38.67374423734379], [-3.2944702042964353, 38.673607046743456], [-3.2948745820871523, 38.67348427805876], [-3.2972966049214536, 38.67303631000305], [-3.2998047583552568, 38.673073718903446], [-3.3004101060350526, 38.67298745892815], [-3.301308993395731, 38.67275156447095], [-3.3035985118020275, 38.6719187359559], [-3.3040536680126222, 38.67171289932785], [-3.304447694834509, 38.67148676318541], [-3.3054142116496243, 38.67134681741614], [-3.3066519892103394, 38.67090417062703], [-3.3068135860687558, 38.67081687723797], [-3.3073632485655353, 38.67040323714106], [-3.3077390463842744, 38.670003209298216], [-3.3079730037454813, 38.669849216521584], [-3.3081616037066723, 38.66981402420031], [-3.3088025758180737, 38.66978890743909], [-3.3098099908070022, 38.669625206349714], [-3.31064694798426, 38.66965219385411], [-3.3112640800530864, 38.6695627778845], [-3.311039172273006, 38.66965448587489], [-3.310872849177157, 38.669683765933485], [-3.3103899047226184, 38.66970270721202], [-3.309816973267526, 38.6696716889446], [-3.3088136939248343, 38.6698349285829], [-3.307998014904372, 38.669891596426005], [-3.307784009511491, 38.67003400159773], [-3.307407410977851, 38.670434932871075], [-3.306850184353342, 38.67085391000189], [-3.3066799848774044, 38.67094564179783], [-3.3054303819388817, 38.67139192449619], [-3.3044735095503985, 38.67152923186068], [-3.3040877428428215, 38.67175147152405], [-3.303623981312556, 38.671961205712066], [-3.301330559042983, 38.672795396554136], [-3.300598405442111, 38.67298886762863], [-3.300104318117546, 38.67309692666071], [-3.2998079426616553, 38.6731205722865], [-3.297397249201702, 38.673077869060926], [-3.2972125909396492, 38.673096632467484], [-3.2960281169335657, 38.67330104635901], [-3.2947515630979827, 38.67356488359616], [-3.293562495336786, 38.6740006134116], [-3.293322830757694, 38.67412053140008], [-3.292902992399249, 38.67454278769498], [-3.292368964883826, 38.67487314139783], [-3.29215493636727, 38.675049406977664], [-3.2917046761635187, 38.67554328886504], [-3.2915951591753427, 38.675723352532565], [-3.291546375565359, 38.67588351979277], [-3.291557443259818, 38.67660398368789], [-3.29152256980926, 38.67710575025407], [-3.291471805190196, 38.677259618608964], [-3.2913732165805096, 38.677413786325914], [-3.290823902615129, 38.67803759160775], [-3.290486125205221, 38.678377726403184], [-3.2899397591245934, 38.67868015832288], [-3.2887543719560934, 38.67966248288651], [-3.2883144463324845, 38.679964198245536], [-3.2880462015065843, 38.680072820888334], [-3.2877774171502887, 38.680133046226175], [-3.2870485155833866, 38.68016115199248], [-3.2867380507698662, 38.68020471974], [-3.286229510553045, 38.680428282671485], [-3.2859630535308937, 38.68064214978743], [-3.2858549066684377, 38.68085427769316], [-3.2858999718926865, 38.6811439878612], [-3.2858823803246713, 38.68134598136767], [-3.285769829653629, 38.68155109521782], [-3.285462436260222, 38.68188041703998], [-3.284936757181855, 38.68233786847188], [-3.2846549569326005, 38.68274453283967], [-3.2837479236292033, 38.68347136863643], [-3.2834088640824217, 38.683822025194225], [-3.283432564576144, 38.684148101082585], [-3.2834014610839644, 38.68448260063798], [-3.2833356743178377, 38.68477176912789], [-3.283206768026709, 38.68508938754757], [-3.2823339788404167, 38.68596887504369], [-3.281873705440055, 38.68664126663793], [-3.2816377315022254, 38.68727986280933], [-3.2810696578634766, 38.68796927714764], [-3.2810580218579166, 38.68843512135817], [-3.281012719355885, 38.688523365776], [-3.281014280340949, 38.68795093600303], [-3.281583155686993, 38.687260618819046], [-3.2818194739207107, 38.68662175157089], [-3.2822829479282998, 38.68594448607989], [-3.282988848083276, 38.68525437626153], [-3.283201446458614, 38.68496296459668], [-3.2833128074398417, 38.68462934763953], [-3.283363972758611, 38.68430605978014], [-3.283345675979875, 38.683804965719006], [-3.283703884268686, 38.68343966374134], [-3.284608162556145, 38.682715358297095], [-3.284887215452503, 38.682311674634036], [-3.2854163294366896, 38.681850610310235], [-3.2857190295952488, 38.68152643681338], [-3.2857952604203784, 38.681412160850634], [-3.2858402425410467, 38.6812445210874], [-3.2858004677909918, 38.68081070337912], [-3.2859128267395956, 38.680616949351275], [-3.286192579868112, 38.68039151467549], [-3.286719592991257, 38.680160156447016], [-3.2870435004980636, 38.68011448303684], [-3.2878067478646207, 38.68007764594091], [-3.288025452250925, 38.68002898439124], [-3.2882823268369465, 38.67992471549913], [-3.288712504114157, 38.67962897212984], [-3.289900763195062, 38.67864466276995], [-3.29044448722225, 38.67834421118244], [-3.290775277429019, 38.67801040666338], [-3.2913226460126626, 38.67738876929165], [-3.291415752674489, 38.67724353698803], [-3.291463449969248, 38.67709868813172], [-3.291503861280065, 38.6764868733133], [-3.291487148347663, 38.67587808007707], [-3.2915870367694957, 38.67561982681951], [-3.2917973015142517, 38.67533407790422], [-3.292110434749839, 38.67501815694675], [-3.2923306512570623, 38.67483700959085], [-3.2928472487460394, 38.67451742378686], [-3.293176719637411, 38.67417722170428], [-3.2931334086840858, 38.673872730222925], [-3.288977334343762, 38.67427443847649], [-3.288498777401172, 38.67321321895163], [-3.2883400747341525, 38.67299579868794], [-3.2879863082931196, 38.67284130618125], [-3.2877044517204492, 38.67261436079257], [-3.287464748609403, 38.67249311010706], [-3.2868846850573714, 38.672291227223916], [-3.2866512355599067, 38.67226881939968], [-3.2860632577791624, 38.66783259323233], [-3.2861418246692953, 38.667906117958864], [-3.2868198848371684, 38.66813245692629], [-3.2880395212255475, 38.66840018468843], [-3.2890026879576446, 38.66854578334395], [-3.289937068623432, 38.66856294102373], [-3.2916801239320983, 38.668298800385855], [-3.2926470125571963, 38.668227719513915]]], [[[-3.7841045474408523, 38.75998446245956], [-3.783894772596349, 38.760514302023374], [-3.7838960127907963, 38.760627658922104], [-3.7834089466761553, 38.76036553468032], [-3.7828640254314014, 38.75952660645527], [-3.7828280948273094, 38.75936662633982], [-3.7837424806031765, 38.75985946766504], [-3.7841045474408523, 38.75998446245956]]], [[[-3.168532696713812, 38.86902912342615], [-3.16883081104236, 38.86943940196186], [-3.16796657971408, 38.87003485692102], [-3.168472001886145, 38.870819693387595], [-3.1687100708147127, 38.87112573786599], [-3.1697782089334483, 38.87224314028343], [-3.1703963071987213, 38.8727640041004], [-3.170638270908208, 38.87310175949058], [-3.170764093331678, 38.87341553329842], [-3.170161344000922, 38.87270703325542], [-3.168867659241033, 38.87146965662488], [-3.1684744549931008, 38.87098477691607], [-3.1679595573074613, 38.87016286323339], [-3.167617554239987, 38.869727380287436], [-3.167417398350469, 38.86931160858048], [-3.167345775718364, 38.86924854025467], [-3.1672938559824537, 38.86912515638258], [-3.1676912053910433, 38.868634551848764], [-3.169730844593909, 38.86682985796131], [-3.169778810421751, 38.86698117785823], [-3.16796811983498, 38.86849889051416], [-3.1676665254240084, 38.86882824103323], [-3.168385936242498, 38.86902104448897], [-3.168532696713812, 38.86902912342615]]], [[[-3.196449749361975, 38.88127136957514], [-3.1919881515867687, 38.881098369984734], [-3.1919886642489095, 38.88120533600779], [-3.1920890861170976, 38.881634565764685], [-3.1924027929690504, 38.882020008619996], [-3.1927001592525075, 38.8825010898849], [-3.1933922058033475, 38.88423031670621], [-3.19365518703421, 38.88452590498581], [-3.19468534101849, 38.885192392110206], [-3.195501955930793, 38.88585219876421], [-3.1961910979346015, 38.88648039867777], [-3.196472793860813, 38.88665204512381], [-3.196930337737302, 38.88699956519011], [-3.2001936439343917, 38.88965211679533], [-3.2003683019342652, 38.88972363901383], [-3.200649188520592, 38.89005441551965], [-3.201572464282867, 38.89079797855075], [-3.202440801341649, 38.89155506559374], [-3.2029181608032857, 38.891913611654076], [-3.2039480336786226, 38.89290406145556], [-3.2043455560225844, 38.89315973943575], [-3.204966762346269, 38.893692217661616], [-3.2053019672519496, 38.89393015892733], [-3.2063049824124437, 38.89437653343021], [-3.2067835701327474, 38.894628459677136], [-3.208318924545856, 38.89584100888684], [-3.20889369899926, 38.896369218726036], [-3.2092042128410556, 38.89655259211934], [-3.209212233334773, 38.896654858324936], [-3.2088862188841643, 38.89645321933271], [-3.2079358316897726, 38.895596578761314], [-3.206580327975942, 38.89456997427718], [-3.205445692783246, 38.89406634038475], [-3.2050314737224714, 38.89381997737166], [-3.204540114357037, 38.89337071870892], [-3.203818157986835, 38.892849137777965], [-3.2028194045891833, 38.89189747239033], [-3.202426184383953, 38.891605280555986], [-3.2015342242230806, 38.89081282343929], [-3.200641987757621, 38.89012003172611], [-3.200363967369696, 38.889783482918624], [-3.2001693581842274, 38.88971082339946], [-3.199313260713608, 38.888982454043855], [-3.1967427423891963, 38.88691580391593], [-3.196090379830729, 38.88645822378198], [-3.195292497447479, 38.88573846336899], [-3.1946615619431538, 38.88522451277665], [-3.1941967632805293, 38.884914389079775], [-3.1937276987155445, 38.884649512950205], [-3.1935228107029454, 38.88447566440278], [-3.193312826144341, 38.88420981174616], [-3.1930502190891734, 38.883452926529564], [-3.1926619933223224, 38.8825424256573], [-3.1923548920039178, 38.88204261635411], [-3.192050899488887, 38.881670314229126], [-3.191911136824975, 38.88105551607941], [-3.191861299315839, 38.880657923618784], [-3.1917752252827727, 38.88045927062031], [-3.1917061144608376, 38.880182554345225], [-3.1916307579859104, 38.87959341842906], [-3.191503950902246, 38.87912287296057], [-3.1913998794380474, 38.878920644528925], [-3.191670643940615, 38.87885802085597], [-3.192078535277541, 38.878856809984484], [-3.194377250055581, 38.87940045712437], [-3.1946174221537795, 38.8794943177502], [-3.194773601139472, 38.87960724221786], [-3.1953289155009124, 38.8801866483532], [-3.1961315382310347, 38.88042636156417], [-3.196426971040517, 38.880487413765586], [-3.196498870590721, 38.88047224354908], [-3.196449749361975, 38.88127136957514]]], [[[-3.1753961517182896, 38.89210159992358], [-3.175864357634209, 38.891034581033765], [-3.1758030963152435, 38.890693767588424], [-3.1755920187769644, 38.89000678572152], [-3.1755109988181003, 38.889502992401106], [-3.175308387092668, 38.88916627043128], [-3.175274283332837, 38.88898933537409], [-3.175306592008417, 38.88880888074519], [-3.1754802121319097, 38.88851403335744], [-3.17590473421142, 38.888029034383344], [-3.175944719937834, 38.88787893230757], [-3.175925443923045, 38.88735404919613], [-3.1759743356092605, 38.88707281601759], [-3.1759568470133326, 38.886945333825224], [-3.1758377786061622, 38.88663083078073], [-3.175591525585455, 38.88631472111265], [-3.1755234345011565, 38.886148114785925], [-3.1755128602265983, 38.88597186525853], [-3.1756851899510057, 38.885390281641854], [-3.1757126553350576, 38.885161437677866], [-3.1756921088047765, 38.884871031609215], [-3.1756145230876096, 38.884734443455976], [-3.175116540131877, 38.88440032745695], [-3.1750267440239797, 38.88422059650005], [-3.175092867712421, 38.88400494163217], [-3.175534340496587, 38.88357984940248], [-3.1756127962344745, 38.88341473035659], [-3.1755950772315176, 38.88324218622495], [-3.175507727178669, 38.883070111723754], [-3.1750860440222723, 38.88267388146626], [-3.1748279573742924, 38.88236544299624], [-3.1746320638218264, 38.88193760278519], [-3.1744232285309484, 38.88201802740544], [-3.1733709680738285, 38.882220637102584], [-3.1726441491614974, 38.882605150010846], [-3.1723748752381704, 38.88296348126088], [-3.1718516302594697, 38.88323729278481], [-3.171300980389773, 38.88338589091585], [-3.1704582782358863, 38.88367900296217], [-3.1696904726572077, 38.884001738151625], [-3.168563333143524, 38.88430065189175], [-3.168233773820538, 38.88442990187207], [-3.1671477966519483, 38.88498575589346], [-3.166594365213956, 38.88533564428227], [-3.165793904176326, 38.88566245555676], [-3.1649316797850306, 38.88621048691444], [-3.163847061644437, 38.8867259320547], [-3.1629867417615936, 38.88731477300964], [-3.161972216336875, 38.88773223315957], [-3.160961341329632, 38.88819375480039], [-3.1602319841905135, 38.888477895414425], [-3.1597223511920243, 38.88874182017091], [-3.159533142099702, 38.88880064920714], [-3.15900096637886, 38.88888283920685], [-3.158643282742271, 38.888987224034445], [-3.1578092313496904, 38.889384586270296], [-3.157568006636582, 38.88959298353593], [-3.157389766384029, 38.889655133060444], [-3.157191109435848, 38.889719202217414], [-3.1565728467557146, 38.88977698566279], [-3.1555282808526433, 38.88993544789711], [-3.1547402888551517, 38.89010419466074], [-3.1543548807114243, 38.8902440183501], [-3.1536828246752506, 38.890597971627265], [-3.1528668155085735, 38.89093742078471], [-3.152412111347649, 38.891082920391845], [-3.1515786246879895, 38.89128558397826], [-3.1507339328087576, 38.89159000062619], [-3.150271355452165, 38.891669537735964], [-3.1491858165344437, 38.89177176856502], [-3.1482447314007684, 38.89203654500569], [-3.147837497430714, 38.89211077551681], [-3.147303083479859, 38.89213830521997], [-3.147147792709659, 38.892097498607704], [-3.1469859387665906, 38.89200245071146], [-3.1467389072498007, 38.89198627032811], [-3.145944968605274, 38.89242864497655], [-3.1453919655237588, 38.89261550828834], [-3.1451861075850664, 38.89271731971952], [-3.1449115866589317, 38.892963490404114], [-3.1443976853540296, 38.89333017032974], [-3.1436762493945642, 38.89336944930115], [-3.1424270958957035, 38.89338026148963], [-3.14161712352511, 38.89343477053946], [-3.141310503991134, 38.89348993202621], [-3.1410086875948653, 38.893586359651636], [-3.1404344923975196, 38.89385577053762], [-3.139957489685761, 38.89388121502943], [-3.1397922741253073, 38.8939567492111], [-3.1394890388110763, 38.894214115762274], [-3.1392163485109434, 38.89434780711621], [-3.1390053983197372, 38.894506390750934], [-3.1388031968166272, 38.894776161185774], [-3.1386122613335807, 38.8949695047514], [-3.137804885997212, 38.89536434464872], [-3.137334201951806, 38.89568561444814], [-3.137099131265441, 38.89595821410708], [-3.136942250274824, 38.89635463440694], [-3.136806419825205, 38.89654430122265], [-3.1366750465567774, 38.896653219512544], [-3.136495574157588, 38.89675309226265], [-3.135968217898756, 38.89693438834381], [-3.135536475654172, 38.897304357743], [-3.1353494979980785, 38.89734620781044], [-3.1356556770674495, 38.89716354963128], [-3.1358969090547872, 38.89691194257972], [-3.136404084154657, 38.896733288241236], [-3.136693939796546, 38.89658029426558], [-3.136791782253562, 38.89648817214621], [-3.136911812444626, 38.89629753260683], [-3.137018622409943, 38.89600859284901], [-3.1371288629075664, 38.89582498903338], [-3.137300106647704, 38.89564546319513], [-3.1377837303737066, 38.89533391520358], [-3.1385092222457645, 38.894996120873984], [-3.138702861122045, 38.894828907658194], [-3.138960295284199, 38.8944984241868], [-3.1391156057295033, 38.89436874378368], [-3.1393334696451927, 38.89426692874901], [-3.139758674308966, 38.89393435075725], [-3.1399765322542996, 38.89383063759967], [-3.1404725793709947, 38.89381445198242], [-3.1407547840200087, 38.89365433796913], [-3.141178592023608, 38.893492254352914], [-3.1418422125666883, 38.893374304909514], [-3.144366260160626, 38.89330029095234], [-3.1447418056660794, 38.8930557085675], [-3.1450833196903223, 38.89275124066636], [-3.1452482317931167, 38.89264406894022], [-3.145877758368868, 38.89243620852017], [-3.1467570715446533, 38.89195975363701], [-3.14696416596411, 38.89195931294448], [-3.147216483835434, 38.892078577953285], [-3.1473723358794565, 38.89211199432126], [-3.1478373044111527, 38.89207328784671], [-3.148301918929773, 38.89197825798295], [-3.1491233741791818, 38.891745714922145], [-3.1505850692404067, 38.8915899223485], [-3.150989789078852, 38.89147468759988], [-3.1516167973118034, 38.89123128507679], [-3.152215556945099, 38.89110417361484], [-3.1527591292063657, 38.89094522150115], [-3.1538861607125046, 38.890460733242925], [-3.1544049996556693, 38.89017258084886], [-3.154826391315112, 38.89003667435682], [-3.1561462350078338, 38.88978575738999], [-3.157193312263719, 38.88967233934408], [-3.1573594781077086, 38.889619668488294], [-3.1575318210261965, 38.88954995728811], [-3.1577612189567796, 38.88936401476247], [-3.158567855472055, 38.88897903588356], [-3.1589817548320616, 38.88885096457693], [-3.159578702302726, 38.88875328096971], [-3.1597389781895084, 38.88870070488663], [-3.1602915636161955, 38.88841211964754], [-3.1609931548946113, 38.88813819996342], [-3.163049190723423, 38.88723980006559], [-3.1636588039468365, 38.88678855580081], [-3.164866854450713, 38.88620138669958], [-3.1658856943213536, 38.88556851521114], [-3.1665582379872492, 38.88531902449245], [-3.1673139997204003, 38.88486088845765], [-3.168177252957656, 38.884421602564544], [-3.168752192011246, 38.8842043207423], [-3.1697176091713626, 38.883970879288626], [-3.1702926577060224, 38.88370393618928], [-3.1720662487079085, 38.88311640699236], [-3.172350702113546, 38.88293179635569], [-3.1725866529527105, 38.882619833678234], [-3.172986065736369, 38.88234385483581], [-3.17334653658573, 38.8821775982544], [-3.1734850065721827, 38.88212891058971], [-3.1744014662725135, 38.881982374245496], [-3.175280126288043, 38.88169855621993], [-3.175632434644216, 38.88164125423809], [-3.1762414622168293, 38.88161122943715], [-3.1767974942104513, 38.881506395879], [-3.177394238691455, 38.88145205252701], [-3.1789841425131766, 38.881457290841446], [-3.179058473627874, 38.88139616882435], [-3.1790632123006826, 38.88135489325002], [-3.1791883738620044, 38.881474460011994], [-3.1790795532500886, 38.88148282743246], [-3.179146140530761, 38.881554096629365], [-3.183525022736122, 38.88580438763783], [-3.182479495866481, 38.885991659016355], [-3.182646643176001, 38.88651982893605], [-3.1828052281004866, 38.88690031311862], [-3.1830639207103437, 38.88742725311897], [-3.1834087171411274, 38.88798244808473], [-3.183593839896273, 38.8885014820829], [-3.183917641933771, 38.88914123649039], [-3.1839456123753562, 38.889348182513714], [-3.1838900966650097, 38.8895977943919], [-3.1835548153034705, 38.890239847352696], [-3.1833201900769974, 38.89052254225478], [-3.1831814062980226, 38.890585209863204], [-3.182756818607827, 38.890666703954665], [-3.182171181631224, 38.89067194459186], [-3.1817793598221673, 38.890716166443326], [-3.18150038073746, 38.89078671000385], [-3.1802453857508053, 38.891440538021264], [-3.1802049926094966, 38.89147223078532], [-3.1801361193324436, 38.89283738327583], [-3.180023051219252, 38.89290577480657], [-3.1796626370642325, 38.89301600002347], [-3.1793669568518297, 38.893148923835845], [-3.179214177813499, 38.89328982363314], [-3.179056928032872, 38.89353562859749], [-3.1789208192246834, 38.89365947068016], [-3.178129182665196, 38.89402528228587], [-3.177609418663676, 38.894102216801286], [-3.176113289779379, 38.89351249547045], [-3.1754181476576355, 38.89223079200941], [-3.1753961517182896, 38.89210159992358]]], [[[-3.026089381386384, 39.052542698740275], [-3.0267062498557276, 39.05208839531741], [-3.0271625826770308, 39.051625925832866], [-3.0279761723517185, 39.050657305011], [-3.028908773687521, 39.04939497129448], [-3.0302338515342595, 39.047985288924565], [-3.0308231358292046, 39.04830909028606], [-3.0312680667981673, 39.04860111761543], [-3.031855720455683, 39.049144784911995], [-3.0320148234009214, 39.049335956218954], [-3.0323120606979588, 39.04986645391925], [-3.032870236911397, 39.05061477028485], [-3.033107611065724, 39.051122029092795], [-3.0331793064226122, 39.05121482487918], [-3.03375443738953, 39.051850400943245], [-3.0342079975930436, 39.05221918594345], [-3.0344854672172805, 39.05250224752877], [-3.034440262679675, 39.05268199528008], [-3.0344448653932594, 39.05280716954459], [-3.0352816329261985, 39.054555692256365], [-3.035291029966667, 39.055045190719206], [-3.0348629448745297, 39.055494098799706], [-3.034790262719587, 39.05564116191473], [-3.0346401135729892, 39.05564141837202], [-3.0348973891057156, 39.055640981224045], [-3.0349534478243005, 39.0556390765757], [-3.034926416894753, 39.05567845942085], [-3.0342846192766983, 39.05567126060883], [-3.0336501991287754, 39.05562305485496], [-3.031938602165313, 39.05528759143929], [-3.031639938577705, 39.05525739497304], [-3.029416796544066, 39.05545378730869], [-3.029371021679549, 39.05542225939633], [-3.0296127930274492, 39.055396340417516], [-3.0283768604912877, 39.05445590693388], [-3.028261929317419, 39.05438460611151], [-3.0280070473320695, 39.05430347152219], [-3.0262284509560886, 39.054038241742546], [-3.025579509161906, 39.05420672546889], [-3.025198629338141, 39.054243394150355], [-3.0241006422693446, 39.054243729837154], [-3.0241587815815008, 39.05368536578716], [-3.0251060741480296, 39.05315341943385], [-3.026089381386384, 39.052542698740275]]], [[[-3.02271062523945, 39.059256914753874], [-3.021578136714171, 39.0596055007853], [-3.0211383535261436, 39.05963936906185], [-3.0204459948789304, 39.059571727784785], [-3.0191375267437612, 39.059294222645846], [-3.0188159803649155, 39.05929373429003], [-3.0184101816492857, 39.05936155926273], [-3.0179468459380803, 39.05949824676703], [-3.017107804247885, 39.05987161043595], [-3.0155755099610397, 39.06038942313549], [-3.0118070785294115, 39.06160231741247], [-3.0090543703129935, 39.06241626697609], [-3.007016495996068, 39.06294535934459], [-3.0060654532131013, 39.06315527590884], [-3.003573832034318, 39.063404175240194], [-3.002052452753634, 39.06350648972736], [-3.0014339363109586, 39.06349901512201], [-3.0010164261505046, 39.06341809840295], [-2.9996431190271826, 39.06305936856019], [-2.998324031942054, 39.06286732261393], [-2.989756150978039, 39.06233574756707], [-2.988343908869561, 39.06231091960995], [-2.9883253201868625, 39.06218557111331], [-2.9898613494821795, 39.06222870298248], [-2.998252603068733, 39.06271458070914], [-2.9992851480000318, 39.06283687891279], [-3.00130794252146, 39.063333119324945], [-3.001954193380623, 39.06336384318578], [-3.0028178732028996, 39.06330570739972], [-3.00601030662042, 39.063020028770126], [-3.00800392229117, 39.06255276977659], [-3.007678197391039, 39.06199374657614], [-3.008015412144985, 39.06184234821439], [-3.0081923392980654, 39.061951065799505], [-3.0083171855918684, 39.06197332378928], [-3.0085881176328644, 39.0618780325928], [-3.0091824822243853, 39.06176330549088], [-3.0098439742061047, 39.06171495116995], [-3.0098272538759887, 39.062041430578915], [-3.0164656381333304, 39.059926491354425], [-3.016970456663643, 39.059744211222394], [-3.017834583243467, 39.059366068729624], [-3.0185190157180117, 39.05917366165535], [-3.0188944149491945, 39.059125301058785], [-3.019232258345892, 39.05912912068035], [-3.0205714792137957, 39.05944392598159], [-3.021093811874039, 39.05949565195799], [-3.0213478603048247, 39.05947893489221], [-3.0218966099769795, 39.05936249772348], [-3.022599751931753, 39.05915898383688], [-3.02271062523945, 39.059256914753874]]], [[[-3.0522138822807663, 39.075230542846946], [-3.051879724547974, 39.075323057196975], [-3.0515059877241497, 39.075359808502675], [-3.050395363551031, 39.07522485031748], [-3.049928661194201, 39.07524532636319], [-3.0494950974980304, 39.07536535617528], [-3.048301291057927, 39.07548326871109], [-3.0475588519749555, 39.075659923825036], [-3.0469732113301933, 39.07571918031207], [-3.046384389442235, 39.07585630124061], [-3.045759702348105, 39.07595566717014], [-3.0454318107687794, 39.075922724129505], [-3.044322703957768, 39.0756217250053], [-3.044105125918989, 39.075623699860735], [-3.043494439700612, 39.0757450357874], [-3.0429604617505297, 39.07577839509003], [-3.042750673678165, 39.07584497062816], [-3.041799225603753, 39.076285239729366], [-3.0409324115443996, 39.076749711589336], [-3.0400662621152947, 39.07695807737694], [-3.039552409576907, 39.077037727407266], [-3.0391428642002585, 39.07715771505502], [-3.0391716222128413, 39.07709498718659], [-3.0395399043471993, 39.07700303838387], [-3.040056530975105, 39.076922846781095], [-3.040831142910363, 39.076748755855974], [-3.042195752840471, 39.07605405326598], [-3.0429499201342107, 39.0757432551397], [-3.04348863735338, 39.07570926333109], [-3.0441759737985037, 39.0755830323528], [-3.0443811813465627, 39.075589712863874], [-3.0454417300583763, 39.07588685553312], [-3.045754592429983, 39.075919804444005], [-3.0463753488419725, 39.075820890666506], [-3.0469531871282474, 39.075682873081874], [-3.0475478457262697, 39.07562487459198], [-3.0482901689267834, 39.07544831421311], [-3.049483286994271, 39.07533048768947], [-3.0498941822139467, 39.07520542132737], [-3.050044003875704, 39.07519030835741], [-3.0506186959431787, 39.07519654840733], [-3.0513918528365944, 39.07531759614382], [-3.0516983384448353, 39.07532503011283], [-3.0523388052250118, 39.07516533558041], [-3.0534532626121256, 39.074998937634334], [-3.0547597203104746, 39.07466159041599], [-3.055224311261139, 39.074616134897894], [-3.0561062388138773, 39.07426409528659], [-3.056672577216437, 39.07409693774458], [-3.0568709852343967, 39.073982668721314], [-3.0569001396600544, 39.07401004867417], [-3.0567926886305616, 39.074086876832304], [-3.056830290740756, 39.07405999149677], [-3.058988725978127, 39.07580559985536], [-3.0590672456238956, 39.075991326794515], [-3.0592212719523606, 39.0766985317308], [-3.0590226257641238, 39.076756988316205], [-3.0589018132173367, 39.07685767698782], [-3.0588521742579844, 39.07706127310377], [-3.058773930037458, 39.07782982954388], [-3.0582700076980744, 39.07902979408233], [-3.058082653951822, 39.079012473343234], [-3.057979365752224, 39.07895665509448], [-3.057941372055381, 39.07886079444897], [-3.057642141493613, 39.07739563479432], [-3.057687180463499, 39.077037150033526], [-3.057827943554677, 39.076685826792904], [-3.0576388667221317, 39.076041977336644], [-3.0565584450169907, 39.07627517653397], [-3.056063141035299, 39.07519172861308], [-3.055903745500822, 39.07493210119699], [-3.0557962811028703, 39.074840958913136], [-3.0553163465761215, 39.07463276207208], [-3.0545807103730076, 39.074744397527894], [-3.0534636937189936, 39.07503407668925], [-3.0522138822807663, 39.075230542846946]]]]}}]}