{"type": "FeatureCollection", "features": [{"type": "Feature", "properties": {"status": "ok", "version": 6, "n_rows": 42, "n_parcels": 42, "n_matched": 42, "foral": 0, "public_domain": 0, "declared_m2": {"expropriation": 0, "easement": 0, "temporary": 3939}, "parcels_m2": 268020, "catastro_date": "2026-08-21", "identifier": "BOE-B-2026-32680"}, "geometry": {"type": "Polygon", "coordinates": [[[-5.770835115700369, 43.517754491539705], [-5.770788918130945, 43.51786419672403], [-5.770781460607445, 43.5179904340836], [-5.77092607941213, 43.51821706164254], [-5.771166160271056, 43.518466678527304], [-5.771557170395947, 43.518732257236735], [-5.771500258209088, 43.518724183939916], [-5.771054658154405, 43.518404106063755], [-5.770773760686034, 43.518035729428426], [-5.770738103949781, 43.518216218256704], [-5.770570434719894, 43.518621138700716], [-5.769855011238725, 43.519093357616384], [-5.76942377612352, 43.51953581873349], [-5.769153912559245, 43.51963833949528], [-5.768977491934913, 43.51975759729814], [-5.768861603050017, 43.519872232048826], [-5.768833309045154, 43.51997853580385], [-5.768850443099463, 43.52007175916993], [-5.768981527600666, 43.52028656663119], [-5.7695676115858365, 43.52077243132314], [-5.769728622480058, 43.52095976691109], [-5.770219415085268, 43.52139103481661], [-5.770521110866353, 43.52152147593727], [-5.771164075240254, 43.52167119501882], [-5.771385058715506, 43.52168185686771], [-5.771637573017496, 43.52164899025217], [-5.771707854368741, 43.52161919366495], [-5.771743354040483, 43.521551434871675], [-5.771765685589544, 43.521361000360464], [-5.771803129725501, 43.52130868075352], [-5.77202834147549, 43.52118751900728], [-5.772205787238196, 43.52116898315096], [-5.772481366031524, 43.52126134134567], [-5.7731173538775025, 43.52158003375496], [-5.773402310058634, 43.52160967185783], [-5.774716875890318, 43.521332307609626], [-5.775297946927557, 43.52122770217109], [-5.775514128502958, 43.52122001956852], [-5.777596580954751, 43.5214338493984], [-5.7782794863999865, 43.521547528359605], [-5.778869462553113, 43.521712173625346], [-5.780410108790995, 43.52179929697623], [-5.781023658300255, 43.5217499695604], [-5.781520839679618, 43.521666912478864], [-5.781850380693727, 43.52156281940486], [-5.781830827280975, 43.52129903225103], [-5.781896103273939, 43.521244050860545], [-5.782560120001285, 43.52115944782543], [-5.782985492406857, 43.52107030455291], [-5.782984315505251, 43.52109851481925], [-5.781889957376117, 43.52127184188614], [-5.781855722791365, 43.52134533537711], [-5.781872578793848, 43.52159082064584], [-5.78128297761799, 43.52173591377561], [-5.78045241771316, 43.52181798543516], [-5.778947241156538, 43.521754219882105], [-5.7782703144410466, 43.52157143114954], [-5.7775886245846415, 43.52146267462041], [-5.775513499868384, 43.52124407474138], [-5.775230549893243, 43.521260852312395], [-5.774138962303887, 43.52147896627855], [-5.775187719964241, 43.52240150997745], [-5.776019064221606, 43.523306903024036], [-5.775703315807787, 43.523666173845456], [-5.774780123959438, 43.524176339011376], [-5.774558372705078, 43.5242327800185], [-5.774551166259889, 43.52429418022256], [-5.7743276081113155, 43.524400270575065], [-5.774149901933937, 43.52441331930939], [-5.774151538028619, 43.52450025987375], [-5.773746983427401, 43.52451800568403], [-5.773223291829345, 43.52461463777318], [-5.771990667448178, 43.52493465517498], [-5.771475261418753, 43.524871978242416], [-5.771223227086912, 43.52455908607529], [-5.77065122090997, 43.524133033633234], [-5.768668427002723, 43.5245410828255], [-5.7680949449721055, 43.52478286725656], [-5.76777170987619, 43.52454687343971], [-5.767476286677246, 43.52414804822554], [-5.766917432434652, 43.52395476888825], [-5.767667420758574, 43.52352233339621], [-5.767409207807111, 43.523330772276104], [-5.767294149095904, 43.523331222768654], [-5.76660803266263, 43.52278464844933], [-5.7663465281588735, 43.522648271802126], [-5.767148970698049, 43.52244029709945], [-5.76765188589333, 43.52211163036417], [-5.766668755800619, 43.52148518504859], [-5.765984384406349, 43.520989710101375], [-5.7650541708773435, 43.520199182419255], [-5.765701414270431, 43.5202345672113], [-5.767313714437612, 43.52139726512895], [-5.767522586401017, 43.52124327983382], [-5.767606222279255, 43.52102948205693], [-5.767735789883709, 43.520832403365375], [-5.768160943262491, 43.52054874591433], [-5.768579097250565, 43.520450192739204], [-5.768668607975533, 43.520364739284226], [-5.768746377342576, 43.520128303433495], [-5.767997013491045, 43.5195997511957], [-5.767486146061797, 43.51977843019552], [-5.767780933069912, 43.519533676676005], [-5.7680454376810655, 43.51915171918314], [-5.76828687471135, 43.51898496853918], [-5.769416433974483, 43.51859410474823], [-5.769574122262136, 43.5187792747392], [-5.769437326010952, 43.51906675247947], [-5.770043929488811, 43.51859032728998], [-5.769907354971859, 43.51858814625118], [-5.769703823946123, 43.51839076257], [-5.76995334537284, 43.5180034915273], [-5.770256561490476, 43.51783244773646], [-5.770835115700369, 43.517754491539705]], [[-5.76867841880026, 43.520754997017576], [-5.7686125398571075, 43.52047801413479], [-5.768169259410523, 43.52057906700579], [-5.76782327873978, 43.520797510377676], [-5.768682793738315, 43.52134536338356], [-5.76867841880026, 43.520754997017576]]]}}]}