{"type": "FeatureCollection", "features": [{"type": "Feature", "properties": {"status": "ok", "version": 6, "n_rows": 2, "n_parcels": 2, "n_matched": 2, "foral": 0, "public_domain": 0, "declared_m2": {"expropriation": 0, "easement": 295, "temporary": 804}, "parcels_m2": 4526, "catastro_date": "2026-08-21", "identifier": "BOE-B-2026-30628"}, "geometry": {"type": "Polygon", "coordinates": [[[-3.749994816061527, 40.66578244448014], [-3.750965878766442, 40.66549179152089], [-3.751053320596446, 40.66554572506354], [-3.7511554766571336, 40.665709558363865], [-3.750865687303707, 40.665926991763065], [-3.750915737335084, 40.66602057102265], [-3.7501816485969157, 40.666248217682615], [-3.7500120911858694, 40.66593118390232], [-3.750046917459647, 40.66592085627971], [-3.749994816061527, 40.66578244448014]]]}}]}