{"type": "FeatureCollection", "features": [{"type": "Feature", "properties": {"status": "ok", "version": 6, "n_rows": 4, "n_parcels": 4, "n_matched": 4, "foral": 0, "public_domain": 0, "declared_m2": {"expropriation": 0, "easement": 3938, "temporary": 6069}, "parcels_m2": 913197, "catastro_date": "2026-08-21", "identifier": "BOE-B-2026-30746"}, "geometry": {"type": "Polygon", "coordinates": [[[-5.6384285755285495, 37.496569204577725], [-5.637159489622424, 37.499617963604535], [-5.636886589668269, 37.500010904981615], [-5.635222907155583, 37.50139987613472], [-5.634682225490341, 37.501900967836484], [-5.632588131068644, 37.50554317000314], [-5.631355930898214, 37.50782907482991], [-5.629813896206902, 37.51149065004926], [-5.629559390889541, 37.512513213045786], [-5.628759183219666, 37.51630342041259], [-5.628692247594659, 37.516549559935086], [-5.62823224286355, 37.51761328180316], [-5.627992523059835, 37.518432675082664], [-5.629313305215688, 37.51842553076222], [-5.6296125674348145, 37.5185682689093], [-5.629956618477945, 37.51880084083066], [-5.6305677490874215, 37.51938700487816], [-5.630845946621466, 37.519564361563866], [-5.6317910699569405, 37.5203409588453], [-5.631892881464134, 37.52051449630909], [-5.632184272578492, 37.521531025978454], [-5.632359085536897, 37.521959838464426], [-5.632376292916622, 37.522597615771666], [-5.632250317185053, 37.52324985042221], [-5.632268289194619, 37.5234490421825], [-5.632148359803286, 37.52375809167229], [-5.631953299742072, 37.5240864783727], [-5.631835355660497, 37.52451965248888], [-5.63168283740299, 37.52482239952623], [-5.631689966005094, 37.52594312450365], [-5.63163459985949, 37.52644780769498], [-5.631495313803434, 37.52692110637837], [-5.6314571114671805, 37.527176698946775], [-5.631489556477645, 37.527633286978855], [-5.631605283040476, 37.52797078289027], [-5.631640280779106, 37.528329362685255], [-5.631743679584487, 37.528757064569774], [-5.631874783078598, 37.52911683970984], [-5.631934878223272, 37.52942953356064], [-5.632109357140089, 37.52994819429106], [-5.632346839747397, 37.530514289821824], [-5.632612721253216, 37.53099657839972], [-5.633795132705189, 37.53289144806061], [-5.634260951544334, 37.53401004773488], [-5.634522344894978, 37.534917302200945], [-5.634549007169116, 37.53534392047327], [-5.634478597312112, 37.53579351702779], [-5.634478470597878, 37.536130802172394], [-5.634507423863402, 37.536288030905055], [-5.634572206249294, 37.536363539745636], [-5.634527003641991, 37.53637491169642], [-5.634464807087507, 37.536302138556], [-5.634433136072007, 37.53613199444697], [-5.634433268289804, 37.53579164539007], [-5.63450664760985, 37.53523015435948], [-5.6344599515627065, 37.53480659652915], [-5.634168824252276, 37.533883965766954], [-5.633754025540079, 37.53290660307845], [-5.632572214988005, 37.53101271081796], [-5.632305730369789, 37.53052935426112], [-5.632063707923291, 37.529956421310665], [-5.631888550938645, 37.52943777563011], [-5.631854030914412, 37.52923137913929], [-5.6315712616159574, 37.52924083862547], [-5.630578242003705, 37.52912383579849], [-5.62988919434417, 37.52897617621897], [-5.629559971623674, 37.528867714283734], [-5.629118924596907, 37.52858089323432], [-5.62889480026794, 37.5282976235339], [-5.628562335134619, 37.52798053707504], [-5.62846626656006, 37.527860935982915], [-5.628360935190043, 37.52763863818167], [-5.6283099928227935, 37.527328347074516], [-5.62823142759712, 37.52723674110698], [-5.627992270210135, 37.52705698206987], [-5.627332327604513, 37.526786738019645], [-5.62621252848722, 37.52664440517041], [-5.62604780370202, 37.52668348441381], [-5.625580930799188, 37.52700510836981], [-5.625194618156938, 37.527187973407194], [-5.625006977694233, 37.52722215424713], [-5.624730423434262, 37.52715359800277], [-5.624581154927576, 37.52784689347505], [-5.624381186928671, 37.52924417789473], [-5.622520860612679, 37.53967002870546], [-5.622479913563912, 37.54002588352829], [-5.622485957269413, 37.540931897247184], [-5.62253014541112, 37.54147293151442], [-5.622511742793449, 37.54207518628278], [-5.622574800011619, 37.54465391574094], [-5.6225466490828815, 37.545536723702604], [-5.622566793248459, 37.54738777356034], [-5.622686855828281, 37.551043673782885], [-5.6226705571686875, 37.55406038385918], [-5.622440855725825, 37.55394266758498], [-5.622422709516453, 37.5534958571735], [-5.622373328258427, 37.55136620334473], [-5.6224000130095515, 37.550486767263045], [-5.622302775537659, 37.545304339347915], [-5.6222448729630985, 37.544720807094905], [-5.62226609651277, 37.54391808640011], [-5.6222243920649895, 37.54176113544287], [-5.622182265326238, 37.541482460005255], [-5.622216329514989, 37.54120785864125], [-5.622208682432908, 37.54000397177185], [-5.622523816613972, 37.538122675635115], [-5.623779445980592, 37.53120105347938], [-5.624335387994695, 37.527846501473434], [-5.624539096494379, 37.52688544987937], [-5.624515305029747, 37.526820017219684], [-5.624532914596075, 37.52663796051702], [-5.624718663628194, 37.526178594607], [-5.625191258328504, 37.52563282920256], [-5.625257071880389, 37.52551873020471], [-5.62459377335556, 37.52502300001902], [-5.6240987352466885, 37.524798726081585], [-5.62352571306577, 37.525177755730724], [-5.623047493379514, 37.52556648484334], [-5.622764460179891, 37.525706771053976], [-5.6226915817149985, 37.52565468401456], [-5.62234555619086, 37.524910124821815], [-5.622273333904022, 37.5246633861031], [-5.622607208820675, 37.524194599965035], [-5.6226310353446465, 37.524115767927725], [-5.621983094711382, 37.523369265178864], [-5.621557685565289, 37.52237325262899], [-5.621548162557639, 37.522181891039125], [-5.621823078923136, 37.521570692849984], [-5.6219574610297025, 37.52136306829728], [-5.621823971158699, 37.52117905176746], [-5.622462402517985, 37.52088508000689], [-5.62339336604217, 37.52034806424189], [-5.624777573804935, 37.519321221246855], [-5.625355432150136, 37.519023625049535], [-5.625861005386991, 37.518629232258775], [-5.6266494940313425, 37.51814086745084], [-5.627767039368611, 37.51838074480626], [-5.628096074776371, 37.51733706218169], [-5.628527881296382, 37.516256216764816], [-5.628977272530488, 37.51410671269403], [-5.629463106356957, 37.51198072955135], [-5.6296657734653595, 37.511273266408224], [-5.63122374513696, 37.50759836163686], [-5.631425973771647, 37.50716592187598], [-5.632161904040937, 37.505835711488764], [-5.634520127585973, 37.501758964960295], [-5.6347301761383655, 37.50153071420679], [-5.636649030924226, 37.499954930659804], [-5.636950098024396, 37.49949459232357], [-5.639806167511013, 37.49175400031254], [-5.639847939316937, 37.49165241590644], [-5.639885491147257, 37.491662209407906], [-5.641041443521707, 37.488567202016824], [-5.641235951897014, 37.488101487231994], [-5.6415721489188435, 37.48749428038421], [-5.641675730948098, 37.487638754884834], [-5.639978893055199, 37.491796910509095], [-5.638488011032341, 37.495873303733525], [-5.6385017600948135, 37.496170991546535], [-5.6384285755285495, 37.496569204577725]]]}}]}