{"type": "FeatureCollection", "features": [{"type": "Feature", "properties": {"status": "ok", "version": 6, "n_rows": 94, "n_parcels": 94, "n_matched": 94, "foral": 0, "public_domain": 0, "declared_m2": {"expropriation": 0, "easement": 0, "temporary": 0}, "parcels_m2": 8072044, "catastro_date": "2026-08-21", "identifier": "BOE-B-2026-29804"}, "geometry": {"type": "MultiPolygon", "coordinates": [[[[-2.813030112344049, 40.033718873386206], [-2.809796692908788, 40.03383560749226], [-2.80567375172376, 40.03452982356863], [-2.8026948909114155, 40.03788244843658], [-2.804005341032667, 40.03964949445236], [-2.8065284510710895, 40.04470916980592], [-2.809988597486966, 40.05336843684152], [-2.810473078100061, 40.05390620911632], [-2.811395444771068, 40.053986724892766], [-2.8113659855796986, 40.054931430569326], [-2.811384378658169, 40.057139640606636], [-2.8113596717809206, 40.05750836761006], [-2.811309011392757, 40.05759649012429], [-2.8111906953437393, 40.05755800612897], [-2.811284675402164, 40.05728011975023], [-2.811291701053155, 40.05656512545655], [-2.8112562631771123, 40.05632063439691], [-2.80957257252469, 40.05494030407809], [-2.809243947825599, 40.05472515673802], [-2.808708937994674, 40.054481282808865], [-2.8079475878631466, 40.05425992061135], [-2.8067766805485306, 40.053758570106474], [-2.805511153380597, 40.05338886101449], [-2.8047786387122775, 40.053136438359296], [-2.804571075715395, 40.05311095585646], [-2.8040298174706755, 40.053134998542205], [-2.803804048805368, 40.05308028790289], [-2.803761388351507, 40.0531157139176], [-2.803587816104781, 40.05301198832547], [-2.8027735843891493, 40.052804017005656], [-2.8019640751257366, 40.052505405827894], [-2.8013120098199598, 40.052374193743184], [-2.8003698937434742, 40.05228319799551], [-2.8001847121802177, 40.05222296420137], [-2.799766074837581, 40.05201286027346], [-2.7994505564520424, 40.051941408136734], [-2.7990611224163455, 40.0519286603967], [-2.7987407523828085, 40.05203027448512], [-2.7986136996483606, 40.05201816090152], [-2.7979649590064106, 40.05175737609166], [-2.797204350160769, 40.05158477267149], [-2.7969010601749043, 40.051463425688596], [-2.796674739381568, 40.05132211684017], [-2.796066730511905, 40.051285279719664], [-2.7958466289595263, 40.051221463730485], [-2.7956991832918656, 40.05128634406316], [-2.7955303315845437, 40.051295596504715], [-2.7953749123215, 40.0512431558897], [-2.795188093822597, 40.051105522281944], [-2.794202621678403, 40.050937727077255], [-2.7938284855889384, 40.050830477029244], [-2.793679239667148, 40.05086994419972], [-2.793330498266467, 40.05108690724591], [-2.793299008550558, 40.05111000603557], [-2.793322424806507, 40.051159240840335], [-2.7932824637692204, 40.05115349343252], [-2.7932823902808814, 40.05117781952634], [-2.793134690029511, 40.05113223706], [-2.793279266659263, 40.05093112800842], [-2.7934213855337298, 40.05088561213912], [-2.793717130058957, 40.050706935849384], [-2.7926198969255585, 40.05051460192124], [-2.7915923797252207, 40.05041257476201], [-2.791012051247538, 40.05026007617617], [-2.7903277695722735, 40.050134956338425], [-2.7866915681311037, 40.049750636434226], [-2.7862413556042656, 40.049646104905925], [-2.785589087929911, 40.04941074173333], [-2.785142671306554, 40.049293329064604], [-2.784633373514033, 40.04922733338164], [-2.783917233680203, 40.04921113401078], [-2.7826501854215016, 40.048869012266216], [-2.7838146617172557, 40.04954042794437], [-2.7843237033581056, 40.050320536670945], [-2.784753622381622, 40.05080002219403], [-2.785133164724095, 40.051122463491986], [-2.7855568845275656, 40.05134074293833], [-2.7864733661312844, 40.05163353482598], [-2.7870503662992765, 40.05187650749385], [-2.788482903667925, 40.05282839464045], [-2.7905735636530524, 40.05401309049624], [-2.7918799124443825, 40.054852351650275], [-2.7923867112074756, 40.055217072851455], [-2.7936173989426307, 40.05623699895063], [-2.795478742812399, 40.05786654665582], [-2.796144388385118, 40.05841199138328], [-2.7981447332188947, 40.059904337799544], [-2.7991683964600975, 40.06060814352028], [-2.7995744436771792, 40.06085048677854], [-2.800391370474219, 40.06120705491852], [-2.8012314669606386, 40.06142337604337], [-2.8019608012584443, 40.06150436083719], [-2.80404921487838, 40.06160259471919], [-2.805500987300211, 40.061719910156796], [-2.805499898789288, 40.06181405966923], [-2.801434144652248, 40.061605088797826], [-2.8010323508226076, 40.06154944032097], [-2.800201470150191, 40.06130889756247], [-2.7996347528848826, 40.061075022677464], [-2.7991550567761854, 40.060798495328626], [-2.798107244883171, 40.060091849921136], [-2.7962576397421075, 40.0587294221905], [-2.7952429187849264, 40.05791703494935], [-2.794998579612354, 40.057757041041484], [-2.7939962756393544, 40.056843305565884], [-2.792660656992259, 40.05569831682874], [-2.791792770109222, 40.05501608165504], [-2.7910382918058723, 40.054480177457506], [-2.7902203537511188, 40.05399839637285], [-2.7896379570029337, 40.05374705073151], [-2.7892045292255125, 40.0535121907532], [-2.788883410274996, 40.05328131791837], [-2.788841070924337, 40.05321015415738], [-2.7878471717981483, 40.052617035790284], [-2.787277013917777, 40.05220857129373], [-2.7867020859414584, 40.05190145443761], [-2.786267554052526, 40.05172676625382], [-2.785791173992259, 40.05207321537228], [-2.785110842627596, 40.05247757274458], [-2.7846397677989696, 40.052813030564245], [-2.7842512593687814, 40.05313629692023], [-2.783875358048343, 40.05351481498213], [-2.783658613500609, 40.05339178834488], [-2.781911654198875, 40.05263368432125], [-2.782107825341691, 40.05350709419085], [-2.782319571591172, 40.05424043192095], [-2.782524360831474, 40.054399297238874], [-2.783251416010661, 40.05476194438061], [-2.7868603090695636, 40.05612179816587], [-2.7878147533846755, 40.056407445826785], [-2.789028480559584, 40.056642378412754], [-2.7895172662796823, 40.05687806029473], [-2.790455222634322, 40.05742241039666], [-2.7916725372262374, 40.05806681272297], [-2.79350728229764, 40.0596915641115], [-2.7970115519983225, 40.06290942554709], [-2.796924719107778, 40.062930085773125], [-2.7969333386108053, 40.06291000926139], [-2.792387000324184, 40.05874201636582], [-2.7917912927288846, 40.058225326658516], [-2.7915770406330718, 40.058084750472595], [-2.789146944273468, 40.05674251167939], [-2.7885006877521383, 40.0565856460841], [-2.7875315783080095, 40.05641449503245], [-2.783144456483897, 40.05477210539966], [-2.7823238528610403, 40.054368828288254], [-2.7822261702388458, 40.05426404202918], [-2.782156738512187, 40.05401542378156], [-2.781854085370749, 40.05263474720835], [-2.7816869443113923, 40.052034565910375], [-2.7815927365748494, 40.051944381356826], [-2.7797270188450875, 40.050912125091806], [-2.779568280089861, 40.05087515367417], [-2.779440925622911, 40.05088563287101], [-2.77821808313084, 40.051224136018675], [-2.777100853206674, 40.05124298471833], [-2.775940792457171, 40.053344699042036], [-2.775848475228627, 40.05357390763454], [-2.7780942556896835, 40.053864914996], [-2.777688706212533, 40.05451410230073], [-2.7765690879475096, 40.05660489844245], [-2.7785845845383736, 40.05678688499553], [-2.780032042055533, 40.057287243472494], [-2.7836844868444297, 40.05846906644469], [-2.784081962344415, 40.05865675915327], [-2.7850978716224786, 40.05942536891802], [-2.7850586043676318, 40.059458722060256], [-2.784252323462154, 40.05884249614645], [-2.7838303415313006, 40.05858223021788], [-2.779796920767424, 40.05726220486067], [-2.7796996630717157, 40.05742590645114], [-2.779702283619589, 40.057558800029035], [-2.7794065498778684, 40.05764086080875], [-2.779248907414175, 40.05787526327352], [-2.779063323581409, 40.057940680344636], [-2.7789990512142775, 40.05801921245262], [-2.778866916776307, 40.058053377390024], [-2.778451351413016, 40.05831413509205], [-2.7786300287567385, 40.058499355670705], [-2.7799772468544766, 40.05926278655444], [-2.7797284611051367, 40.059799652249694], [-2.7796886523736215, 40.05985462581334], [-2.7779186021026074, 40.06100367678551], [-2.7824422911371625, 40.06336720014657], [-2.783692340819903, 40.06390372094102], [-2.783663370053052, 40.064091428828576], [-2.7837771482699503, 40.06426390653526], [-2.7846654324970705, 40.06503435337846], [-2.7863739597033494, 40.06491948488604], [-2.7889293305385974, 40.064810281562735], [-2.789620461071496, 40.06462557409837], [-2.7900850659105383, 40.06443009564853], [-2.790260211987062, 40.064405726301395], [-2.7915385141904525, 40.06401124657417], [-2.7930378964452522, 40.06382959191063], [-2.7935411606289535, 40.063798505423904], [-2.7936752096212967, 40.063675131232166], [-2.7937659577308183, 40.063639974808616], [-2.7938562637192375, 40.06363904174909], [-2.7939650985406868, 40.063706820663484], [-2.7937566069209687, 40.06370780115502], [-2.7935964495100025, 40.06385464422905], [-2.7930553463878045, 40.06387557251647], [-2.7915557275512093, 40.06405758736573], [-2.790023084129673, 40.06452854935833], [-2.7896756963929055, 40.06466207353983], [-2.7888767458589703, 40.064864874575164], [-2.7858178789868533, 40.06500170773389], [-2.78381028876235, 40.06512934468719], [-2.7817786925419754, 40.06506058048397], [-2.7798106511431624, 40.065248497430545], [-2.779136995074461, 40.06517000661335], [-2.7806836634366117, 40.06875275025619], [-2.782349095379742, 40.069788936873245], [-2.7828673933046084, 40.07002073300564], [-2.787637145307013, 40.0719109626013], [-2.7879843073395887, 40.0717121196306], [-2.7890243158454675, 40.07098621622311], [-2.7892942175860482, 40.070853454231724], [-2.7895946782213845, 40.07088877768057], [-2.790536345308828, 40.07112869556078], [-2.7907809105230896, 40.071150310238835], [-2.794543314060414, 40.07055149402829], [-2.7959120611503123, 40.07076509580727], [-2.7962878543890666, 40.07078873189995], [-2.802658953145977, 40.06883346798702], [-2.8038804465905276, 40.06850163872122], [-2.8036768319245904, 40.06867779362093], [-2.803367215694047, 40.06868708909242], [-2.8029792304518817, 40.068787342922704], [-2.799459013218314, 40.0698740966406], [-2.80302823852278, 40.07053547634145], [-2.800824820697662, 40.07623059239868], [-2.7972951001157957, 40.076900659552905], [-2.796143927463459, 40.07699324562597], [-2.793485461773757, 40.077111708252374], [-2.793287941173915, 40.0771556835624], [-2.791457890041694, 40.077947061189285], [-2.7919383170486682, 40.080010679855086], [-2.7890801681191233, 40.08022175228409], [-2.7888717616066754, 40.08033075000767], [-2.788499190120364, 40.08046467481649], [-2.7881866404395463, 40.08064385111816], [-2.787942173133086, 40.082237839821246], [-2.7884215051533396, 40.08225277134991], [-2.788758084373842, 40.082306538108504], [-2.7926692822495625, 40.08324086527225], [-2.793072374132545, 40.083217525704136], [-2.7935850920837435, 40.08313275853182], [-2.797286960893082, 40.0824358074891], [-2.798073825028696, 40.082254285547], [-2.7980320975435955, 40.082324037707494], [-2.7969753577287286, 40.082579420934835], [-2.7930289519290685, 40.083302769639474], [-2.7926931314006462, 40.08330550723675], [-2.7913541363439482, 40.08298785969096], [-2.791098304591497, 40.08295442325983], [-2.790839114209323, 40.08351841093681], [-2.7903686093464213, 40.08425545174593], [-2.7903662892894197, 40.084474562501114], [-2.7898761477090157, 40.08499452293906], [-2.7899540129824314, 40.085077282732755], [-2.788778606326383, 40.08597620149056], [-2.7869757657025853, 40.08701460128189], [-2.790549815223777, 40.09078415825744], [-2.7884799930446165, 40.0918600280929], [-2.7846379229940967, 40.08970110631877], [-2.7845634476524372, 40.08977133321493], [-2.7841374352365547, 40.09060933865942], [-2.783140011129941, 40.090414493460564], [-2.7826350819166144, 40.09050211194702], [-2.7819526297899198, 40.090711659664244], [-2.781444568524114, 40.09096864847553], [-2.7812505557487857, 40.09111117530313], [-2.7806917869372367, 40.09166835661639], [-2.7809337024910676, 40.09180657189587], [-2.78086095544079, 40.091882836114024], [-2.7807459650793085, 40.09182027175288], [-2.780379784340415, 40.09154731099968], [-2.777993380036502, 40.0891723364461], [-2.7756359865470857, 40.08688845254363], [-2.7753190558630854, 40.08663396689154], [-2.7730081498746535, 40.08357425285846], [-2.7745469524778996, 40.086382525845444], [-2.7740210992892, 40.08655854095593], [-2.772383661525643, 40.08348467246073], [-2.772031511830924, 40.08293358431926], [-2.7720044293952166, 40.082813687207995], [-2.7706213815938594, 40.082615748633145], [-2.7704159876769987, 40.082562984358276], [-2.769803555771954, 40.08261195280339], [-2.7695174709592725, 40.0810177593225], [-2.769432429770571, 40.080845685703274], [-2.7688139253056465, 40.080027641322744], [-2.7691869317182154, 40.079917148179206], [-2.768875096256389, 40.07938609497514], [-2.7686112879325675, 40.079059281916564], [-2.7684998160708907, 40.07871774328591], [-2.768281664154244, 40.078320547949005], [-2.7680578598280867, 40.078064235857326], [-2.7680233332703055, 40.07791050547663], [-2.7678113935712823, 40.077691253597514], [-2.767561848873592, 40.077624093333355], [-2.7674567724768107, 40.07738131738524], [-2.7670910159705824, 40.077127050509745], [-2.766665816635674, 40.07690050263902], [-2.7663214266938616, 40.07677718686048], [-2.7661388982804525, 40.0766584868749], [-2.7660592723576345, 40.076590617532084], [-2.7659894513388608, 40.07642288132554], [-2.7659327083087044, 40.076462861077175], [-2.7636288207498554, 40.07683568838042], [-2.763684743576665, 40.07483988996988], [-2.7657070220512274, 40.0747278628119], [-2.7658108989247516, 40.07531937767839], [-2.767163906574648, 40.07525552518509], [-2.767147895170832, 40.07462112466514], [-2.7673309694927237, 40.07458608447692], [-2.7674073134657267, 40.07365833591183], [-2.7678675680303786, 40.071644425035586], [-2.767939718145099, 40.07105083174602], [-2.767925723290015, 40.07078600923127], [-2.767871750911187, 40.07055390184334], [-2.767681293025057, 40.070176645142254], [-2.7676148869722144, 40.069929399266485], [-2.767681281328619, 40.07017663610911], [-2.7674699036327555, 40.070158282773185], [-2.767361553357479, 40.06991453357583], [-2.7675689184911514, 40.06905317575891], [-2.7664938881289642, 40.06798498624575], [-2.7648923770395557, 40.06631027050079], [-2.7644624873032795, 40.065913743680156], [-2.764115244962572, 40.065499891235895], [-2.762327047055432, 40.06365853037867], [-2.7614719036941042, 40.06284166621724], [-2.7609696231263814, 40.062288877499725], [-2.7555217009976762, 40.0567143826991], [-2.754428349562985, 40.05570468949225], [-2.7534839493304584, 40.0549761357246], [-2.7530321800630877, 40.05456803731432], [-2.752606041752278, 40.05384211732556], [-2.7523577022085055, 40.053296499659304], [-2.7519519669458266, 40.05257386422001], [-2.7516092742465474, 40.05221778723151], [-2.7509438918834235, 40.051649738382714], [-2.7504869264888954, 40.051190251177516], [-2.7504216595273836, 40.05105208187584], [-2.7489733489911794, 40.04889626309252], [-2.7485684150410634, 40.047876566811894], [-2.748169257784888, 40.04672389811235], [-2.7481169380072448, 40.046733334684724], [-2.747962795937178, 40.04631494870995], [-2.747857890207169, 40.046119840320685], [-2.7477332321972168, 40.045940545928], [-2.7475344390202316, 40.04574216948246], [-2.747320347138052, 40.04556006691562], [-2.7471421508221807, 40.04559400519782], [-2.7469548305703335, 40.045559089045966], [-2.7459901885001723, 40.04596007304843], [-2.745870601402048, 40.045805654584456], [-2.745916436427621, 40.04574295738227], [-2.746028870630233, 40.04570833627905], [-2.7460003004205285, 40.045604481720815], [-2.7460591547422477, 40.04547667274855], [-2.7462552714993955, 40.04535213762707], [-2.7462668453478134, 40.04526584988478], [-2.746226449658248, 40.04518962930922], [-2.7460627082788336, 40.04508764096098], [-2.745606335310928, 40.04489932785552], [-2.745387898653361, 40.04475280054429], [-2.7450201336330076, 40.04463279326381], [-2.744704063576651, 40.04438802403462], [-2.7443581484722, 40.0442566204462], [-2.7441142924221076, 40.04420040211231], [-2.741907857665957, 40.044074327708316], [-2.741178743486662, 40.04391016603859], [-2.740434683696393, 40.043700377123756], [-2.739567690439927, 40.043605541487416], [-2.7394776748528726, 40.043632728675504], [-2.739419425654485, 40.043691160863865], [-2.7394041039875616, 40.04386672581771], [-2.7394778067374617, 40.04439882529834], [-2.739563470034135, 40.04462227866801], [-2.739566290244555, 40.04474373599245], [-2.7396535161741595, 40.04483393908518], [-2.7396788653518063, 40.04491904776565], [-2.739677709276613, 40.045007250293885], [-2.7395903318182806, 40.04526491203134], [-2.73967693468974, 40.04545746407149], [-2.7397255833756406, 40.04576606602307], [-2.7395901586456683, 40.046327157075886], [-2.7393882336486124, 40.04627985256376], [-2.7395387260869786, 40.04579519800185], [-2.7395351288403136, 40.0456622966134], [-2.7394845108976895, 40.045501719781164], [-2.7394023741396563, 40.045306294534726], [-2.739217674607067, 40.04523091814588], [-2.739014357488394, 40.045088467239665], [-2.738959661903195, 40.04489094114107], [-2.7386936560146515, 40.044526619282045], [-2.738548151209749, 40.04425717079298], [-2.738385724872883, 40.04387605349828], [-2.738289845949511, 40.04350499696997], [-2.738229878547965, 40.04343008084303], [-2.735915034352968, 40.04269945560141], [-2.7351110924567035, 40.04237110826896], [-2.7346275793521135, 40.04233207099131], [-2.734493870958955, 40.04235104548965], [-2.7342935512504285, 40.04246789285664], [-2.73419386364926, 40.04241973250734], [-2.7352092266208023, 40.04103311869152], [-2.735412784135544, 40.04113854694697], [-2.735807027024911, 40.04173895338776], [-2.7359711510149864, 40.04194844310849], [-2.7361181119129565, 40.042049146176716], [-2.7363492044027207, 40.042158960143055], [-2.736786375592953, 40.04217752300721], [-2.736813563098259, 40.04224065280729], [-2.736997102269666, 40.04237116991191], [-2.7370644057034172, 40.04245826645796], [-2.7375622901600525, 40.042601928969425], [-2.738050965742402, 40.04270196147745], [-2.7382705908088423, 40.04268515911504], [-2.7387425783131802, 40.04279668345127], [-2.73868767019077, 40.04256338808017], [-2.7385826052048583, 40.042357008686906], [-2.738360031446867, 40.04222550498368], [-2.738192817638331, 40.042055564342874], [-2.737835500349398, 40.04135722380826], [-2.738033629426904, 40.041289648514], [-2.7381075865117066, 40.041476046648775], [-2.738483538553835, 40.04199216173814], [-2.7390372972824872, 40.042331004470384], [-2.7392151413192942, 40.04251141908818], [-2.73929124931949, 40.042688270970075], [-2.739176730612699, 40.042901183219314], [-2.739907758722447, 40.04302031319899], [-2.7400091151216213, 40.04303162262321], [-2.740192485229288, 40.04299266145111], [-2.740561703863385, 40.04300294894142], [-2.7406894382150897, 40.04304458948734], [-2.7407707841398303, 40.04301576020857], [-2.740880611376409, 40.04304997250973], [-2.7424546701186556, 40.04315276898436], [-2.744190185318188, 40.04299588012314], [-2.7443900632846647, 40.04302461174827], [-2.7446859368231853, 40.04311932554686], [-2.744790864662991, 40.04308477918292], [-2.744856730651059, 40.042994286451325], [-2.744810960953105, 40.04294332803966], [-2.745066706250844, 40.042809097925705], [-2.745112450689752, 40.04285411742475], [-2.7453059609132935, 40.04282994640309], [-2.7454812949475196, 40.042870515025285], [-2.7455758735578524, 40.04293937680693], [-2.7458417632571277, 40.04296437667631], [-2.7459097479631116, 40.042902719096126], [-2.7459715061475394, 40.043034216232975], [-2.746429295838555, 40.043248388947376], [-2.748013406749445, 40.04368106785535], [-2.7490319717933085, 40.04377977259019], [-2.74935561825182, 40.04375173213472], [-2.7493455914786487, 40.043672785299925], [-2.749620665681571, 40.04365572097471], [-2.7513005155497208, 40.04407396603373], [-2.7519441621586105, 40.04418319209464], [-2.752156521120035, 40.04429572743025], [-2.7522589148456924, 40.044280629881634], [-2.7533749824689884, 40.04439193828401], [-2.7540334946354057, 40.044411267381356], [-2.754306520254542, 40.044475545351204], [-2.754771872297919, 40.04451941742981], [-2.7549807765042464, 40.04451796732988], [-2.7552093900146306, 40.044446733169686], [-2.7553519690442148, 40.04443811467869], [-2.7558593947768397, 40.04451801999748], [-2.7560130079265908, 40.04457105042158], [-2.756099677316424, 40.044428699130364], [-2.756059013816237, 40.04422733639291], [-2.7559953251710607, 40.04413836645395], [-2.7553333833468567, 40.043636120263216], [-2.7554501281820363, 40.04350824849061], [-2.7572030152809908, 40.04489240408002], [-2.7579901183852593, 40.045346698997996], [-2.7594617898568643, 40.04568528537135], [-2.7594425202374557, 40.04579786683884], [-2.7618091569790173, 40.04633450963707], [-2.7617961159113666, 40.04637637801211], [-2.7611304492858566, 40.04621760785043], [-2.760532398805082, 40.046134024571806], [-2.759669082757605, 40.04607691745463], [-2.759241210132137, 40.046105490956876], [-2.758752881113311, 40.046057714812186], [-2.7584229766385873, 40.04596359668647], [-2.7582298287111544, 40.04608311316152], [-2.7579905510576808, 40.046086307622346], [-2.757833782448687, 40.04602912876478], [-2.757720760400887, 40.045933299392495], [-2.7576640885064387, 40.04581497338666], [-2.7576433450380176, 40.04564770964221], [-2.7574789692593384, 40.04552113956231], [-2.75558420405636, 40.04532218789891], [-2.7545910048199738, 40.04510394543138], [-2.7541830352968453, 40.04507551090011], [-2.753778665598965, 40.04512186324271], [-2.7534619640492, 40.045043075562816], [-2.7527150221400882, 40.04503310482399], [-2.7513909257358993, 40.04490521651204], [-2.750059858874794, 40.045050292488554], [-2.7492704735313147, 40.04497831122172], [-2.7487211190354173, 40.04504865832502], [-2.7480710785342644, 40.04521068306459], [-2.7479461912848584, 40.045284921820716], [-2.7478848310722994, 40.045425700299006], [-2.7479239526957717, 40.045561922236764], [-2.748104642377049, 40.045678540537224], [-2.748152871214481, 40.045761174378484], [-2.7481411149810104, 40.04589764602684], [-2.7480472460838503, 40.04598447580676], [-2.7483800829365497, 40.04668011843473], [-2.748321190386266, 40.04669170315734], [-2.748297491359108, 40.046696697118094], [-2.7489825881943046, 40.04858274513618], [-2.7491049646642467, 40.04884294038166], [-2.7494945829470128, 40.049470498917046], [-2.7506854294227026, 40.05118536275348], [-2.7510092573016713, 40.051567980628114], [-2.7516342603094848, 40.05208445073265], [-2.7520415711779047, 40.05248446169398], [-2.7525199395728017, 40.053329943458834], [-2.752930498068245, 40.05415454542462], [-2.753166239315123, 40.05452201311756], [-2.7534486688678292, 40.05478569779621], [-2.754030493908988, 40.0551940829094], [-2.7553683269538967, 40.05632465970637], [-2.756703087625093, 40.05773811897014], [-2.760227234313609, 40.06129393472596], [-2.760482901321804, 40.06161484825647], [-2.761567481061385, 40.06268177154821], [-2.7618830191457895, 40.06304189636901], [-2.763836107539166, 40.06503919780628], [-2.7647266437637446, 40.0658782799646], [-2.764936111680436, 40.06614115733276], [-2.767609196345977, 40.068889008027796], [-2.7679059842436557, 40.06792745888818], [-2.7686639396008195, 40.066281553856825], [-2.7694098992523783, 40.064774278612184], [-2.7699109441256367, 40.06383781652513], [-2.772262063279193, 40.060055056925115], [-2.7726674223088863, 40.059275162718436], [-2.772861978371347, 40.05859396059464], [-2.7729398793873727, 40.05699038660017], [-2.7730496145751125, 40.05572086419447], [-2.7731455983191347, 40.05530894830391], [-2.7736688778601604, 40.05420673327438], [-2.7747619482549877, 40.052103745113754], [-2.775022257188454, 40.05109453261624], [-2.775671329362683, 40.04929438917525], [-2.7759806976378467, 40.048260762561085], [-2.776222976360481, 40.04827141135397], [-2.776627567912873, 40.046760010531294], [-2.7767141793815138, 40.04680279343683], [-2.7766794811421014, 40.04683804466008], [-2.7767705001819407, 40.046929488494534], [-2.7773045704367996, 40.04489242755477], [-2.777561726633913, 40.044113580585616], [-2.777810006548326, 40.04346724894739], [-2.778714084623495, 40.04135880684632], [-2.7799847962033724, 40.04000490218372], [-2.7806750628079087, 40.04045444478727], [-2.783141783842367, 40.041917757953996], [-2.7837121250752164, 40.04167871475734], [-2.7815804845328937, 40.03854591211176], [-2.7816361520576462, 40.038475736620406], [-2.784408232614982, 40.04255719897145], [-2.785044817166919, 40.04216717937168], [-2.784533609285228, 40.04179385789911], [-2.7838858903896555, 40.04140748581001], [-2.7835234882162103, 40.04109570343356], [-2.783460961540278, 40.0409254829416], [-2.782933404897216, 40.038619626818345], [-2.7825754492841526, 40.03757995338711], [-2.782498988636857, 40.037443762922365], [-2.782551791905992, 40.03735403498342], [-2.782634869001396, 40.03750879787753], [-2.7828988446112892, 40.03824592849689], [-2.783064040570539, 40.03878700198128], [-2.7832863491569504, 40.03976461333395], [-2.785534619591538, 40.03924244795905], [-2.785574443462272, 40.03917729120997], [-2.7855799807695485, 40.03901864009457], [-2.7855234548817167, 40.03884014280321], [-2.7854419395878316, 40.03870619738122], [-2.785369385936455, 40.038033846904156], [-2.7853513716377885, 40.03750052743861], [-2.7851651208767545, 40.03708825724706], [-2.786629073723179, 40.036356398536675], [-2.7866112341245426, 40.034562437005306], [-2.786237974676356, 40.032523025144286], [-2.7862935340806283, 40.03248438573497], [-2.7866587402705107, 40.03453064811622], [-2.789631685568802, 40.03473563109703], [-2.7942005672848604, 40.036019970364954], [-2.80111110082824, 40.03432873760516], [-2.8011623516747286, 40.03419728335561], [-2.8012427272925264, 40.034207692351444], [-2.80134087067752, 40.03367115040547], [-2.8025048483328865, 40.02950352500675], [-2.810199494216588, 40.02976125953349], [-2.811445935173599, 40.03158848434361], [-2.813599900970829, 40.033578518594005], [-2.813030112344049, 40.033718873386206]], [[-2.776831462705196, 40.048472880291726], [-2.7781504071980625, 40.048743362114614], [-2.7781785908655876, 40.04829473224208], [-2.7764492287342626, 40.04827311883078], [-2.7764027987150333, 40.04849007328766], [-2.776831462705196, 40.048472880291726]], [[-2.809991980438567, 40.05350124552928], [-2.8095151359211363, 40.05354992586724], [-2.8088631481226547, 40.05363192616976], [-2.809443995224754, 40.05379117903272], [-2.8103351221610393, 40.05389192821991], [-2.809991980438567, 40.05350124552928]], [[-2.8099384489347465, 40.053441603539625], [-2.806452303660897, 40.04473273820936], [-2.8039498445884345, 40.039667600227304], [-2.802831512007952, 40.0381449543551], [-2.802537124159786, 40.03783974384133], [-2.8020373820454973, 40.037411379225325], [-2.799524968957422, 40.03889628312816], [-2.7992711314506247, 40.03907504725961], [-2.799159503986476, 40.03908728726258], [-2.7989863017682075, 40.0388340837341], [-2.7979549506339914, 40.03810340707821], [-2.797397293157492, 40.03843831623163], [-2.7936722568783714, 40.03878628068707], [-2.7930216941682047, 40.042306298408974], [-2.792980543938359, 40.042656703254], [-2.793056724854208, 40.043086152772965], [-2.793525240930597, 40.044843434318516], [-2.7936443429373634, 40.04507528646187], [-2.794620216244709, 40.04626269518447], [-2.7969634635428715, 40.04900874817927], [-2.7972261187509746, 40.04919012324941], [-2.7980355613199905, 40.04961021400718], [-2.7988076532521937, 40.05005726788672], [-2.7986337261799825, 40.0496809002202], [-2.7983841860251486, 40.048987528989564], [-2.798306282275967, 40.048490687695626], [-2.7983721709780727, 40.048489631108666], [-2.798448812957997, 40.04897719015555], [-2.7986964943941626, 40.04966497199558], [-2.7989004613961925, 40.050111937781026], [-2.800336643521213, 40.05094349099188], [-2.8004026696669344, 40.050936306883735], [-2.800637635625891, 40.051050049110835], [-2.801008219411755, 40.051012214682835], [-2.8013569587643525, 40.051068132742344], [-2.802234315225824, 40.0514123585961], [-2.80328875061653, 40.05170255450208], [-2.803894890434102, 40.05190332283407], [-2.8043613280420625, 40.052088450081705], [-2.804959545278137, 40.05243858048565], [-2.80553026021133, 40.05256720741641], [-2.806593828840902, 40.05291423531256], [-2.8070154572909094, 40.05298773682002], [-2.807395632021219, 40.05312711897679], [-2.8078733634984645, 40.05322133834343], [-2.80873710382182, 40.05359288631613], [-2.8099384489347465, 40.053441603539625]], [[-2.8005373088925816, 40.051160605822545], [-2.7981574329071064, 40.049747734443635], [-2.7971790921439523, 40.049234819230364], [-2.796838326458877, 40.04898519366354], [-2.7935240430892283, 40.04504425890192], [-2.793396174225371, 40.044687696436824], [-2.7929010257865703, 40.04270872747046], [-2.7930704662706067, 40.04164669329173], [-2.7892527975726717, 40.0418993873422], [-2.789108436213996, 40.04047684901528], [-2.7891405501468722, 40.03941466029239], [-2.7870176716427095, 40.03939114103598], [-2.787053574830021, 40.03971925130662], [-2.7870035122044565, 40.03998431564446], [-2.7862573868469327, 40.04201508588245], [-2.7861232563699527, 40.042136379588726], [-2.784724683381074, 40.042909797298734], [-2.7847638484885078, 40.04298050629987], [-2.78613869966866, 40.04390564777263], [-2.7878859819004385, 40.045144088045426], [-2.7888555592014694, 40.04666823143708], [-2.7899007281834636, 40.04840323621779], [-2.791552382834283, 40.04972794470698], [-2.7924446092918, 40.049824598919265], [-2.7953715135842416, 40.0503038016363], [-2.795802826872816, 40.050265365807384], [-2.796013241269684, 40.05035286038279], [-2.7960791291922655, 40.05043136087842], [-2.796107800524465, 40.05052745489014], [-2.7966167168944116, 40.05064989037457], [-2.79674814977825, 40.0507257125106], [-2.7970004292750636, 40.05065227513216], [-2.797993293789892, 40.050582558870104], [-2.79849130055782, 40.050708480889824], [-2.7989173612239626, 40.05090184427797], [-2.7994979149264636, 40.05106538560626], [-2.800102831210291, 40.05115751902887], [-2.8005373088925816, 40.051160605822545]], [[-2.7866599658503626, 40.03455130201762], [-2.786666818307066, 40.034666782020736], [-2.786662169035077, 40.034588388740254], [-2.7866599658503626, 40.03455130201762]], [[-2.7786722156027923, 40.04856146823105], [-2.7786639587451933, 40.04860606766854], [-2.7787219903156855, 40.0486124132329], [-2.778730248305689, 40.04856781469445], [-2.7786722156027923, 40.04856146823105]], [[-2.7740924032718, 40.07623010498541], [-2.7735437309359927, 40.076309584721336], [-2.7730676786711386, 40.07641721970776], [-2.7725772715472488, 40.076397337705], [-2.7673945206761434, 40.07648094617274], [-2.767370402152274, 40.07691507376249], [-2.767417744908097, 40.077099056184935], [-2.7681587968369707, 40.077737610822886], [-2.768410288074788, 40.0780392169831], [-2.774842858202181, 40.077517782100635], [-2.7740924032718, 40.07623010498541]], [[-2.766219532202239, 40.076461467126954], [-2.7684137965730837, 40.07638378727421], [-2.771328891910777, 40.07636965767812], [-2.773202621779869, 40.07632576551131], [-2.776485282744074, 40.0758447132676], [-2.781191990733997, 40.074535209454304], [-2.7792339168106723, 40.07123513735706], [-2.7772326426000173, 40.07037566606563], [-2.775629199868293, 40.07097595007518], [-2.7741624720141074, 40.07139989318791], [-2.7731714064406296, 40.07157310965037], [-2.772412782532683, 40.07160072308921], [-2.7719165143163322, 40.07173110822952], [-2.771603339793228, 40.07188743983626], [-2.771199925934487, 40.07233848366893], [-2.770676558900241, 40.07274702878359], [-2.7703056215466453, 40.07295306600497], [-2.7696567581065445, 40.07318936285574], [-2.769522340510263, 40.07322972915488], [-2.768905958745761, 40.07325571497565], [-2.768860594936437, 40.07304272582876], [-2.7683252859169416, 40.07306057688051], [-2.7682930355168787, 40.07316250191592], [-2.7683070838997277, 40.07320442500631], [-2.7684012994707485, 40.073261104062524], [-2.7684063898105986, 40.073316343551824], [-2.7682201694403807, 40.07362329116423], [-2.7675599723758944, 40.075217851983666], [-2.7672469694877426, 40.07552111979884], [-2.7667752007477766, 40.07575575139464], [-2.7665841817149244, 40.07589321870901], [-2.76625159017963, 40.07627877740008], [-2.7662097939688683, 40.07643000372393], [-2.766219532202239, 40.076461467126954]], [[-2.7767150054211056, 40.062533191724896], [-2.7761061683387154, 40.06214910475981], [-2.775877148369935, 40.06229714170834], [-2.776142120989198, 40.062519472646905], [-2.7763719748555, 40.06279786557915], [-2.7767150054211056, 40.062533191724896]], [[-2.7882174944064504, 40.07203788569742], [-2.788968604205198, 40.071708601078235], [-2.7891979125573334, 40.07165829405373], [-2.789703164186251, 40.07160848780668], [-2.7904137944082774, 40.07166265791311], [-2.790534672837436, 40.07117698442985], [-2.7894985468578852, 40.07091644296668], [-2.7892592032090624, 40.07091330492768], [-2.788979010349461, 40.07107460878163], [-2.7880227846672283, 40.071746246632564], [-2.7882174944064504, 40.07203788569742]], [[-2.7810167390380887, 40.0723204844059], [-2.781539625850568, 40.0732862279257], [-2.7840434073832485, 40.072459504707396], [-2.783358850872641, 40.07205900772036], [-2.782409075360147, 40.07241599766151], [-2.782152626954595, 40.07192917323643], [-2.7810167390380887, 40.0723204844059]], [[-2.768010386406777, 40.06933485030291], [-2.76800912668632, 40.06926354020133], [-2.7680117778737836, 40.06941364681207], [-2.768010386406777, 40.06933485030291]], [[-2.7730992520814532, 40.06414611395365], [-2.7715632805486026, 40.06515191506592], [-2.771378585617103, 40.06522218670752], [-2.771026951314776, 40.06517617354497], [-2.7698360772083332, 40.06484892893192], [-2.769375486160978, 40.065746999694], [-2.771756191500463, 40.06661825706937], [-2.771964941556383, 40.066472170632586], [-2.772122533135473, 40.06598496653348], [-2.7722242295889323, 40.06587254542157], [-2.772396914623284, 40.06578026520824], [-2.772959987192976, 40.064907340123376], [-2.7730992520814532, 40.06414611395365]], [[-2.7661816304262294, 40.07631119041274], [-2.766174300751762, 40.07632850121359], [-2.766194059753323, 40.07629094373532], [-2.7661816304262294, 40.07631119041274]], [[-2.766270566054263, 40.07616343108167], [-2.766249499735275, 40.07619038154209], [-2.7662920243585627, 40.07613732829898], [-2.766270566054263, 40.07616343108167]], [[-2.7664066061885513, 40.075993692973725], [-2.766388094266631, 40.07601339582928], [-2.7664274522095154, 40.07597284157343], [-2.7664066061885513, 40.075993692973725]], [[-2.7671485217968756, 40.07537550134621], [-2.767145251203774, 40.075401571385875], [-2.7671526750892523, 40.07534318614257], [-2.7671485217968756, 40.07537550134621]], [[-2.7680180097697398, 40.06958159975854], [-2.7681468589062215, 40.07131486969436], [-2.7676231713932666, 40.07332955104662], [-2.7675556781155883, 40.07382819127158], [-2.767514582807574, 40.074793080051855], [-2.767688001500731, 40.0743291004351], [-2.7678755439625897, 40.073679258050625], [-2.768494559367682, 40.072192077435815], [-2.7687298705814443, 40.07135990359097], [-2.768750740206879, 40.071053805362624], [-2.768712867014503, 40.07078370020025], [-2.7686300231697163, 40.070514671062305], [-2.7680180097697398, 40.06958159975854]], [[-2.7742416546384674, 40.05350339979239], [-2.7743894967861564, 40.05322311516601], [-2.774194919127049, 40.05359151366073], [-2.7742416546384674, 40.05350339979239]], [[-2.773892895019847, 40.05416439257762], [-2.773989644854614, 40.0539798060808], [-2.7738150780316895, 40.05431865770795], [-2.773892895019847, 40.05416439257762]], [[-2.7731672885303142, 40.05619311299578], [-2.773126471961253, 40.05665712286184], [-2.7731098383002744, 40.05707667210992], [-2.7730674654385665, 40.058327676156956], [-2.773056027743298, 40.05852379491239], [-2.773007044529741, 40.05886877043023], [-2.7727980447883267, 40.05945074766923], [-2.772081492398546, 40.06073161407634], [-2.772798050606048, 40.05945076119519], [-2.77300705621001, 40.05886878396766], [-2.773056045286046, 40.0585238084613], [-2.7730674829812663, 40.05832768970587], [-2.7731265070757005, 40.05665714095001], [-2.773167329506862, 40.056193131095405], [-2.773256053728311, 40.05567389536233], [-2.7737047889700404, 40.0545447799704], [-2.7732560068897665, 40.05567387725126], [-2.7731672885303142, 40.05619311299578]], [[-2.7696544369734437, 40.06477964381131], [-2.7696546797504995, 40.064779102731386], [-2.7696473578343683, 40.06479598231871], [-2.7696544369734437, 40.06477964381131]], [[-2.7695898422240997, 40.064913939927024], [-2.769621852258871, 40.06484903015863], [-2.7695084086462662, 40.06507498799622], [-2.7695898422240997, 40.064913939927024]], [[-2.769406394646716, 40.06527639511125], [-2.7694364758899317, 40.06521711262339], [-2.769375972953665, 40.0653362274878], [-2.769406394646716, 40.06527639511125]], [[-2.7680269447945394, 40.0681524026702], [-2.7679419619740284, 40.06838360115337], [-2.7678779632549673, 40.06858213646035], [-2.7678714444126635, 40.06860248528291], [-2.767811960309683, 40.068818238085335], [-2.767757269150311, 40.06903832510467], [-2.7677445445518174, 40.06909037555985], [-2.767700779732828, 40.06926985078], [-2.767641310438696, 40.069515425545084], [-2.767600255127798, 40.069760136240774], [-2.767602645479798, 40.06988835203998], [-2.7676413279984833, 40.06951543458999], [-2.767757292558119, 40.06903833866612], [-2.768026974065448, 40.068152416243336], [-2.768419356811866, 40.06725412482537], [-2.7692938700396446, 40.06549788567476], [-2.768419315814715, 40.0672541112289], [-2.7680269447945394, 40.0681524026702]], [[-2.7676142200424683, 40.06989530947134], [-2.7676142317388503, 40.06989531850448], [-2.7676142331878517, 40.06989144130228], [-2.7676142200424683, 40.06989530947134]], [[-2.7661247610484123, 40.0764790158809], [-2.766118690888205, 40.0764813321465], [-2.7661336850350864, 40.07647562799766], [-2.7661247610484123, 40.0764790158809]], [[-2.7662328211805667, 40.07669614179527], [-2.766181578704061, 40.07661951024871], [-2.7661621735378725, 40.076587905678785], [-2.766181514230043, 40.076619501108915], [-2.7662328211805667, 40.07669614179527]]], [[[-2.63757294791768, 40.08514718098151], [-2.637469990895052, 40.08474358736365], [-2.6369545975959827, 40.08388137243675], [-2.6369396685319884, 40.08368878962091], [-2.636970565383008, 40.08354716479468], [-2.637832121789449, 40.0832311905499], [-2.638895398869768, 40.08476074308426], [-2.6376580072871105, 40.08523204758292], [-2.63757294791768, 40.08514718098151]]]]}}]}