{"type": "FeatureCollection", "features": [{"type": "Feature", "properties": {"status": "ok", "version": 6, "n_rows": 64, "n_parcels": 64, "n_matched": 64, "foral": 0, "public_domain": 0, "declared_m2": {"expropriation": 0, "easement": 0, "temporary": 0}, "parcels_m2": 403059, "catastro_date": "2026-08-21", "identifier": "BOE-B-2026-31682"}, "geometry": {"type": "MultiPolygon", "coordinates": [[[[-3.9637034078179165, 43.04537018278148], [-3.9630245339072414, 43.04528133251713], [-3.9638266828294886, 43.044050912758465], [-3.9641019896663345, 43.04421122725511], [-3.9643953208362466, 43.04404784200025], [-3.9644883149909416, 43.044208066444035], [-3.9637034078179165, 43.04537018278148]]], [[[-3.962100611163143, 43.045350589625365], [-3.9596611525861793, 43.048687912088496], [-3.9583326058528927, 43.04817241056154], [-3.9585953209506632, 43.04781443001576], [-3.9585410534441414, 43.0477987657679], [-3.9587670648017372, 43.047457211062564], [-3.9586171008443953, 43.04730384828616], [-3.959885949555122, 43.04557824152467], [-3.960739314405182, 43.04592958460723], [-3.961235012327901, 43.04526266809795], [-3.962073458802984, 43.04529399679142], [-3.962103013667322, 43.045307525860586], [-3.962100611163143, 43.045350589625365]]], [[[-3.9621910961483713, 43.045334430422706], [-3.962314881525221, 43.04530475837905], [-3.9634663283272387, 43.04537847800911], [-3.9646114008197144, 43.04564854723723], [-3.9654390633717154, 43.04586157607321], [-3.9654473154422654, 43.045886720254586], [-3.9651462734540677, 43.04630339177925], [-3.9641250536047568, 43.04605587747093], [-3.9634318754535296, 43.04699281597423], [-3.964469282738743, 43.04726216750539], [-3.963751023075809, 43.04827586101213], [-3.9627204480105047, 43.0480124743525], [-3.962517901258961, 43.04822011630692], [-3.9624045203392577, 43.04845267658358], [-3.9623346920436116, 43.04848631189663], [-3.9618391358454557, 43.049218157134376], [-3.9629021866591265, 43.049468671505096], [-3.9621702752105197, 43.05053955634717], [-3.9601375756894903, 43.04998207918573], [-3.959958690044291, 43.05018834739369], [-3.959277478874428, 43.04991282257146], [-3.9590636299683557, 43.049876159483404], [-3.9589008425949874, 43.04980647031512], [-3.9611176532333006, 43.04683123190536], [-3.9621910961483713, 43.045334430422706]]], [[[-3.9588139886793052, 43.04883250052514], [-3.9593789391261596, 43.04907091208624], [-3.9588857129126844, 43.049725912973976], [-3.957931395561708, 43.049320921665235], [-3.956649114930931, 43.048844184770864], [-3.9556855552256818, 43.04841107097842], [-3.954593510382614, 43.047998012278136], [-3.9542775419271754, 43.047947513999596], [-3.95305933025435, 43.047909732946046], [-3.9523428587408094, 43.04782753047653], [-3.951961631037278, 43.04768507925285], [-3.951215614750265, 43.04755827094291], [-3.9515020586147087, 43.047127979874105], [-3.9519398312109097, 43.04729921930499], [-3.952986590822171, 43.04585621976585], [-3.953560254435534, 43.0460496485755], [-3.9537506924733954, 43.046042392951875], [-3.9551094687026804, 43.04673950520288], [-3.9549946986373237, 43.04684419532638], [-3.9546990130766413, 43.04691365468252], [-3.9546612014375895, 43.04696935043955], [-3.955009795639472, 43.047327818612445], [-3.9552328705167477, 43.047754415726914], [-3.9556441881894617, 43.04782573148188], [-3.9561922937290124, 43.04807150345741], [-3.9562814513323357, 43.048199528900305], [-3.9574787133350497, 43.048634833813956], [-3.957786610654518, 43.04845819650928], [-3.9580017450779006, 43.048585710941545], [-3.9581688938309267, 43.04873866045383], [-3.9585001488853595, 43.048840348006635], [-3.9586599043658572, 43.04893590729499], [-3.958660800825817, 43.049032882829145], [-3.9588139886793052, 43.04883250052514]]], [[[-3.9521781445187094, 43.04781538922894], [-3.9522688621016546, 43.04786227493634], [-3.9526234529341844, 43.04791777016605], [-3.953372589673188, 43.04797565558631], [-3.9542210395738593, 43.04799355009191], [-3.954574755860056, 43.04804751572442], [-3.9555319459739366, 43.04840298408781], [-3.956681167701195, 43.048907401539715], [-3.95803651063549, 43.049416754594375], [-3.958784637224999, 43.04974053740718], [-3.9583299901370097, 43.050042579802025], [-3.957630168560703, 43.0496905690989], [-3.9565574555407266, 43.05012239411614], [-3.956372017114401, 43.049969775238374], [-3.955706031523615, 43.049764250234226], [-3.9553320118538586, 43.04960491990993], [-3.9556732984354963, 43.049149487223396], [-3.9546052079244536, 43.048698047765285], [-3.9537956298552404, 43.048551160744154], [-3.953416183854482, 43.04902482562335], [-3.95238192985083, 43.04892634673736], [-3.952748964619201, 43.04843567924187], [-3.951776946534578, 43.04834388963926], [-3.9521781445187094, 43.04781538922894]]], [[[-3.9407404391290513, 43.03430264798779], [-3.9410676759475933, 43.0341078008428], [-3.9415501176728305, 43.03435039263163], [-3.941455428669396, 43.03474126610181], [-3.941145032878004, 43.03548519221267], [-3.94181089171237, 43.03563956561319], [-3.9417226842396684, 43.0358682968078], [-3.9410548223372577, 43.03570348913136], [-3.940970862587803, 43.035929217686984], [-3.9416254582677186, 43.03608530114813], [-3.941555669059835, 43.03626624447379], [-3.9409753956569067, 43.03753854458069], [-3.9403156798893155, 43.03739375570984], [-3.939814929893339, 43.03861839046598], [-3.9395412737123507, 43.03860109228516], [-3.9393288365300956, 43.03891998584181], [-3.9388132756073633, 43.03901146539829], [-3.939506164659729, 43.03748881951331], [-3.9395870919501985, 43.03720828135812], [-3.9399029153306855, 43.03658533707604], [-3.939982280482525, 43.03638802165377], [-3.9400267765960253, 43.03614974543231], [-3.9405032068107504, 43.034974741807744], [-3.9407404391290513, 43.03430264798779]]], [[[-3.949047806029594, 43.04274858117234], [-3.9491693017609664, 43.04219485049307], [-3.950528757750342, 43.04235486767723], [-3.950359111909465, 43.04324866582714], [-3.949028889245956, 43.04310632406919], [-3.949047806029594, 43.04274858117234]]], [[[-3.9498938610044663, 43.044249185812006], [-3.949709986711489, 43.04428366548969], [-3.9495256093763307, 43.04446106184928], [-3.949315582459215, 43.044806788292995], [-3.9492839516738973, 43.04518472207697], [-3.94920162675959, 43.04527644032395], [-3.949090113066183, 43.04447673211311], [-3.94901443654997, 43.043492039772694], [-3.9490197148197086, 43.04313278461493], [-3.9503765979042194, 43.043284270204374], [-3.950170122323587, 43.04425050331887], [-3.9498938610044663, 43.044249185812006]]], [[[-3.9501805532112257, 43.04723861774778], [-3.9493745129297837, 43.04707996358561], [-3.9493352667301225, 43.04699519258308], [-3.949413639653578, 43.04631952830357], [-3.9493996513924405, 43.04605697051377], [-3.9496207524871205, 43.0460715294506], [-3.950021385528335, 43.04578500360056], [-3.950042379971952, 43.04566524831666], [-3.9504400789795873, 43.045547227623786], [-3.9505821502071305, 43.04555640774982], [-3.9507061834418975, 43.04562228852764], [-3.9508720402327437, 43.04577993760541], [-3.9507953630678845, 43.04630160002012], [-3.9510899764332645, 43.046552825231], [-3.951256395069658, 43.04648481000451], [-3.9517739656154904, 43.04666341013444], [-3.951185663299162, 43.047550775663545], [-3.9501805532112257, 43.04723861774778]]]]}}]}