{"type": "FeatureCollection", "features": [{"type": "Feature", "properties": {"status": "partial", "version": 6, "n_rows": 218, "n_parcels": 214, "n_matched": 212, "foral": 0, "public_domain": 0, "declared_m2": {"expropriation": 0, "easement": 0, "temporary": 0}, "parcels_m2": 4437307, "catastro_date": "2026-08-21", "identifier": "BOE-B-2026-30030"}, "geometry": {"type": "Polygon", "coordinates": [[[-1.245529898770584, 41.44443413750962], [-1.2462759758108912, 41.44402723553528], [-1.2446970686740007, 41.44235432031145], [-1.2455197963231572, 41.442047309744744], [-1.2447908620572137, 41.44175273221155], [-1.244003059168206, 41.44161289696605], [-1.243434728230773, 41.44155936318445], [-1.2428336392104045, 41.441553419054344], [-1.2426589593209667, 41.441599207809766], [-1.2423536021591128, 41.44178540014723], [-1.242370718666351, 41.44172333320435], [-1.2425991053483263, 41.44154614262019], [-1.2429146583256545, 41.44144315455271], [-1.2443285389505785, 41.4415856209191], [-1.2450550864783403, 41.44175541780926], [-1.24643114279103, 41.44235123471117], [-1.2463854659781128, 41.44255833007202], [-1.2465112302810961, 41.44256074119598], [-1.2464448943518256, 41.44303606749981], [-1.2464176372177618, 41.44478048576784], [-1.2465668767148455, 41.445527821095006], [-1.2465717715409745, 41.445710557878854], [-1.2464476159838096, 41.44619531361203], [-1.2464148047077475, 41.4466221958742], [-1.2465451963164136, 41.44715406623692], [-1.246611925112471, 41.447729820724284], [-1.246772983123109, 41.448505342943726], [-1.2469682950502143, 41.44910746623698], [-1.2475540241754433, 41.45018849675545], [-1.2479327099206434, 41.45063209697901], [-1.248329645620411, 41.450971587255815], [-1.2487799080070578, 41.45153156449219], [-1.2491472127984145, 41.45214963315646], [-1.2496464827474094, 41.45319366873076], [-1.2497394494367222, 41.45353392700217], [-1.2498834741283344, 41.454717472404575], [-1.2503788766860695, 41.456293759186295], [-1.2505669077187531, 41.45650954509703], [-1.2546701944696084, 41.46023963966806], [-1.2550900689256514, 41.460673753334284], [-1.2575076481770304, 41.4641630603451], [-1.2577285211923954, 41.46460738906851], [-1.2580683964599064, 41.46556655805439], [-1.258364053916065, 41.46609380171454], [-1.2585571257574881, 41.46664200862117], [-1.258675864173832, 41.467403996302984], [-1.2587625921529504, 41.4677337042294], [-1.2589722816270907, 41.46823847807134], [-1.2594515402692459, 41.469203895944034], [-1.2601393021235126, 41.47047329973785], [-1.2604591129922715, 41.47092272259691], [-1.2606230783109889, 41.471101019070254], [-1.2612672766898885, 41.47165902062591], [-1.261477676015843, 41.47188791662644], [-1.2619554913129958, 41.472533193872806], [-1.262418970018388, 41.47303855422139], [-1.2626965692488268, 41.47351804676236], [-1.262913640104022, 41.474075795642655], [-1.2644849875063475, 41.47953018748217], [-1.2646636525545245, 41.47997098295779], [-1.264733337960664, 41.480541360700485], [-1.2647932057389357, 41.4807709510984], [-1.2654633636120547, 41.481936210174666], [-1.2659210217787937, 41.48250181493988], [-1.2660391446941759, 41.48268481640517], [-1.2660116542310058, 41.48270061441101], [-1.265445920331629, 41.48195702336397], [-1.264866686780898, 41.480983903839636], [-1.2647245713726196, 41.480681376871566], [-1.264625205110418, 41.47997102872584], [-1.264448776165937, 41.47953621154224], [-1.2628739475731734, 41.47406429760214], [-1.2626695752207007, 41.473533311085916], [-1.2624465799667968, 41.47311679171414], [-1.2619372597092275, 41.4725521932556], [-1.2614394275659295, 41.47188517669685], [-1.2604185955827583, 41.47091976786752], [-1.260138424243158, 41.47051507885381], [-1.2598968398164088, 41.47009160803069], [-1.259150168888327, 41.46868350412208], [-1.2587261209247849, 41.46774071786003], [-1.258638248444242, 41.46744035535026], [-1.2585169903044067, 41.46664725537324], [-1.2583269264443668, 41.46610747045608], [-1.2580363526937537, 41.46557372860805], [-1.2576843440285816, 41.46459816312028], [-1.2574615314733155, 41.464145788702666], [-1.255064439627694, 41.46068291186933], [-1.2546318859191075, 41.46024833546812], [-1.2539834511465344, 41.45968464778263], [-1.2505408526844668, 41.45652121811623], [-1.2503515167897283, 41.45632702910343], [-1.2502991950819773, 41.45622931778331], [-1.2502771902970038, 41.45630833463137], [-1.2502455589204093, 41.45627380691885], [-1.2502158039296054, 41.45607574068426], [-1.2497965875699997, 41.454693992916575], [-1.2497533812352317, 41.45446662920203], [-1.2497586401947784, 41.454217845851566], [-1.2496500310039835, 41.45353788022385], [-1.2494820819953856, 41.45302985105846], [-1.2489067784959573, 41.451861801566], [-1.2483549409838488, 41.45115247287344], [-1.2478043128673182, 41.450638607400286], [-1.247597779414082, 41.45039065015922], [-1.247172459650221, 41.44970972408289], [-1.2468823417970751, 41.44906742589921], [-1.2466276830957628, 41.448282185952664], [-1.2464398912066617, 41.44717038459442], [-1.2463627897017802, 41.446886478999595], [-1.2463378133966578, 41.44640089063034], [-1.2464149473297284, 41.44589731399124], [-1.2449589008764057, 41.44673328675385], [-1.2439056542873397, 41.4474578506478], [-1.2431800133619544, 41.447824071591256], [-1.2418078761072504, 41.44861733139346], [-1.2417499538226342, 41.448807029537704], [-1.241862029043157, 41.44926692912061], [-1.2419862070141592, 41.44958902631787], [-1.2423825162133744, 41.450322579230786], [-1.2443878760277678, 41.451538175110464], [-1.2437743154810377, 41.45292182500147], [-1.2425623552607177, 41.45212087286964], [-1.2423134956780522, 41.45259795324498], [-1.2420255399877504, 41.45364457374075], [-1.243921620231158, 41.4548313058713], [-1.2430036214791778, 41.45608843697878], [-1.244123037730188, 41.45674584101549], [-1.2418441879635742, 41.459211085404284], [-1.2418991384984646, 41.459631921300506], [-1.2419571356110375, 41.46076858888336], [-1.2419896014827205, 41.46089203054436], [-1.2421479878077388, 41.46101676655634], [-1.2420818807354634, 41.46115023032987], [-1.2422502617664386, 41.46141031382086], [-1.2424242368375287, 41.46161427897366], [-1.242769117359197, 41.461914077769514], [-1.2431958856921028, 41.46235194261668], [-1.2437505298297578, 41.46308277447795], [-1.2445963931435522, 41.464527799523914], [-1.245152703666735, 41.46568179789775], [-1.245433422522252, 41.46660326203203], [-1.2454581879720514, 41.46691023744916], [-1.2451942720105746, 41.46793498300811], [-1.2451696910475074, 41.46822454249342], [-1.245191767295874, 41.46849355747965], [-1.2454648003989, 41.46956721184702], [-1.2455029609369406, 41.46984376777637], [-1.2455144610693827, 41.47040264583986], [-1.2455681784809753, 41.470670972509666], [-1.2456835100362966, 41.47096347711093], [-1.2461081938285095, 41.47165007163766], [-1.2460702182483285, 41.47181468030053], [-1.245577124657916, 41.47087187443097], [-1.2454671708649179, 41.47049100329245], [-1.2454028935426813, 41.46957149133888], [-1.245171142516774, 41.46868527148077], [-1.2451076359166298, 41.46822548698858], [-1.2451840852223255, 41.46768245205884], [-1.2453956043188108, 41.46691306550719], [-1.2453756634302515, 41.466604812644256], [-1.245104456168974, 41.465721412909126], [-1.2445371103794571, 41.46453707246886], [-1.2437047920658104, 41.46310486363403], [-1.2431404905668475, 41.4623769463939], [-1.2427192334905799, 41.46194339884264], [-1.2423797218774462, 41.46165295914967], [-1.2420838396243323, 41.46128581539454], [-1.2419589125649395, 41.46183674984376], [-1.2417845303131116, 41.462290017359315], [-1.241517660195355, 41.46285580866966], [-1.241412282299672, 41.46350251528546], [-1.2411624853652405, 41.464313466499064], [-1.2446557127315154, 41.466508704948936], [-1.243556428515988, 41.467958881818575], [-1.241511425205232, 41.4707679683481], [-1.2409552866593843, 41.47167537686679], [-1.2404034503402146, 41.47281694391372], [-1.2405433498263312, 41.47332500585362], [-1.2407454280918673, 41.47480991905121], [-1.2409543596685944, 41.476024461831166], [-1.2409536530916914, 41.47607272834409], [-1.2408460111245918, 41.476191144501996], [-1.2408070108223181, 41.47632240980077], [-1.240841766952525, 41.476418685517714], [-1.240951466460331, 41.476556098576886], [-1.2412335179764193, 41.47674181302387], [-1.242050388998979, 41.47746062986016], [-1.2424308859878885, 41.47772179348071], [-1.2432643901683755, 41.47820730991369], [-1.2439222476998693, 41.47808855862593], [-1.2444927670761874, 41.478037107810735], [-1.2449609028469817, 41.47786096191006], [-1.2448859254385192, 41.47795430059606], [-1.2447663998592482, 41.478007508760356], [-1.2444259004346043, 41.47811390262869], [-1.2439799215138938, 41.47813933793743], [-1.2420671890891073, 41.47843796181319], [-1.241623782385726, 41.47846117104154], [-1.2413951195316717, 41.47852396546693], [-1.2409523787602472, 41.47872156152002], [-1.2402217047107755, 41.47883116071273], [-1.2391816825097848, 41.47886477818596], [-1.2374687008954561, 41.478774220942775], [-1.2355957912882456, 41.478764498724615], [-1.2352566231940485, 41.47871101679532], [-1.2352636158916266, 41.47883731155951], [-1.235125259676951, 41.47918222614356], [-1.2350186721758507, 41.47926120243781], [-1.2343195370437645, 41.47924524081245], [-1.2328251352698498, 41.47948483725995], [-1.2313511246166426, 41.47976255254403], [-1.2318639510899085, 41.48056899544193], [-1.2318700938057427, 41.4807527416245], [-1.2318476199390338, 41.48080841928872], [-1.2317877734650156, 41.48081578543226], [-1.2317395551181975, 41.48081396312854], [-1.2318018372711055, 41.48067297131397], [-1.2318028246285027, 41.48057499087024], [-1.231320753344345, 41.479852965547686], [-1.2312520373595899, 41.47965825913306], [-1.2311900369824773, 41.47894386473995], [-1.230569547754153, 41.47891639473648], [-1.2301768714935837, 41.479112643363514], [-1.2300494102135335, 41.479210478559935], [-1.229686353897216, 41.4796646045674], [-1.229619009510837, 41.47970545008014], [-1.2293987418447345, 41.479745472147215], [-1.2293904629126082, 41.47964924050404], [-1.2291155830682186, 41.47934192370105], [-1.2289978329618165, 41.47902612793328], [-1.2285458613513893, 41.47857224116246], [-1.2277543441826564, 41.47882601573079], [-1.227438244036227, 41.4790029938662], [-1.2270247612801248, 41.479140550410186], [-1.2269096511931292, 41.47921569488523], [-1.2265796116968293, 41.47926662410106], [-1.2262781777528715, 41.479024461623105], [-1.2259631613262882, 41.478595374732464], [-1.2257032803134937, 41.478708995848876], [-1.2254376265845954, 41.47823113094299], [-1.225233750732233, 41.47825428480095], [-1.2249227681828077, 41.47819535290726], [-1.2246649554687916, 41.478193714649024], [-1.22449923209941, 41.47829338481838], [-1.2240465965612655, 41.47846995218586], [-1.22348030203051, 41.47863765087565], [-1.2233679834436206, 41.47872886728967], [-1.2233110911354617, 41.47882103005215], [-1.2232479023168135, 41.47923527402454], [-1.2231804053198143, 41.47934294494388], [-1.2231502560189256, 41.479328608375795], [-1.2229912942268406, 41.47962311100876], [-1.2226613835136866, 41.48083853897609], [-1.2222323784036884, 41.48156038889812], [-1.2219977841361003, 41.48222867521604], [-1.2217182568782492, 41.48247717758448], [-1.2214313051543437, 41.48288318589478], [-1.2213644023744359, 41.483235763575266], [-1.2214414112082115, 41.48383987481776], [-1.2214296122647466, 41.48430165826018], [-1.2214711957984759, 41.48454152575353], [-1.2218143998843158, 41.48545040971741], [-1.2217708018011457, 41.48545910271461], [-1.2217887919722124, 41.48551081053981], [-1.221503591178582, 41.48540588228874], [-1.2213118500565145, 41.485243133406115], [-1.2211616634295852, 41.485063013177296], [-1.2208715306864868, 41.48452603429616], [-1.2207730119692584, 41.48425250038119], [-1.2206741568641266, 41.48348420996466], [-1.2205731078313096, 41.483123989921694], [-1.2202428147656517, 41.48250127227212], [-1.2200597898151053, 41.48194613366375], [-1.219713164924441, 41.48123786587128], [-1.2196486197136542, 41.48055540572966], [-1.219584525271012, 41.480376886492], [-1.2194277550012615, 41.48006597123232], [-1.2192787527169386, 41.47989154118454], [-1.2189375019176258, 41.47951228776097], [-1.2186691615077259, 41.47930889754223], [-1.2182469703606609, 41.47913013923833], [-1.217989791616923, 41.47905716080815], [-1.2172284664464532, 41.4790250943437], [-1.2164331478465358, 41.47880452066044], [-1.2141254779668813, 41.47876022858999], [-1.2134712356817723, 41.47880644935395], [-1.2124172979615404, 41.4787143217576], [-1.2121006612049299, 41.47872200424349], [-1.211131205343178, 41.47905459467572], [-1.2106877249936336, 41.47930196062244], [-1.210342544347868, 41.479723963648794], [-1.2103015094575054, 41.48022690293805], [-1.210184923874354, 41.48051132882983], [-1.2093579749090453, 41.48141292411225], [-1.2092660324902447, 41.48150705590794], [-1.2091135834665523, 41.48156259629219], [-1.2085493252603596, 41.48160640737852], [-1.2085075189423051, 41.48148488297902], [-1.2085767213841343, 41.48086889592482], [-1.2085484061989724, 41.48042765530849], [-1.2087627321133951, 41.47941312460654], [-1.2091130006204631, 41.4784328608758], [-1.2089536332315451, 41.47775747019381], [-1.2089753780424222, 41.47677281422186], [-1.2090901651094796, 41.47623634710177], [-1.2090810246466772, 41.4758987145669], [-1.2077752156963353, 41.47641698062935], [-1.2072476389615012, 41.476465500449216], [-1.2066329832837577, 41.47639277742251], [-1.205937102102501, 41.47579592640844], [-1.205665217633146, 41.47658645671922], [-1.2054938343875625, 41.47688146168155], [-1.2045577428641323, 41.477835811523356], [-1.204373834312552, 41.47808531425328], [-1.2042149134448852, 41.47837537784663], [-1.2040471839202194, 41.478771851182785], [-1.2040068610737114, 41.479060794405704], [-1.2041890690903552, 41.479674760729615], [-1.2042090626928876, 41.479796486462156], [-1.2041771714954934, 41.48007502326211], [-1.2040220851592494, 41.48036046275187], [-1.2035092822854696, 41.48074848266438], [-1.2032190310176207, 41.48126553913594], [-1.2027298469806542, 41.4816696010871], [-1.20224073320999, 41.48192360202704], [-1.201978040485091, 41.48194201203227], [-1.2017160312105002, 41.482035099580244], [-1.2013585468478156, 41.482306471470004], [-1.200964564947962, 41.48249404717896], [-1.2008091909953384, 41.48290169715826], [-1.2004238455807124, 41.483356731734695], [-1.2000136475572745, 41.48419011720007], [-1.199388715664293, 41.48487476238002], [-1.1990514938322305, 41.48502773288712], [-1.1983812556037725, 41.48519016191857], [-1.1975726884468334, 41.48528296142204], [-1.197302739177309, 41.48554074100145], [-1.1964324162441173, 41.485765141646056], [-1.1963091295884543, 41.48587426316232], [-1.1960229534463682, 41.48637965560974], [-1.1953872000968264, 41.48676183650326], [-1.194951991760357, 41.48690974427883], [-1.1949657822093824, 41.486840157134104], [-1.1954571544151338, 41.4866711538478], [-1.1959336129016893, 41.486379064558975], [-1.1960340480656713, 41.48626472121785], [-1.1962491091624987, 41.48584873275762], [-1.1963915230057869, 41.485723698866195], [-1.1973043716929948, 41.485481861318604], [-1.1974009421442242, 41.485351243698595], [-1.1975759516765558, 41.48524302183306], [-1.1979684355798266, 41.48522692629794], [-1.198789967749784, 41.48506840091092], [-1.1990205841583048, 41.48500202937769], [-1.1993488922469409, 41.48484675771236], [-1.1996325754063768, 41.484572525470966], [-1.2000276837466253, 41.4841157595671], [-1.2003047298279406, 41.48343674045904], [-1.2004674110065452, 41.48318069760482], [-1.2007280413627643, 41.482908263422274], [-1.2009084090241409, 41.48246308543518], [-1.2013573766991945, 41.48224052243813], [-1.2017214538561638, 41.48196916358217], [-1.2019115733198997, 41.48190710663179], [-1.2022104603946036, 41.4818662049232], [-1.2027022212559444, 41.48162908844585], [-1.203135351458156, 41.481264051409866], [-1.2034500515195303, 41.480720446404796], [-1.2036897893051772, 41.48052280121207], [-1.2039200567557349, 41.48038156662863], [-1.204100847834151, 41.48009346638173], [-1.2041384671230513, 41.4797723261914], [-1.2039368169784157, 41.47902970728453], [-1.203979945151628, 41.47876062316317], [-1.2041506298725402, 41.47835690045961], [-1.204311827644381, 41.478062459112095], [-1.2044990904361763, 41.477808595455976], [-1.2052466956725258, 41.47705287970079], [-1.2050650347423815, 41.4770564391494], [-1.2047284724321838, 41.477126748832305], [-1.2031644814328495, 41.477940591817315], [-1.2032678093323728, 41.477690462468935], [-1.2032001210513958, 41.47745279255397], [-1.202956999115601, 41.47727092618664], [-1.2026028520462246, 41.477171358675015], [-1.201884886457192, 41.47789329869976], [-1.201338952375349, 41.47827565706953], [-1.2008967794073402, 41.477721748565045], [-1.2008023529884098, 41.477753686888406], [-1.200677316489519, 41.47787926864278], [-1.200609779553591, 41.47807366233345], [-1.2006128454363003, 41.478196384770825], [-1.2004701620356557, 41.47815893482072], [-1.2004195038943046, 41.47811121590255], [-1.20038440992314, 41.477990334021236], [-1.200387777991575, 41.477509596492766], [-1.2000354420037516, 41.47760432903747], [-1.1999748422076695, 41.47795456085918], [-1.1998134344248603, 41.478074168145596], [-1.1996677277203698, 41.47809836737604], [-1.199546538723604, 41.478387479478464], [-1.199560718534029, 41.47858909655087], [-1.199445952193917, 41.47868943818097], [-1.1993240104390084, 41.47874634397844], [-1.1992158575624963, 41.478750775023315], [-1.1983122009293146, 41.47849613469292], [-1.1981175444558296, 41.47848876126758], [-1.1979437934130464, 41.47902771090847], [-1.1973258480958413, 41.47974245262236], [-1.197129969440881, 41.479882501809755], [-1.1968419561883687, 41.479907253808115], [-1.19668551380181, 41.479964246243824], [-1.1962184233385076, 41.48033476084466], [-1.1958126158561084, 41.48079738517878], [-1.194987953402194, 41.481501660270645], [-1.194831659708048, 41.4816823175858], [-1.1944820506151073, 41.481863001790664], [-1.194227812302633, 41.48195213661562], [-1.1941022396482788, 41.48226855937747], [-1.193798548467114, 41.482624246603216], [-1.193756095068919, 41.482716711347756], [-1.193762045758661, 41.4827913821593], [-1.193893551844205, 41.483045821830366], [-1.193826830160579, 41.483059004751816], [-1.1936954927481764, 41.482806909456], [-1.1936872425002907, 41.48271175679901], [-1.1937337675092778, 41.4826063860669], [-1.1940372266049435, 41.48222025195875], [-1.1941644916158334, 41.48192484198236], [-1.1947808794295007, 41.481660624315715], [-1.1949341084415255, 41.48146956099407], [-1.195761859121443, 41.48075758878335], [-1.196136601182447, 41.48032681217429], [-1.1966797490412782, 41.47990434981878], [-1.196988347208429, 41.47983695793819], [-1.1967219122195554, 41.47965389780793], [-1.1960873036492359, 41.47934131112415], [-1.1956049049182231, 41.47920215112632], [-1.1953433644493774, 41.479162109111236], [-1.1945601621728947, 41.479202325143774], [-1.19380898737624, 41.479451815034764], [-1.1933552387984006, 41.479553310433644], [-1.1929790955155706, 41.479581446238335], [-1.1918839405140114, 41.47978327490363], [-1.1917217181326576, 41.479862777065605], [-1.1918681036567356, 41.479874716403316], [-1.1921559447632382, 41.479968230632565], [-1.1925902607960335, 41.48035902343563], [-1.192702370588383, 41.480513993379766], [-1.1920560517986987, 41.48047654223103], [-1.191305890606451, 41.48065856965896], [-1.1909090900558705, 41.48071861851626], [-1.1907964244255789, 41.48070000295805], [-1.1908370128396362, 41.480795214283056], [-1.1908303769892339, 41.48091319067302], [-1.190486627877287, 41.48133498022057], [-1.1905075056344867, 41.481415200185126], [-1.1908071568273932, 41.48160960105741], [-1.1908401983852503, 41.48170487376776], [-1.1908260841965579, 41.48179868399152], [-1.1906969930605786, 41.48198291603519], [-1.19041652151608, 41.48223528542349], [-1.1903595620787724, 41.482349587574404], [-1.1902726988354695, 41.482350562310316], [-1.1902971815225103, 41.48203894780116], [-1.1901978719639117, 41.48172133634531], [-1.1899800041944992, 41.4817127686445], [-1.1898651016504223, 41.48148209396694], [-1.189516218520023, 41.481382659105954], [-1.1891366751904402, 41.481339123690404], [-1.1890820767950852, 41.48127827773126], [-1.1891038258947175, 41.48111253257079], [-1.1888132247510816, 41.48137158830695], [-1.188667914142986, 41.481583033701256], [-1.188573310990424, 41.481805995957224], [-1.1883728957803017, 41.481897321210795], [-1.1882260264423288, 41.48228067909959], [-1.1881323148204834, 41.48270775184526], [-1.1882684304948485, 41.48292921509275], [-1.1881934175833346, 41.48298630794564], [-1.1882949398281535, 41.48312985662409], [-1.1883587362140349, 41.48347942959625], [-1.1882993691632147, 41.484075022547785], [-1.1883138003435338, 41.484261873291494], [-1.1878488737366646, 41.48417006221959], [-1.1878330208483865, 41.48429599481354], [-1.1876714187980102, 41.484588784736296], [-1.1876276143609787, 41.48479381232647], [-1.1875128769039434, 41.48487486745969], [-1.1877578098335762, 41.48534357502244], [-1.187700765863486, 41.485426260154775], [-1.1871390523398502, 41.485591689408466], [-1.1866908400819358, 41.485364132710636], [-1.1863919650613153, 41.48515892063377], [-1.1861232376879043, 41.48488231266355], [-1.1860555546621885, 41.484041534534974], [-1.1853376706309622, 41.48399219375382], [-1.1853612658537744, 41.48371776505171], [-1.1852273220971705, 41.48349173917418], [-1.1850562352447687, 41.48341617290203], [-1.18475790051138, 41.48344523955348], [-1.1846070311302805, 41.48366208612935], [-1.1844813100805902, 41.48399488831475], [-1.1836647566505936, 41.48406899966261], [-1.1837119637061768, 41.484192599683716], [-1.1838066699164476, 41.48421967523998], [-1.1840302639074782, 41.484207894906994], [-1.184039985928008, 41.48428866034996], [-1.1837462873248294, 41.484635917343375], [-1.1834568499785452, 41.48461639370709], [-1.1830826686522131, 41.484898883224744], [-1.182904152894091, 41.4851319534166], [-1.1826598742879164, 41.485596092132575], [-1.1825509924104638, 41.48568614715474], [-1.1822568513599143, 41.485894691248966], [-1.1820945807705614, 41.48596616270685], [-1.1819618149067108, 41.4859850497213], [-1.182080505927355, 41.48624677572558], [-1.1807793418801147, 41.48653702090989], [-1.1806832868047552, 41.48653667204332], [-1.1805846311069135, 41.486488004901965], [-1.1802810290731427, 41.48652922589688], [-1.1801888517835526, 41.48618514418181], [-1.179786903823768, 41.48614104308847], [-1.1796919357237474, 41.486170343340596], [-1.1795707245594387, 41.48628110086111], [-1.179476073801107, 41.48629905724917], [-1.1793758363931515, 41.48626414460462], [-1.1793346699060765, 41.4860405717356], [-1.1793981400098161, 41.48591701111555], [-1.1794872461753825, 41.48582348908423], [-1.1796804077766005, 41.48575233021698], [-1.1798030548073128, 41.48566276153915], [-1.1798097075997247, 41.48550641678755], [-1.1797678595844465, 41.48540983071986], [-1.1798032178523883, 41.485344820117476], [-1.1801888145493118, 41.485164124522896], [-1.1801288508651895, 41.48454241902563], [-1.1795566680663825, 41.484769072631245], [-1.1786003888050365, 41.48491334676833], [-1.1786370338629764, 41.48505470526796], [-1.1789306621743354, 41.48503152458744], [-1.179020027710538, 41.48505680818651], [-1.1791171564772436, 41.48558714214389], [-1.178857396495289, 41.48605580111507], [-1.1790086906051436, 41.48642297710875], [-1.1787726791191049, 41.48637744713737], [-1.1786857231363403, 41.486411466979746], [-1.1788354522424014, 41.4865396650684], [-1.1792980107510924, 41.48666912398651], [-1.1790119531870231, 41.48699168038318], [-1.1791025074644292, 41.487063489587726], [-1.1786896950283323, 41.487163323139555], [-1.1774870837379798, 41.48717588219236], [-1.1772978719096687, 41.48720846030092], [-1.1763687192703725, 41.48752437143911], [-1.1754109782272348, 41.48794096892029], [-1.1749614231509233, 41.488052095081876], [-1.1747775981019892, 41.48816572659771], [-1.1749703659121273, 41.48826263833489], [-1.1751194294743903, 41.48838029257266], [-1.1755210047370124, 41.48889474470028], [-1.1762573283227618, 41.48937298349036], [-1.1770924846745712, 41.49060314964529], [-1.1774263004675474, 41.49127522242784], [-1.1777601847453985, 41.49179552898725], [-1.1778050806350475, 41.49193746871298], [-1.1778758831700586, 41.49282613080212], [-1.1779342945302658, 41.49311842966917], [-1.1786345140435952, 41.49357923816402], [-1.178919458339646, 41.493884491871114], [-1.1800681709456666, 41.49490712898337], [-1.1802071449217773, 41.495069381195066], [-1.1804016768430745, 41.4956306173875], [-1.180447308851468, 41.49566952876657], [-1.1805896107175795, 41.49570015231891], [-1.1811395139892595, 41.49566489881352], [-1.1815465465663428, 41.49567926295515], [-1.182592949907238, 41.49589476980178], [-1.1831261481584698, 41.49605856543325], [-1.1842509561968921, 41.496182434972894], [-1.1849787009371309, 41.49633389230889], [-1.185255703387639, 41.49641878628317], [-1.185868038307407, 41.496782240230864], [-1.1861082736511432, 41.49687970212186], [-1.187537844497624, 41.49737411722786], [-1.1885676879500437, 41.497811509002354], [-1.189312670726847, 41.49808057045782], [-1.1895008643938563, 41.49811127520985], [-1.1900513151586838, 41.49806553974747], [-1.1904096285616037, 41.498070459012425], [-1.1909156471643751, 41.49831251115256], [-1.1917768680037382, 41.49877487221932], [-1.191813392463457, 41.49881849960107], [-1.1915861003132742, 41.498733232350865], [-1.1905727083687727, 41.49818993507774], [-1.190111697187742, 41.498099905834884], [-1.1894032726251083, 41.49814396468505], [-1.1884219867940733, 41.49781227582845], [-1.1875176150605637, 41.49741216773851], [-1.185847359141271, 41.49683208239069], [-1.1852311485600957, 41.49646154178129], [-1.1842478269331234, 41.49623012212542], [-1.1831200366047347, 41.49609719852803], [-1.1827662305129494, 41.49597433743495], [-1.181472956739474, 41.49571043385205], [-1.180587175755871, 41.49573578110619], [-1.1804165496385461, 41.4957112843542], [-1.180352910405918, 41.49566515267585], [-1.1801701340197726, 41.4951547212355], [-1.1800215249949497, 41.49493440211168], [-1.1786277720318965, 41.49369586079129], [-1.17853448591356, 41.49357495155256], [-1.1780480944242402, 41.493255336457395], [-1.1779381906002364, 41.49323585131889], [-1.1773993896219346, 41.49358929920834], [-1.1769368913064349, 41.49364807772934], [-1.1765494710263427, 41.49385746949397], [-1.176352086720746, 41.493911622941454], [-1.1762102909373398, 41.493628358686195], [-1.175824007516065, 41.49351117589716], [-1.175497720855938, 41.49328379871858], [-1.175369364554231, 41.493059651793004], [-1.175221365636181, 41.49266045914578], [-1.1744478980342103, 41.49200662004597], [-1.1741974058685671, 41.49185763165996], [-1.1729193051541225, 41.49147146930972], [-1.1726376146349367, 41.49143961189336], [-1.1723819206681076, 41.491369347264104], [-1.171885256789023, 41.49116960486834], [-1.1711522606470626, 41.49098654726192], [-1.1701907310904194, 41.49093468165256], [-1.1698132439181448, 41.49096127873663], [-1.1687789086335147, 41.49112539873922], [-1.1676643966819114, 41.49124815105746], [-1.1672006704910731, 41.4914654823144], [-1.1670263155795257, 41.49148458974081], [-1.1669214376177979, 41.49146976772247], [-1.1663605023198025, 41.49115395880554], [-1.1659435143547165, 41.49104778206781], [-1.1656679434320603, 41.49107518050106], [-1.1655881063639282, 41.49112389508641], [-1.1650390728867435, 41.49129067893242], [-1.1637840896524672, 41.491377646090456], [-1.1635537319729827, 41.49136919348121], [-1.1621748724919763, 41.49115990927424], [-1.1612143947376259, 41.49085507181914], [-1.1606931821417819, 41.49077918373525], [-1.1606251930219105, 41.4907858420564], [-1.1606723794096048, 41.49109949634233], [-1.1606232880403675, 41.49135693863342], [-1.1599919453233989, 41.491612540528486], [-1.1596436919530035, 41.491850243151774], [-1.1592798744418125, 41.49200294069859], [-1.1587380525815743, 41.49184664254119], [-1.1579469509073077, 41.49171562092629], [-1.1577876019146636, 41.491653172156916], [-1.157213132276907, 41.491292337691625], [-1.1568610422764984, 41.490984873391035], [-1.1566520913521683, 41.490859480387954], [-1.1562969516855053, 41.49071039667098], [-1.1556665544984461, 41.490898528332565], [-1.1556013532705915, 41.49085334871201], [-1.154417561413973, 41.491044394292615], [-1.153335977682171, 41.491293272180336], [-1.1530201170315364, 41.491296575257316], [-1.1521324768709131, 41.49085394585117], [-1.1514817906020112, 41.490369184146545], [-1.1514010078156338, 41.49033708184805], [-1.1511539685915673, 41.49042678148365], [-1.1509561210471304, 41.49058950689055], [-1.150796719811826, 41.49111033359682], [-1.1505453525565816, 41.4913225460064], [-1.1502054641672197, 41.49147983287591], [-1.149365901630473, 41.491537027138136], [-1.1491833699511789, 41.4915107612938], [-1.1491180865492139, 41.49173785481164], [-1.1491537512667052, 41.491789497945156], [-1.148904420759376, 41.491837363859524], [-1.1490111521697939, 41.49177855583351], [-1.1491262788028664, 41.49149642204238], [-1.149276245039686, 41.491315906148586], [-1.150156733296541, 41.49072129958513], [-1.1500494423760546, 41.49053889527744], [-1.149917198048511, 41.490471467581955], [-1.1497932386637406, 41.49049595322471], [-1.149082591739883, 41.490796784509165], [-1.148747107044318, 41.49090036685726], [-1.1482201422939247, 41.49119090984917], [-1.1480988298311092, 41.49123173874139], [-1.1477104959723852, 41.49126448334154], [-1.1475980492223303, 41.49121277368762], [-1.1475402119738722, 41.49113636419849], [-1.1474805728130886, 41.491013900469824], [-1.1474441948130765, 41.490831825639575], [-1.1475443271669237, 41.49055899912793], [-1.1477698425646392, 41.49045554029796], [-1.1474787372509752, 41.490056889367516], [-1.1469283485996733, 41.490290936189076], [-1.146746811755325, 41.490448422971], [-1.1464591088567948, 41.49059023740279], [-1.1463416643280666, 41.49060464655645], [-1.1460010191174583, 41.49056564877525], [-1.1454921772422093, 41.4906866916924], [-1.145076976957835, 41.4906115419593], [-1.145054826508243, 41.490674142731976], [-1.1450948933656957, 41.49092400956204], [-1.1453682157956635, 41.49125698962785], [-1.145876923609125, 41.49150198484967], [-1.1462266051187042, 41.49158553263448], [-1.146418062300064, 41.491588619231656], [-1.1466099213341914, 41.4918675027371], [-1.1463426358492115, 41.49188120778378], [-1.1456380650941247, 41.491993151135034], [-1.1452638148150334, 41.492140862237164], [-1.1449063309289382, 41.49212077421923], [-1.1443571459995487, 41.491988608177046], [-1.1439711160783328, 41.49194463866321], [-1.143632006820497, 41.491671299595744], [-1.1434167231047412, 41.49155875030523], [-1.1429800507225, 41.49192899679566], [-1.1427366438194855, 41.49204188457473], [-1.1418116145103967, 41.4923142584414], [-1.1412945418152343, 41.492500359417164], [-1.1410391306526313, 41.49267258497513], [-1.1404228869161344, 41.4928913947889], [-1.1400187575796765, 41.49295655281937], [-1.1394883768755004, 41.49292923755701], [-1.1389319249413932, 41.49285439189858], [-1.1388171282831372, 41.492751026244996], [-1.1386172029957744, 41.492190174145264], [-1.1377920104579906, 41.491280988378165], [-1.1381468221306628, 41.49100517928524], [-1.1383589659435438, 41.49122279784321], [-1.1385573603178576, 41.491347512641205], [-1.1390317136127326, 41.49189200098399], [-1.1393111843582981, 41.491896253693724], [-1.13945519876642, 41.492108804666714], [-1.1395688518844236, 41.49215585820415], [-1.1398221671244289, 41.49216995430667], [-1.1406271260879588, 41.49201643710594], [-1.1407623930466333, 41.49195701740526], [-1.140841094261423, 41.49188587467266], [-1.1408721418019705, 41.49180135174895], [-1.1407265470849928, 41.49187006180225], [-1.1405703613919027, 41.491898609854104], [-1.140185364630788, 41.4918940044], [-1.1399019595663482, 41.491956070861896], [-1.139909356024964, 41.4918734173067], [-1.1401814397630716, 41.491428285281586], [-1.1407379269543814, 41.49067647398415], [-1.1411116823399532, 41.49044977925276], [-1.1412882775632827, 41.490507486016746], [-1.1416037690552043, 41.490776757435746], [-1.1417049171236213, 41.49078352613096], [-1.1419102440550777, 41.49057788474234], [-1.1421633897218535, 41.49044263882229], [-1.1425056773526068, 41.49035278602107], [-1.1422365302329667, 41.4900587763747], [-1.1424974732912263, 41.489952387633565], [-1.142136612905036, 41.48945991556889], [-1.1417310925496882, 41.48908426042876], [-1.1417832267151982, 41.48907492519952], [-1.141862257691, 41.48913456699198], [-1.142170468025947, 41.48943632414439], [-1.1425331568022146, 41.48993188798193], [-1.1427852083688563, 41.489843188571335], [-1.1429588499545111, 41.48993299963643], [-1.1431541943548573, 41.48998434125669], [-1.143109072211401, 41.48977753508084], [-1.1432612097034505, 41.48986114393557], [-1.1437376594495625, 41.48971238715139], [-1.143491799130645, 41.48915233270648], [-1.1428310824261905, 41.48861061692182], [-1.1425424737027863, 41.488268467037926], [-1.1409311131783753, 41.48769111397627], [-1.1403928717210314, 41.487609274383466], [-1.1402150313599857, 41.487528398423635], [-1.1402008680285833, 41.48744566627458], [-1.1402450853355426, 41.48736549963778], [-1.1405110505311638, 41.487171199289335], [-1.140793535185528, 41.486998151466935], [-1.141173828872447, 41.48688135596902], [-1.1415076678491671, 41.48708643502419], [-1.1418140015815208, 41.48745346276762], [-1.1422055696764266, 41.48759606424489], [-1.1426828639074966, 41.48770654354468], [-1.1428634649203089, 41.48757768991013], [-1.142946301415418, 41.48747472806485], [-1.142977537265561, 41.487324727467524], [-1.1429415151395166, 41.48718940266367], [-1.1427577057839955, 41.48703646919542], [-1.1424538876168848, 41.48744488744396], [-1.1423483087299922, 41.48750532928294], [-1.142289929697893, 41.4872679553403], [-1.141822887022544, 41.48701686245634], [-1.1417911722995713, 41.486944655111905], [-1.1415013654206354, 41.4869381698792], [-1.1412536363908188, 41.486758711362164], [-1.1412239148917787, 41.48650369628546], [-1.1411564999181454, 41.48631021935788], [-1.1407382082283393, 41.48607206948313], [-1.1396554640029537, 41.485814252857416], [-1.1390074018820786, 41.485753327315216], [-1.1380876702224967, 41.48552128187326], [-1.1377888972938714, 41.48543078801013], [-1.1376441238616275, 41.48535413643752], [-1.1372621609026023, 41.48504432713056], [-1.1369980730060125, 41.48498915969261], [-1.1369684393037902, 41.484949049255235], [-1.1370746879778493, 41.48494050285681], [-1.1372878662558288, 41.4849999793299], [-1.1374443167679757, 41.485087088351534], [-1.137694358381504, 41.48533576539319], [-1.137824546891797, 41.48539470733976], [-1.1390295401965203, 41.48571639710923], [-1.1395580192447754, 41.48577043393574], [-1.1404732222119145, 41.48595591886256], [-1.1408277509626394, 41.486069734446694], [-1.141242274861735, 41.48630980460407], [-1.1415162559199057, 41.48641727209597], [-1.142548720327439, 41.48659085524809], [-1.1429878580778745, 41.4864643761431], [-1.1429248480975187, 41.486154242099055], [-1.1430084382453836, 41.48580675532292], [-1.1433862652875804, 41.48575917557104], [-1.1435128545915294, 41.48571366313397], [-1.1438313138585074, 41.48571069822739], [-1.143933372960175, 41.485681091804054], [-1.1443378972606353, 41.48505479681282], [-1.1444065266436212, 41.485004565085724], [-1.1445009518739422, 41.4849989734219], [-1.144659378839235, 41.485075926769774], [-1.1446667622419238, 41.485144588344724], [-1.144382475940412, 41.48594377573701], [-1.1444418005223385, 41.48614405557021], [-1.1444416537053559, 41.486296089489514], [-1.1443620606956006, 41.48658770904337], [-1.1445188848361965, 41.48677551151302], [-1.144581072690219, 41.486917472822654], [-1.1448245275150368, 41.48717989875172], [-1.1448578727177419, 41.48728743857894], [-1.1463854182877706, 41.48799893924464], [-1.1464644256687284, 41.48813513606023], [-1.1465174009860084, 41.48839034452228], [-1.1465554615970543, 41.48844184695501], [-1.1466453749459549, 41.48847283885648], [-1.1469376894611714, 41.48847565873445], [-1.1470692565991543, 41.48862963512382], [-1.1472673997561138, 41.488671017214266], [-1.147327750646725, 41.48871378160131], [-1.1475859381460483, 41.488741449375716], [-1.1478590028441131, 41.488717836816384], [-1.14840438792987, 41.48847803048964], [-1.1487431060392166, 41.488218411722826], [-1.1493469663104328, 41.487897669693474], [-1.149664100948381, 41.487899531068024], [-1.1507301405550936, 41.48803557208052], [-1.151051967309816, 41.48804516094759], [-1.1512226554504625, 41.48799476486492], [-1.1514842059829367, 41.48782828937597], [-1.1515300169653544, 41.48793593764305], [-1.1515996642948412, 41.487988846899306], [-1.1523348126476862, 41.48826582526], [-1.1523957283155652, 41.48833939964421], [-1.1525116613482207, 41.4886224575971], [-1.1527705432002961, 41.48900094327853], [-1.1530441203290487, 41.48914899795875], [-1.1532813940758508, 41.48916244640091], [-1.1534183953453994, 41.48913834655905], [-1.1535109927835658, 41.48917198820708], [-1.153785807679965, 41.489618189078854], [-1.1546231876865152, 41.49017699864563], [-1.1548418142203314, 41.49017231096336], [-1.1551391598375709, 41.49009944279734], [-1.1558676495161597, 41.489780666105275], [-1.1565015113718264, 41.489900804640165], [-1.157010526610798, 41.489929049872906], [-1.157762589632515, 41.490050355436566], [-1.1579517236424826, 41.48996619885666], [-1.1580143763304047, 41.48986038080886], [-1.158037712401884, 41.48970475526317], [-1.1585977821896325, 41.48936840165572], [-1.1587505104910583, 41.48924574168568], [-1.158858937523879, 41.489118138909284], [-1.1588075184207516, 41.48904309875033], [-1.1592806931975854, 41.48863626738924], [-1.1596644958155262, 41.48856396084388], [-1.1599399338128797, 41.48846478967749], [-1.1606958311057995, 41.488115707179254], [-1.1607364192894252, 41.48804015808545], [-1.161106217538096, 41.487852964878634], [-1.1615531432517485, 41.487572971652796], [-1.1615722934176793, 41.48749302637743], [-1.1613220879137343, 41.486954376182126], [-1.1613174919508222, 41.48656205223856], [-1.1611778151429242, 41.48627871328536], [-1.161161325070793, 41.485993561336194], [-1.1609937653939382, 41.48557386210823], [-1.1608237631146407, 41.485257522770624], [-1.161357813418692, 41.485148973935075], [-1.161372397188532, 41.485327904052234], [-1.1616293552930061, 41.485987624881204], [-1.1621528623872137, 41.48590052037978], [-1.1624131595809397, 41.48581524200601], [-1.1627451249449188, 41.4856310415206], [-1.1624753962117378, 41.48525330526461], [-1.1623770324111542, 41.48506348906026], [-1.1623274531952645, 41.48488093741714], [-1.1623081875635481, 41.48470652609203], [-1.1623596968357246, 41.484138473313934], [-1.1623451800026798, 41.4839019902334], [-1.162466232323831, 41.48383141920924], [-1.1626362321173127, 41.48380891644854], [-1.162796347374126, 41.4840260192864], [-1.1628770812195635, 41.484025868096595], [-1.1631289097606465, 41.48392631189447], [-1.1632029610727737, 41.483963432374736], [-1.1636968456659853, 41.48486093260119], [-1.1642513526050864, 41.48579659700856], [-1.1643626856346319, 41.485930325522965], [-1.1642259316346069, 41.48599695500123], [-1.164491989762873, 41.48645001633418], [-1.1664703847277982, 41.485975482804264], [-1.1661324655650795, 41.48539860586154], [-1.1669683143761502, 41.4851256941647], [-1.1672306087652726, 41.48570433560204], [-1.1676083387153608, 41.486250319607194], [-1.1677707417834116, 41.48654004763122], [-1.1680101797227567, 41.48645946804398], [-1.1680625479189142, 41.48642886829532], [-1.1680079946758848, 41.486269207424286], [-1.1685163583515752, 41.486026373459104], [-1.1685613554937198, 41.485968275081426], [-1.1685483909245888, 41.485293181187146], [-1.1685040989689792, 41.48518169076835], [-1.1681920575978553, 41.484867693174266], [-1.1680953799941842, 41.48466421814672], [-1.1680390865187886, 41.484404823073675], [-1.16821228954518, 41.484226093264624], [-1.1687556801526418, 41.48398931029537], [-1.1688804751079167, 41.48389618474957], [-1.169571092661743, 41.48456468485985], [-1.1698379786229842, 41.485197975435575], [-1.1698593248312514, 41.48531621559611], [-1.169833276901422, 41.48556925534443], [-1.170251062149034, 41.485607788748275], [-1.1709274572206538, 41.48559080892893], [-1.1711126090991366, 41.48555772637593], [-1.171399494458849, 41.485403947633095], [-1.1721749440256313, 41.48531882220777], [-1.1722496269162441, 41.48520589183385], [-1.1722221803569826, 41.48504459217443], [-1.171893725016857, 41.48440636513127], [-1.1717729662401566, 41.48422827003595], [-1.1712809625358926, 41.48385629697993], [-1.1710110345959248, 41.48359908974956], [-1.1708300343577542, 41.48339112325009], [-1.1705808187550706, 41.482921501276984], [-1.170395419919498, 41.48271247334399], [-1.1700888297541625, 41.48253682360511], [-1.170040323772954, 41.48237500810321], [-1.1700349207592269, 41.48201797823912], [-1.1699927788004585, 41.48194498206277], [-1.1697407018756933, 41.48187954285923], [-1.1694460005989311, 41.48186890711666], [-1.1692402457747444, 41.48191516938458], [-1.1690478615882762, 41.4818906697305], [-1.1687900577817085, 41.48175218127933], [-1.1683581891648496, 41.48161073953897], [-1.1680375519739967, 41.481372893040295], [-1.168118543279876, 41.481316719268634], [-1.1681980912761893, 41.48143507637954], [-1.1683735129149388, 41.48156847101401], [-1.1687306891359168, 41.48168701652046], [-1.169151730532986, 41.48188124510693], [-1.1694034067790275, 41.481837515461145], [-1.1697355724724952, 41.481831994791875], [-1.170029779022394, 41.48190702133366], [-1.1700866719018455, 41.482013397679296], [-1.1700980378005834, 41.482384122871466], [-1.1701494544910174, 41.4825063542634], [-1.1703783854435286, 41.4826240246457], [-1.1705850874091055, 41.48283789499468], [-1.1708751323103608, 41.48335058900247], [-1.1710989107999832, 41.48363030036349], [-1.1718038446614898, 41.48419930839409], [-1.1719621484689258, 41.48439250147764], [-1.1721293269320336, 41.48445325371937], [-1.172246764477364, 41.48445980410164], [-1.1735483991559867, 41.48431872277403], [-1.1740930139640289, 41.484148585065505], [-1.1743731612425266, 41.483982622546186], [-1.1742688644067911, 41.48408823888968], [-1.1742344650364243, 41.48443031557292], [-1.1739761182363173, 41.48462175321467], [-1.17403896683058, 41.48533952111422], [-1.1741788261629469, 41.48546900961409], [-1.1744405731086756, 41.48553198064887], [-1.175241365549204, 41.48555099646745], [-1.1756347717267348, 41.48547239387265], [-1.175902397880699, 41.485453942329265], [-1.1755015707353393, 41.48523357882665], [-1.1751242835092208, 41.48507933796605], [-1.174714548949743, 41.48460897867297], [-1.1747398103385176, 41.48454966385447], [-1.1749606241020902, 41.48434258722689], [-1.1750813216147464, 41.484087895961835], [-1.1752174299802176, 41.48406934013584], [-1.17536213230841, 41.483949412626664], [-1.1754704485441894, 41.483982205222524], [-1.1757761299121123, 41.48418673842525], [-1.1759250938475292, 41.48423936017535], [-1.1760653710437259, 41.484247259729095], [-1.1762002053469727, 41.48420580497397], [-1.176254613090228, 41.48413218076527], [-1.1767117676175505, 41.484453771835405], [-1.1769949299867828, 41.4847012679745], [-1.1774312041151314, 41.4852541733036], [-1.176994959665598, 41.48470127745195], [-1.1767117972962107, 41.48445378131292], [-1.1762582995894852, 41.48413440990114], [-1.1764814658869664, 41.48310927421713], [-1.1769965471936092, 41.482945229318084], [-1.1771692161133591, 41.483083610820934], [-1.1772786851048096, 41.483113717914065], [-1.178634758312971, 41.48314872075821], [-1.1790877979097454, 41.48323677803272], [-1.1792482746721757, 41.48309214621887], [-1.1797992038564975, 41.48197735032554], [-1.1798897166142641, 41.48189754067782], [-1.1800805701175858, 41.48185705809438], [-1.1801765613887012, 41.48147019902322], [-1.1803820200948436, 41.48130150841799], [-1.1803179701040034, 41.48108243733995], [-1.1803445517074644, 41.481005668697016], [-1.1805133721065286, 41.4808495481386], [-1.1812193740295127, 41.48039758594628], [-1.181048725271347, 41.4808161402879], [-1.1809112978291114, 41.48103607241601], [-1.1810421661069854, 41.4812814195483], [-1.1810217586366492, 41.48156994861082], [-1.181083254834222, 41.48169629770555], [-1.181169710196348, 41.48175269753242], [-1.1814937528704126, 41.48184915283175], [-1.1817020405537688, 41.482756471039266], [-1.181736333986905, 41.483059015251115], [-1.181600618796152, 41.48376562337523], [-1.181700210039833, 41.48377215207771], [-1.1821245234341247, 41.48353441333583], [-1.182392050561056, 41.483339409491556], [-1.1824846103473456, 41.48317325383309], [-1.182530351029226, 41.482908272752134], [-1.1827966004462291, 41.482617418629054], [-1.1830127356133817, 41.48252518066108], [-1.1837631541198215, 41.4823226714174], [-1.1841916747051413, 41.48209643015257], [-1.1844048526402524, 41.48193002039383], [-1.18455079625222, 41.48137038290411], [-1.1846169035353753, 41.48085623069546], [-1.185004099022183, 41.48108004023962], [-1.1853101444849765, 41.4811133324075], [-1.1852684576314025, 41.48140539946788], [-1.185287472716132, 41.48150063251338], [-1.185399638353353, 41.481597245518515], [-1.1855142171265534, 41.48156446703453], [-1.1857488611372675, 41.48157699622681], [-1.1858446461438932, 41.48160823030604], [-1.1859382938797796, 41.481728959386984], [-1.1859560568526473, 41.481809221078926], [-1.1859067612561371, 41.48189734169186], [-1.1855847657249072, 41.482130764552466], [-1.1851169209797372, 41.48232828878114], [-1.1851324164776336, 41.482485253758014], [-1.1852003475741726, 41.48258756368915], [-1.1853203567445467, 41.48263494263465], [-1.1856430732769911, 41.48256897057076], [-1.1857937497721294, 41.48267627858485], [-1.1864157501032693, 41.48244848794732], [-1.186524407010703, 41.482267545788645], [-1.1868432367693642, 41.48207883476857], [-1.1871932133199845, 41.48177406432071], [-1.1873375185202293, 41.48171896514433], [-1.187488629832305, 41.48148005170908], [-1.1880125188134902, 41.48105886280313], [-1.1883458110036258, 41.4809140590128], [-1.1885998767679316, 41.48091725095848], [-1.18807600850164, 41.48022951491533], [-1.1889660010405492, 41.47978742929057], [-1.189364746330299, 41.4796487872726], [-1.189527182388433, 41.479518672882456], [-1.1900013626056776, 41.479840839798314], [-1.1901070026866194, 41.47974603841294], [-1.1901703718297139, 41.479577795654144], [-1.1901632180659267, 41.47947356298191], [-1.1900998530500635, 41.47935763725448], [-1.1896223379934139, 41.47904802792914], [-1.1892603051348418, 41.47918454691507], [-1.1891609769301108, 41.47919460167687], [-1.1888426169432063, 41.4791134791826], [-1.1884893320013958, 41.47930156306467], [-1.1891172377043788, 41.47817243719878], [-1.1897224576220484, 41.478222592528134], [-1.1899988697804937, 41.47816695760967], [-1.1901809095157947, 41.47805975820711], [-1.1903917392497323, 41.477989399583414], [-1.1907544966421186, 41.47805446345316], [-1.1915206140857753, 41.4780683163939], [-1.1921704523988095, 41.47803881873503], [-1.1926010793848982, 41.47812665049173], [-1.1931020663409182, 41.47815686107967], [-1.193490169980016, 41.477986513146725], [-1.193228330018543, 41.477966096742094], [-1.1926652304471028, 41.477732164460946], [-1.1927972676895966, 41.4777215398905], [-1.1932438218597619, 41.47791716231176], [-1.1946390971692227, 41.47798627772308], [-1.194597354341491, 41.47790230822245], [-1.1946107635441208, 41.4777514724998], [-1.1956028250794095, 41.47691310115648], [-1.1962770102764113, 41.477196678508655], [-1.1976082131522023, 41.47763241583755], [-1.1977722800786779, 41.47765444234146], [-1.1981912321138388, 41.47763236572914], [-1.1991644364857963, 41.47750746310283], [-1.1994776294715948, 41.47742068142625], [-1.2002922948991521, 41.47707811097901], [-1.2003837552585024, 41.476270809471984], [-1.2001761389525014, 41.47617803110354], [-1.1998076394595523, 41.4760738169614], [-1.198638991765603, 41.475849166777344], [-1.1985683451990568, 41.47580978057407], [-1.1985139172187116, 41.47555259045225], [-1.1981219562675651, 41.475374686889964], [-1.1979014747421617, 41.47531421787583], [-1.1978866224541445, 41.47521508893688], [-1.19861216889479, 41.47536084076256], [-1.1994449488541483, 41.47558266446641], [-1.2000846248851182, 41.475681131524084], [-1.2001464770370087, 41.4756661573774], [-1.1999629472760338, 41.47558159166479], [-1.199568748157035, 41.475510565843244], [-1.1993208032371476, 41.475408147557516], [-1.1990372462153205, 41.47535488929644], [-1.1987716033413998, 41.47526020882223], [-1.19817363957304, 41.47517797459014], [-1.1979666559140674, 41.475097181383774], [-1.1978646446464978, 41.4750228066528], [-1.1983271752056515, 41.474611952377565], [-1.1988251261872094, 41.47437035098614], [-1.1992483907532179, 41.47393672529208], [-1.1994235712166705, 41.47379058372373], [-1.1998214932805265, 41.47357569340858], [-1.1999464444467507, 41.473466143491656], [-1.1999447184831096, 41.473364067823404], [-1.2004326576451507, 41.47302494208048], [-1.2010833768670575, 41.472732130078136], [-1.2018093035337754, 41.47256037285621], [-1.201474867552046, 41.473783689676374], [-1.2031042782706578, 41.474603304972334], [-1.2029604460327639, 41.474339135435486], [-1.2029592290298485, 41.47427048351577], [-1.2031036662797339, 41.47419672653568], [-1.2033234455015605, 41.47418728073416], [-1.2034098405981564, 41.474142154747234], [-1.2034334254406165, 41.473986342833975], [-1.2033366825397556, 41.47381667170906], [-1.203402123764044, 41.473216840941774], [-1.2038137115175656, 41.47299197236699], [-1.2039085579359603, 41.47289680931454], [-1.2040157603426485, 41.47262737913439], [-1.204393393810881, 41.47261283072624], [-1.204454260769768, 41.472854446730594], [-1.2046595234011839, 41.47317964990542], [-1.2049111692643446, 41.47348188851752], [-1.2051891907929213, 41.4737096004737], [-1.2078092570839272, 41.47249354997126], [-1.2075576838236293, 41.47201469699511], [-1.2073791356406205, 41.471545353813134], [-1.2072414117408963, 41.47137612785851], [-1.207117490720216, 41.471084352221055], [-1.2060894796679285, 41.46942833426253], [-1.205726557612699, 41.46910121401339], [-1.2054509784929996, 41.46892037753448], [-1.205343071555332, 41.468790614687514], [-1.2052584852170558, 41.468531965950355], [-1.2052012664628173, 41.46803659123202], [-1.2049581099722009, 41.46761397256965], [-1.2048135750684466, 41.4671847867407], [-1.2046032729752674, 41.46679114215406], [-1.2040845751706544, 41.46566681080165], [-1.2038005367271347, 41.465346320499684], [-1.2037437494280414, 41.46466684941949], [-1.2035142927729454, 41.463874796042184], [-1.2032952363633476, 41.463569010156796], [-1.2030192973697431, 41.46332835599922], [-1.2028890946439488, 41.46308313346788], [-1.2026276245543872, 41.46196831339803], [-1.202591548574116, 41.46138481908336], [-1.2024483572600049, 41.46102482444961], [-1.2021270027523876, 41.460513159304234], [-1.202034235689609, 41.4604211889934], [-1.2019015532171111, 41.460339492926494], [-1.201452697167329, 41.46020862808499], [-1.2010942937580995, 41.46004143279717], [-1.2006959485505513, 41.45954342074909], [-1.200463472204344, 41.4593385675927], [-1.2000565984481135, 41.45906244147843], [-1.2000191623441248, 41.45902204475621], [-1.2000558757028819, 41.45900199344956], [-1.200675572982958, 41.45948788926863], [-1.2011202865262722, 41.460032382085835], [-1.20147367801517, 41.46019463514955], [-1.2018008647352296, 41.46027856265593], [-1.202018961399523, 41.460384652128546], [-1.2021827210769531, 41.46053330528297], [-1.2023987436248302, 41.46088336019116], [-1.2025515409818988, 41.46116865719411], [-1.2026144821336642, 41.461373828760486], [-1.2026599117834018, 41.46196548545622], [-1.2029152752288028, 41.463071653415504], [-1.2030395072084887, 41.4632989488415], [-1.20335483497712, 41.46360029475418], [-1.203529950191518, 41.46385414450066], [-1.2037872567601215, 41.46473454075677], [-1.2038105874108234, 41.46528153733728], [-1.203851887362698, 41.46538170927703], [-1.2041403274734397, 41.4657032589569], [-1.2045929901123125, 41.4667255010535], [-1.20482317975504, 41.46715350241051], [-1.2049741428883198, 41.467592966428725], [-1.2052355874516838, 41.46804262113785], [-1.2053074809875186, 41.46855299626769], [-1.2053762839281255, 41.468780414737815], [-1.205559641765887, 41.468966297363366], [-1.2057875028933869, 41.46911450445878], [-1.206103783222048, 41.46940468897641], [-1.2071385973564348, 41.47107891684859], [-1.2072691411893506, 41.47136503126542], [-1.2074011113510499, 41.47153011436691], [-1.2075869907416423, 41.472011551030704], [-1.207834652241031, 41.47248025970076], [-1.208136677093439, 41.473162554536174], [-1.208461193404869, 41.47363263950871], [-1.208674379277706, 41.473858162045616], [-1.208777462234466, 41.473907054274896], [-1.208781183128448, 41.47387630847773], [-1.2088232632293388, 41.473896423454626], [-1.208803085773075, 41.47337253533456], [-1.2088651874583696, 41.473291809641495], [-1.2090356841675691, 41.47324555746476], [-1.2090788693014674, 41.473334047787496], [-1.209354398840643, 41.47347443360109], [-1.2094999359370573, 41.47376456183003], [-1.209972832307236, 41.47421362483088], [-1.2101854084806676, 41.474461562381315], [-1.210253317294679, 41.473691444524654], [-1.210338053431358, 41.47365853692961], [-1.2102941231314033, 41.4738360106449], [-1.210291436636828, 41.47414256531971], [-1.2103361950076104, 41.474130652193175], [-1.21030192384951, 41.474144439859565], [-1.2103088953037815, 41.47419552768111], [-1.2105053584151406, 41.47464154683254], [-1.2111232225180826, 41.47513690495221], [-1.2112077172872986, 41.475300074192646], [-1.2113024374609467, 41.47540476720796], [-1.211614851405237, 41.47554572134795], [-1.2116609449716558, 41.475668212108914], [-1.211740340739449, 41.475759696435695], [-1.2119822475318796, 41.47589955308397], [-1.2122072074798016, 41.475963217197965], [-1.2123177520490396, 41.476098148529566], [-1.2126714085087196, 41.47619390011542], [-1.2128882442450168, 41.476039198326504], [-1.2131037976255208, 41.47593527537026], [-1.2137317243253598, 41.47572571210189], [-1.2137908987478478, 41.47590406815047], [-1.2139201772873303, 41.47598056366461], [-1.2143468849163022, 41.47609833634557], [-1.2146153114142832, 41.47610566125181], [-1.2146962754652353, 41.476079537172744], [-1.2148403752443668, 41.47587353368948], [-1.2149907911540276, 41.475241419275655], [-1.2148164719405654, 41.47472504691587], [-1.2148264807042888, 41.474521825383036], [-1.2151675271988767, 41.47382503213836], [-1.2154069050980274, 41.47359024328706], [-1.2156519612830217, 41.47345398801019], [-1.2163034308775174, 41.473257925928166], [-1.2172011109336272, 41.47305793605417], [-1.2179028536901229, 41.47281022378486], [-1.2182348074841145, 41.47260100673533], [-1.2185757069604033, 41.47232743299432], [-1.2190314357527885, 41.471468653391064], [-1.2193596716707944, 41.471071130022615], [-1.219606282559416, 41.47047508506573], [-1.2201390453465355, 41.468651771576894], [-1.220240601249552, 41.46858579117642], [-1.2196779618625355, 41.47045511853322], [-1.219484018112136, 41.47093416813595], [-1.2194420187746318, 41.47113833603361], [-1.2194952997364377, 41.471501600958135], [-1.2197358400071825, 41.47204105886496], [-1.2198266618858244, 41.47283092924806], [-1.219854746296882, 41.47343212786674], [-1.2200434104333218, 41.47445823822171], [-1.2200352995344537, 41.47470211101448], [-1.2200005975439934, 41.47482776125659], [-1.2197613218782255, 41.475238642664806], [-1.2197256305100321, 41.475588550571445], [-1.219542998514198, 41.47576315988945], [-1.219481962278396, 41.475866605382066], [-1.219638896430688, 41.47592181595471], [-1.219964444468766, 41.47588119056086], [-1.2200527273740862, 41.47590678581609], [-1.2200021947527926, 41.47574045586174], [-1.2219560735483779, 41.47603954604585], [-1.2220701568650292, 41.47592331892099], [-1.2222206560445124, 41.47584161088486], [-1.2230784596936095, 41.475834788375074], [-1.2235029197085932, 41.47561932520936], [-1.2240883401670692, 41.47523287697839], [-1.22414758713848, 41.47510256063845], [-1.2241697980170918, 41.4748551223298], [-1.2242796896779855, 41.474677040521165], [-1.2246456156142655, 41.47489426396079], [-1.2249112834849545, 41.4752085647913], [-1.2250939976268331, 41.47524957461868], [-1.2257282548344872, 41.47555659214205], [-1.2257995326521696, 41.47514778538841], [-1.225926012006711, 41.47495438039463], [-1.22642433059677, 41.47435770049155], [-1.226485437228487, 41.4741899426459], [-1.2265856321077804, 41.47362513041372], [-1.2265710915379278, 41.47338559129756], [-1.2266969261457257, 41.472952049916834], [-1.2267088071532417, 41.47257817412321], [-1.2268902011508724, 41.47166613428477], [-1.2269386792940464, 41.47151340315344], [-1.227143749863977, 41.47115142718678], [-1.2277607937065003, 41.47018674536015], [-1.2279446859431806, 41.47000403581466], [-1.2289596794445732, 41.46923544032093], [-1.2295045702577507, 41.468676036242606], [-1.229834298350221, 41.46838802562741], [-1.2306842259601565, 41.46779160416227], [-1.232073069358188, 41.46645679384695], [-1.2324566013877976, 41.46589786231212], [-1.2328850360322057, 41.46516236218955], [-1.2334387714930277, 41.464415999842664], [-1.2336776462052612, 41.463997512177606], [-1.2337364842483547, 41.46378873349176], [-1.2344551672236088, 41.46225840997656], [-1.2348289351812431, 41.461161878053026], [-1.2349816913385352, 41.460615877666314], [-1.2350541337723537, 41.45995398555876], [-1.2349820561013423, 41.45945992717587], [-1.2349609678060443, 41.459028083447144], [-1.2351952576772645, 41.45838921093339], [-1.2354573588186804, 41.45785488534232], [-1.2355959291248528, 41.45764570755514], [-1.235804450627588, 41.457440034595365], [-1.2367554117386483, 41.45682773721975], [-1.2370206920763107, 41.45659942399109], [-1.2374742248817956, 41.4559496807011], [-1.2376131533073709, 41.455669620850415], [-1.2376676990430073, 41.45546824981213], [-1.2379878373954691, 41.45523428987826], [-1.2384674370938822, 41.45458503189486], [-1.2413048027190765, 41.44957986908174], [-1.2414749165951429, 41.44913689403473], [-1.2414883118346731, 41.44862369974595], [-1.241450911958266, 41.44847928604351], [-1.241305233563797, 41.448058322833134], [-1.240943117473209, 41.44729187757388], [-1.2405852648605844, 41.44658502814007], [-1.240221923442162, 41.446023736837], [-1.2400574874393362, 41.44570354352389], [-1.2399691109131519, 41.44535956457207], [-1.240056380812196, 41.44534612859636], [-1.2419805177060792, 41.4480396890086], [-1.2422257254656968, 41.44676773539158], [-1.2422944989751035, 41.44626043560755], [-1.2442221887527034, 41.44546970759779], [-1.2449137652864997, 41.446662433375906], [-1.245707446982933, 41.44624031942914], [-1.2434371495586822, 41.44276489424272], [-1.244017206944377, 41.44250381651331], [-1.2444553553557842, 41.44310118530596], [-1.245529898770584, 41.44443413750962]], [[-1.2217708018011457, 41.48545910271461], [-1.2214107290012204, 41.48443565964768], [-1.2213802617951555, 41.48415723423633], [-1.2213962734483468, 41.48384359004776], [-1.2213209721092377, 41.48316393695478], [-1.2214197488158012, 41.48281086154636], [-1.2216986434043104, 41.48244544003484], [-1.2219881859925545, 41.48217232348228], [-1.2222019477106054, 41.48155631564818], [-1.2226531778238505, 41.480748973178564], [-1.222905500793448, 41.47974724742675], [-1.223090360067767, 41.47932903387856], [-1.223158808402031, 41.47924353480399], [-1.223169411550824, 41.47916668924129], [-1.2225830003598028, 41.47867287257984], [-1.2222748983691434, 41.47846914632414], [-1.2219496631413238, 41.478379628130526], [-1.221193037331402, 41.47832045963936], [-1.220561434506852, 41.47823556959754], [-1.2203648873286568, 41.478170289923774], [-1.2194260768773812, 41.4781644889603], [-1.218979035970559, 41.4782283604756], [-1.218798627032507, 41.47831707666049], [-1.2182351686241437, 41.47843786719416], [-1.217530972704384, 41.47855439736059], [-1.2170777601275247, 41.4785417868943], [-1.216967349643578, 41.47866356014223], [-1.2169543414350075, 41.47874901448078], [-1.2170653078819351, 41.47892150674989], [-1.2165805464361759, 41.478779605836166], [-1.2168273406345314, 41.478733264501926], [-1.2169054944908584, 41.478656836557874], [-1.2162320681316623, 41.47846814467451], [-1.216062081320278, 41.478456410641876], [-1.2154291023181487, 41.478552596206335], [-1.2142863770167924, 41.47848378682373], [-1.2138629538063632, 41.478720753823936], [-1.2134746138280048, 41.478757594140546], [-1.2123559754004176, 41.47865338221507], [-1.2122001389781074, 41.47865843522556], [-1.2118759020123946, 41.47873346092179], [-1.2109745216392276, 41.47905557971478], [-1.2107560829076929, 41.47916810033146], [-1.210294975770026, 41.4796376573744], [-1.2103127697902558, 41.479487428362795], [-1.210516943564638, 41.47933190364613], [-1.2106812136967586, 41.47910766967253], [-1.2111352701753098, 41.47888091402384], [-1.2116457817131538, 41.478726459622365], [-1.2118539641624007, 41.47862530668919], [-1.21202024951112, 41.47848414609131], [-1.2124230266201512, 41.47848869684422], [-1.212647738841447, 41.47857892673974], [-1.213646352830663, 41.478631643068425], [-1.2140290576520125, 41.47857318805058], [-1.2140437279875989, 41.478470741253474], [-1.213855228516627, 41.47841791047297], [-1.2135511360683136, 41.47842678708094], [-1.2128797182809987, 41.47821360791599], [-1.212619954555119, 41.47807815920985], [-1.212264020437398, 41.47771198811207], [-1.2113577565685836, 41.477250520158115], [-1.2111341197609853, 41.477021057133335], [-1.2107560668448547, 41.47712397466172], [-1.210676892470072, 41.477233167810375], [-1.210627712661896, 41.475813363020116], [-1.2101687337992546, 41.475832610311315], [-1.2100583638815148, 41.47543062372933], [-1.209106236300157, 41.475361933064576], [-1.2091615617063494, 41.47624439438105], [-1.2090593946049732, 41.476779256738], [-1.2090169447064383, 41.47773756018886], [-1.2091693016347522, 41.478432476738504], [-1.2088347158454922, 41.47942172166246], [-1.2086570469079145, 41.48020993881303], [-1.2086195715383885, 41.4805136093423], [-1.2086479766249119, 41.48097790909519], [-1.2085796487732505, 41.48148825845542], [-1.2086004053142558, 41.48155217078771], [-1.2090729193411989, 41.4815171984909], [-1.2092891274853568, 41.48139473879671], [-1.2101124889742387, 41.48048426136955], [-1.2102334736396587, 41.480222781645175], [-1.210239231513179, 41.47975703239098], [-1.2107229831007633, 41.47923063387382], [-1.211108580633571, 41.47903262604866], [-1.2120894157043862, 41.47869976238724], [-1.212423653114104, 41.478692263474635], [-1.213469600165036, 41.478787509364814], [-1.2141261776356398, 41.478734749807906], [-1.2163445430974429, 41.478760003049764], [-1.2172167217307006, 41.47899915239549], [-1.217737686302987, 41.479008849397765], [-1.2179972445854175, 41.47903430859783], [-1.2182177512490995, 41.479095009751155], [-1.2187039188908901, 41.479299258122325], [-1.2188350125653686, 41.479397392906506], [-1.2190508131253703, 41.47958627846393], [-1.2194818567566725, 41.480093469520476], [-1.219679401167959, 41.480551018557286], [-1.2196901913843181, 41.480922267183274], [-1.219739188473974, 41.48122791078659], [-1.2200792465054184, 41.48194418310168], [-1.220272004759847, 41.48249379795399], [-1.2206065145474287, 41.483120003410946], [-1.220701403555964, 41.48348210963374], [-1.2208066967241378, 41.48424734721548], [-1.2209031988573875, 41.48451994920777], [-1.2211881543827865, 41.485044778623646], [-1.2214332770001397, 41.48533156831829], [-1.2217708018011457, 41.48545910271461]], [[-1.2420075855916501, 41.4611745843763], [-1.2408769376677782, 41.46317899300432], [-1.2413410932713649, 41.46345170808668], [-1.2414366678281883, 41.462835475360514], [-1.241705124656467, 41.46227745450478], [-1.2418912483720084, 41.46179734566359], [-1.2419661308006777, 41.46152990217606], [-1.2420075855916501, 41.4611745843763]], [[-1.239906312817644, 41.46453761118791], [-1.2393469366448002, 41.4653493138028], [-1.2407259955426613, 41.46620437544459], [-1.2408468250973175, 41.46589431226252], [-1.2409031679413747, 41.46564838295884], [-1.2409030065691313, 41.46516317458101], [-1.239906312817644, 41.46453761118791]], [[-1.231148723685895, 41.468724756326374], [-1.23116588740448, 41.46896091280979], [-1.2310979628500502, 41.469217106965225], [-1.2306414659347737, 41.47014581772877], [-1.2305260517531755, 41.4702505041872], [-1.2305672192938868, 41.47036597194074], [-1.2306935352059234, 41.470428446810274], [-1.2309226232772794, 41.47047241259775], [-1.2303381833647247, 41.47054880161649], [-1.2303120217814159, 41.47074871389547], [-1.2303449007898821, 41.470926747136325], [-1.230600020633501, 41.471699507303924], [-1.230659448089441, 41.472090062896314], [-1.230559479315888, 41.47260372291993], [-1.2303298306064943, 41.473270752763234], [-1.2302280835203134, 41.47366495272938], [-1.2302475243927105, 41.47402859267947], [-1.230703626211019, 41.475478165716154], [-1.2309782052777938, 41.47622753569239], [-1.2322432204207006, 41.47650666014102], [-1.2321329466456166, 41.476708071739445], [-1.2321501386010512, 41.476771745019846], [-1.2326629303795749, 41.476962648750515], [-1.2329966202360565, 41.477177458784915], [-1.2330651531684902, 41.47726020496286], [-1.2326905341111956, 41.477766403412396], [-1.2326550704010601, 41.47785502722167], [-1.2334383772325144, 41.47829876687734], [-1.2341348649659771, 41.47728772000137], [-1.2345940424700423, 41.47654277951602], [-1.233903796017241, 41.47614785357238], [-1.2346553291267102, 41.47516818205517], [-1.2354648979505438, 41.47547756704249], [-1.2353782012577037, 41.47390677812282], [-1.2353081362280967, 41.47325413921381], [-1.2354466044959362, 41.47272377235308], [-1.2348142970337892, 41.47244548033211], [-1.2337394395153098, 41.471896123976876], [-1.2330706234826863, 41.47147251520547], [-1.2322731984649344, 41.471044588303414], [-1.2327893527044904, 41.469607988873726], [-1.2311192107653137, 41.46850237067563], [-1.2311035250675018, 41.46861660795408], [-1.231148723685895, 41.468724756326374]], [[-1.2308010884094698, 41.47708956415308], [-1.2308646744962204, 41.47668504929193], [-1.230865868164952, 41.47618788817002], [-1.2306226887347234, 41.4755170013273], [-1.2301426679963836, 41.473978251232154], [-1.2301433208886807, 41.473707782284364], [-1.2302677457918836, 41.47321098185093], [-1.2304732795100835, 41.47258960662141], [-1.230524849347317, 41.472305329827066], [-1.2304450066575068, 41.47205776080038], [-1.230318280527218, 41.47181217230481], [-1.2302213455230202, 41.470696969484926], [-1.2302650054783382, 41.47048750893106], [-1.2308046717018748, 41.469319237559034], [-1.2309901668348382, 41.468315742790004], [-1.231471816398457, 41.467368506987874], [-1.2320398715529544, 41.466562675613346], [-1.2306508767335802, 41.46789043791183], [-1.2298078501389484, 41.46847984984145], [-1.2288639621315316, 41.46938195057937], [-1.2281215163780772, 41.46991326832707], [-1.2277326052039648, 41.470342311533095], [-1.2272001280404148, 41.47116994999507], [-1.2270135885969622, 41.47150230866756], [-1.2269534210941058, 41.47167530539952], [-1.2266578481012709, 41.47334415068017], [-1.2266554349845256, 41.47359936615322], [-1.2265571682722631, 41.47426895909663], [-1.225976756867903, 41.474990740736736], [-1.2258512793174337, 41.475200108055844], [-1.2257648358663944, 41.4756380390147], [-1.2257078416697487, 41.47647543681207], [-1.2256617457195198, 41.47673835906662], [-1.2255451400945703, 41.477043786911885], [-1.2250412237183033, 41.47785743923317], [-1.22564480920265, 41.47805626062687], [-1.2259837974026255, 41.478032492972176], [-1.2262010443753968, 41.47780031255442], [-1.226326600567621, 41.477592387281575], [-1.2268195652362945, 41.47708290077886], [-1.2280152763801069, 41.47606022320734], [-1.2285358071776846, 41.476357456556684], [-1.227203137895751, 41.47782621408929], [-1.2269262850311455, 41.47806153048149], [-1.2281332853058142, 41.478013578309316], [-1.2289370774788488, 41.47793291910289], [-1.2293431253848979, 41.47795781662527], [-1.229894812926082, 41.47806178851435], [-1.2308335416117577, 41.47812343136378], [-1.2307884355618868, 41.47740037964343], [-1.2308010884094698, 41.47708956415308]], [[-1.2418494361889196, 41.4485190698617], [-1.2420538009144966, 41.448416721899584], [-1.241936445248524, 41.44847549466572], [-1.2418494361889196, 41.4485190698617]], [[-1.242482966438526, 41.450820350534286], [-1.2425116835878411, 41.45100079878204], [-1.2424396376483238, 41.45054808678959], [-1.242482966438526, 41.450820350534286]], [[-1.2405522735785581, 41.460016542631905], [-1.2389804756554805, 41.45905927038799], [-1.2373590102482654, 41.45800546668122], [-1.236664129983065, 41.45959850319418], [-1.239857791991577, 41.46141559388394], [-1.240094449072251, 41.460829438538994], [-1.2405522735785581, 41.460016542631905]], [[-1.2393164456827106, 41.47821401734212], [-1.2401530725014391, 41.477845023745125], [-1.2401687456947867, 41.47778365600254], [-1.2400552803706757, 41.47755989790648], [-1.2398009433036374, 41.477226350254135], [-1.2397862627472613, 41.4769459189855], [-1.2396697644262056, 41.476807770265], [-1.2395687022185227, 41.47675398275781], [-1.2386183822486632, 41.476841924940665], [-1.2380190671113989, 41.4767805931115], [-1.23770067321087, 41.47671212489735], [-1.2376056584172237, 41.4765989824126], [-1.2374807794582106, 41.4765269942716], [-1.2373917577537576, 41.47649743798868], [-1.2372000912097876, 41.47649909349812], [-1.2373879934209253, 41.477364836060765], [-1.2369533517603923, 41.477391859003106], [-1.2367284617851182, 41.47837962648754], [-1.236615946147695, 41.47870827629622], [-1.2371367158600155, 41.47869869754076], [-1.2381067767429699, 41.4787449991908], [-1.238165909974502, 41.478613773148034], [-1.2393164456827106, 41.47821401734212]], [[-1.218580752742588, 41.477124964707514], [-1.2192034854257965, 41.47634839821777], [-1.2194294192537642, 41.475751673739374], [-1.2195534664494716, 41.475647852861954], [-1.2196418632814643, 41.4755205121722], [-1.2197006280194913, 41.47513709537525], [-1.2198320830422968, 41.474950709553994], [-1.219953695713895, 41.47469508339074], [-1.219934542003705, 41.47438431724566], [-1.2198168696192013, 41.473721925698634], [-1.2197504075174848, 41.47369991058899], [-1.21945768573109, 41.473788600435846], [-1.219164378098529, 41.47394240072854], [-1.2186991709546164, 41.47425917091428], [-1.217855055971052, 41.475077973962186], [-1.2177808612737044, 41.475045299742945], [-1.2186535188157195, 41.474220904736285], [-1.2191531208795758, 41.47388115925258], [-1.2194331055123953, 41.47374156381635], [-1.2197918354502717, 41.4736348011834], [-1.219668318795584, 41.47208405753386], [-1.2196507327296295, 41.47199173417648], [-1.2194123459261588, 41.471487166357434], [-1.2193873600908438, 41.47122332598822], [-1.2192165983417051, 41.47134533799577], [-1.219054821247313, 41.471541791778044], [-1.2187236711338065, 41.47221569704372], [-1.218638029954987, 41.472325606300906], [-1.2185086623002606, 41.47246230929421], [-1.2181563194040796, 41.4727339041176], [-1.2174518887831791, 41.473036063842805], [-1.216059111157516, 41.47336762352555], [-1.2154346507399194, 41.47361346145997], [-1.2152745355960064, 41.47377490303185], [-1.2149891685999805, 41.47425387218871], [-1.2148951996255843, 41.47456630567233], [-1.2148960765391892, 41.47470889929123], [-1.214980414206439, 41.4750349990728], [-1.215041308413596, 41.475211669885155], [-1.2151132069014021, 41.47527124100175], [-1.2156148580242512, 41.47552545658139], [-1.21597619140009, 41.47554682517053], [-1.2161252416517863, 41.4754876245392], [-1.2162630777588497, 41.47550543480924], [-1.2164555825966812, 41.47569126181962], [-1.2167882096557774, 41.476147938784855], [-1.216877889860704, 41.476231743028144], [-1.2169859503628913, 41.476269806696095], [-1.2177073240140919, 41.47615029896357], [-1.2179626480521553, 41.47619875036412], [-1.218580752742588, 41.477124964707514]], [[-1.2116518548184183, 41.476311977259265], [-1.211550954810762, 41.476723106209505], [-1.2114938462532325, 41.4768051719435], [-1.211299758819013, 41.47688609776498], [-1.2113405316088854, 41.47703201398748], [-1.2114043405608652, 41.47705471324021], [-1.2114209887688001, 41.4771200023224], [-1.2115348753334843, 41.47722922650755], [-1.2117441008363157, 41.47729904174206], [-1.2118703352126938, 41.47740350380067], [-1.2122311746447458, 41.47758673129494], [-1.2126531438918984, 41.47796870031723], [-1.2129307783771421, 41.478120639178215], [-1.213209212166388, 41.47821737722958], [-1.2140316872334422, 41.47830320523567], [-1.2144011590890538, 41.47837766606496], [-1.2153986245757116, 41.47847196140636], [-1.215530072777805, 41.478474001353604], [-1.2159498346524689, 41.47837873616732], [-1.2162492711661432, 41.47838239521106], [-1.216066455036499, 41.478100704177145], [-1.215940352321897, 41.477969317981255], [-1.2156169726033776, 41.47781280352476], [-1.2145583678276473, 41.477437440339855], [-1.214146208291732, 41.477256215266564], [-1.2141444876372316, 41.477174945899364], [-1.2140549716240137, 41.477059077369965], [-1.2136298696044892, 41.47687827992385], [-1.2133720873497091, 41.4767972656374], [-1.2131197090161308, 41.47679856815664], [-1.2116518548184183, 41.476311977259265]], [[-1.221417451673057, 41.47656667963858], [-1.221437487163643, 41.47649970760743], [-1.221375102686064, 41.4764729828167], [-1.2209938205473392, 41.47645384450321], [-1.2204681246005962, 41.47636392276909], [-1.2202586776568976, 41.4762275585929], [-1.220089844168945, 41.47600778783616], [-1.2200854070825562, 41.47632287234348], [-1.2201725607411216, 41.47662586408201], [-1.220611316169743, 41.47669804472533], [-1.221103251385248, 41.47666062568786], [-1.221417451673057, 41.47656667963858]], [[-1.1774354086053929, 41.48525993040975], [-1.1774471654003633, 41.48525480517759], [-1.1774354086053918, 41.48525993040975], [-1.1774354086053929, 41.48525993040975]], [[-1.1980073785102259, 41.478635014327956], [-1.1978667964409988, 41.47851743237401], [-1.1975505577634487, 41.47845023788812], [-1.1961246525136213, 41.478366811109446], [-1.1959757465335494, 41.47832493464569], [-1.1957293655551449, 41.47816596963313], [-1.1955486753373876, 41.47820348088192], [-1.1957793582343998, 41.47836706371633], [-1.1957661049402395, 41.47858554407742], [-1.196116475966659, 41.47872182617663], [-1.1964336545779495, 41.47878966983379], [-1.196563525690922, 41.47888312710326], [-1.196681676526477, 41.47891983689092], [-1.1970513498386983, 41.47897778383482], [-1.1973304187218428, 41.47889533226872], [-1.197428223891114, 41.47889695557354], [-1.1978678435985861, 41.47903264534831], [-1.1980073785102259, 41.478635014327956]], [[-1.180542097108596, 41.48376337560473], [-1.1807583663878936, 41.4836111579905], [-1.1808095300066295, 41.483422106178914], [-1.1808070011208853, 41.482789420370956], [-1.1807617338474374, 41.482724935222485], [-1.180383507985964, 41.48261735255895], [-1.1801574451630366, 41.48261908906906], [-1.1800058711058623, 41.48286491618511], [-1.1797977892112215, 41.48340050626245], [-1.17980991818304, 41.483557688790675], [-1.1800939986800671, 41.48375106033726], [-1.1802609337579468, 41.484154329893165], [-1.1803964096023798, 41.48405154326431], [-1.1804497277151336, 41.48389683756864], [-1.180542097108596, 41.48376337560473]], [[-1.181796336743891, 41.485088406987785], [-1.182144216579406, 41.485223786994496], [-1.182292145949461, 41.48524513467008], [-1.182446383277642, 41.485207942349], [-1.182619726421385, 41.48422217328424], [-1.1819983709126483, 41.48411759819191], [-1.1819186429869786, 41.48439447116157], [-1.1819086089349111, 41.48471883165318], [-1.1818088946662062, 41.4848065990723], [-1.1817599963151904, 41.485034421350456], [-1.181796336743891, 41.485088406987785]], [[-1.172420396405536, 41.485620492072904], [-1.172364107264291, 41.485330475658735], [-1.172304493538518, 41.48513317751605], [-1.1723034206868626, 41.48521395242838], [-1.1721976617985164, 41.4854054695077], [-1.1721841113161446, 41.48552531618652], [-1.172299144970087, 41.485608927438506], [-1.172420396405536, 41.485620492072904]], [[-1.1607427472582588, 41.49074629081225], [-1.1612462132952441, 41.49081432908471], [-1.162185069448923, 41.49112125254769], [-1.1633504422287924, 41.49129731390324], [-1.163771761930792, 41.49132638013158], [-1.1650851039970813, 41.49123863311497], [-1.1656542104622105, 41.49102272142067], [-1.165978590548265, 41.49100186597327], [-1.1665390667839795, 41.49118094474824], [-1.1669423019578957, 41.49141380724732], [-1.1671913013267687, 41.4914239012488], [-1.1674666198146815, 41.491265264663625], [-1.1675191737520878, 41.49100301078139], [-1.1674895164438481, 41.49087373950024], [-1.16738026491929, 41.4906869065346], [-1.166890938245223, 41.49037638465608], [-1.1665740853478463, 41.4902706356763], [-1.1664855703597474, 41.490151414030116], [-1.1664038436340376, 41.489906203999006], [-1.1664128708488606, 41.48983672463338], [-1.1667405491478098, 41.48971143958014], [-1.1672373783787606, 41.4893392687136], [-1.1673238215385173, 41.48923031202103], [-1.1673264736774174, 41.48903850733579], [-1.1671719930246127, 41.48843789680266], [-1.166713671805479, 41.48845148628436], [-1.166438588794156, 41.488398282654124], [-1.1661303061074633, 41.48844344462852], [-1.1657067580347151, 41.48858737410202], [-1.165025273806515, 41.488554343596434], [-1.1651230876734369, 41.488713164981554], [-1.1655217577124184, 41.489009458249406], [-1.1656928773067607, 41.48929158220841], [-1.1657608723214334, 41.489539365840194], [-1.1644157986541366, 41.48968308744788], [-1.1643434378448738, 41.489361016517314], [-1.163321104541786, 41.48957986087537], [-1.1624681110119082, 41.488549714058465], [-1.161552249534328, 41.488955786260185], [-1.1620550581710898, 41.48955080391499], [-1.161043294117241, 41.4896963006336], [-1.160673907738137, 41.48981774979645], [-1.1602255495552243, 41.48990641007398], [-1.1600930931648397, 41.49000696921852], [-1.1602952719722044, 41.490096670414886], [-1.16041714043274, 41.490188238824906], [-1.1604728803591278, 41.49025037746201], [-1.1604606341949835, 41.49041221555517], [-1.1603781447020338, 41.490478357449135], [-1.1601728786247982, 41.49055271258977], [-1.159698057894047, 41.49068309959905], [-1.1607427472582588, 41.49074629081225]], [[-1.1701904188217025, 41.490890452810774], [-1.1709185440046281, 41.49092293377281], [-1.1714560456593526, 41.491016417883515], [-1.1719414384123177, 41.49113978456503], [-1.1725627142837929, 41.4913640245204], [-1.1731107320584038, 41.49146289204667], [-1.17419725020179, 41.491807730963004], [-1.1745299201539294, 41.49199080916034], [-1.1752370141428048, 41.492585229672414], [-1.1754359154548968, 41.49305305199962], [-1.1755518743502813, 41.49324088447532], [-1.1757404126311097, 41.493420771409625], [-1.1759889460754576, 41.493520367561445], [-1.176140261479144, 41.4935369086912], [-1.1764573029021537, 41.49345772273255], [-1.1768895508017034, 41.49340540181131], [-1.1773740660251977, 41.49353116356934], [-1.177894824240502, 41.493197425191326], [-1.177826364942209, 41.49282768786654], [-1.1777817102838273, 41.492087423537015], [-1.1777175122721293, 41.49180503050468], [-1.1773141217700402, 41.49118319507707], [-1.1770528668903382, 41.49061053769213], [-1.1765721221613146, 41.489941177714215], [-1.1763502925827871, 41.48957333040418], [-1.1761189612956349, 41.48933503136593], [-1.1755122157800766, 41.488960355647585], [-1.1750507499972012, 41.488415950729255], [-1.1748988145152033, 41.48829392750365], [-1.1743873294566194, 41.48805946419874], [-1.1734565339089087, 41.48749922390286], [-1.1731620750819953, 41.48726162741725], [-1.1729855581309734, 41.48703419059971], [-1.1726052778025267, 41.487105606988884], [-1.1725316176915772, 41.48708408071072], [-1.172334319126515, 41.486884414156094], [-1.1721561502296762, 41.486882032384905], [-1.1717994070487259, 41.48704929345816], [-1.1715126533618527, 41.487266303696195], [-1.1717038765893637, 41.48752009660803], [-1.1717299027328865, 41.48761688430847], [-1.1716590527712736, 41.48790857220628], [-1.1716632590761091, 41.488014560277946], [-1.1718028127051316, 41.48822736061692], [-1.1718718378645716, 41.488613953527825], [-1.1719776419360277, 41.48888539240251], [-1.1718515413223878, 41.48932292439661], [-1.171565710641344, 41.4897239603145], [-1.1715310430867327, 41.490049368777996], [-1.1714999350757647, 41.490154525034946], [-1.1714429064778185, 41.490218738020204], [-1.1708446355808118, 41.490322619098244], [-1.1707826815826465, 41.49035324772944], [-1.170723236054403, 41.49044372204841], [-1.170681212435373, 41.4906770527278], [-1.17014400458066, 41.490786044768555], [-1.1700684240970036, 41.49079006593975], [-1.1700120287172073, 41.490755122322504], [-1.169986100951438, 41.49051872891786], [-1.1698791744798593, 41.49047883781863], [-1.1695430331898995, 41.49046231857463], [-1.1691645661668362, 41.49055356747349], [-1.1693818473123838, 41.49076256440291], [-1.1694355924885407, 41.49098093665236], [-1.1701904188217025, 41.490890452810774]], [[-1.177881282209571, 41.485785038662], [-1.1776744461586406, 41.48557725207361], [-1.1774374337484383, 41.485262703388806], [-1.1776744344383163, 41.48557724288094], [-1.1778423002434026, 41.48574626079687], [-1.177881282209571, 41.485785038662]], [[-1.1745072391339106, 41.48642967677288], [-1.1730461821929077, 41.48651365398168], [-1.1726244915560764, 41.48636662549362], [-1.1730657503157333, 41.48705771182306], [-1.1733349053189204, 41.487326160540626], [-1.1740212545846873, 41.48779128025097], [-1.1745559423791234, 41.48809087319076], [-1.1747146366740169, 41.488138517053116], [-1.1749577333119827, 41.488012856476544], [-1.1749956147131493, 41.48781125269283], [-1.175058891701778, 41.487690663762855], [-1.17523403727577, 41.48752771633013], [-1.175651349810034, 41.48737023235954], [-1.1772670630719337, 41.486893180471256], [-1.177232682775248, 41.486773654205265], [-1.1770767074285553, 41.48665472220422], [-1.1763167751226877, 41.486527923997215], [-1.1761721772349227, 41.48652869289988], [-1.1760077065271533, 41.48655895924827], [-1.175726179000314, 41.486671402723154], [-1.1753577324683735, 41.48702556268667], [-1.1753371114666475, 41.4871713274936], [-1.1751242796015284, 41.486880359364115], [-1.1751343884544467, 41.486703714202484], [-1.175097381731895, 41.48662242498728], [-1.1748750442284448, 41.48635868652155], [-1.1745072391339106, 41.48642967677288]], [[-1.1459153325130098, 41.488933210281516], [-1.1454882195784781, 41.48894010284053], [-1.145388923212973, 41.48897768123123], [-1.145208239045412, 41.48913887219038], [-1.1456274858969302, 41.489491768964506], [-1.145709183646027, 41.48963863778213], [-1.146192462792682, 41.49002724162129], [-1.146223767720214, 41.490172847248914], [-1.1461359883387106, 41.4903777797277], [-1.146176921022017, 41.49041680901136], [-1.1463323822242923, 41.49045966621696], [-1.1464758464262033, 41.49043594908114], [-1.1471091649610798, 41.490015807578885], [-1.1471093491150988, 41.48995051062644], [-1.1468680059823406, 41.49003353765759], [-1.1467737630605879, 41.48998626375199], [-1.1466722992022205, 41.48981412801655], [-1.1466730613408422, 41.48964454064512], [-1.1465135493296394, 41.48950434423862], [-1.146246720982113, 41.489162104350186], [-1.1459153325130098, 41.488933210281516]]]}}]}