{"type": "FeatureCollection", "features": [{"type": "Feature", "properties": {"status": "ok", "version": 6, "n_rows": 9, "n_parcels": 9, "n_matched": 9, "foral": 0, "public_domain": 0, "declared_m2": {"expropriation": 31, "easement": 0, "temporary": 276}, "parcels_m2": 38336, "catastro_date": "2026-08-21", "identifier": "BOE-B-2026-30022"}, "geometry": {"type": "MultiPolygon", "coordinates": [[[[-5.482574382325309, 43.35294019337434], [-5.482551207604571, 43.35309502587834], [-5.482413412443361, 43.35333779606106], [-5.482456205640269, 43.353624635612896], [-5.482507479653084, 43.35372913933042], [-5.481872141394817, 43.35394950159153], [-5.481628067388368, 43.35385640176395], [-5.481286235207468, 43.35363395885054], [-5.481387772759247, 43.35330081984856], [-5.481359122072082, 43.35328811585377], [-5.481658030574775, 43.35296576493644], [-5.4821823945573165, 43.35301929811508], [-5.482574382325309, 43.35294019337434]]], [[[-5.536743056482598, 43.370124478898056], [-5.536335829764001, 43.37008705361355], [-5.536380456558756, 43.36940269358515], [-5.53715863088907, 43.369600142957296], [-5.537234409364965, 43.369339686036234], [-5.5371401229592605, 43.369073550121136], [-5.536706297470606, 43.36900034899727], [-5.537414783136799, 43.36869111159206], [-5.537505595045188, 43.36903266218977], [-5.537542641929205, 43.36936156589754], [-5.537472618745459, 43.36938716117009], [-5.537351318984747, 43.36967474040551], [-5.537272409167114, 43.36993409638656], [-5.53730151325491, 43.370006642387736], [-5.537534811394794, 43.369995244861265], [-5.538061896591647, 43.37006480429466], [-5.537863372333332, 43.369641581987494], [-5.537589795262363, 43.369346922974714], [-5.538359105474757, 43.36911086297227], [-5.539065407472133, 43.36880245484228], [-5.539337352681495, 43.368954433310414], [-5.539026507786762, 43.36931051386744], [-5.539893929594326, 43.3702774481615], [-5.539551715759096, 43.370346389426544], [-5.538469137479835, 43.370146511483895], [-5.538404473235846, 43.370147686533755], [-5.538483573551869, 43.370206087207954], [-5.537422361575729, 43.37007355318715], [-5.536939541034387, 43.37018451660409], [-5.5367327618850215, 43.370178641743486], [-5.536763867942697, 43.37016614486719], [-5.536711560631115, 43.37016451952675], [-5.536743056482598, 43.370124478898056]]], [[[-5.53776377464395, 43.370400169707175], [-5.538224868220315, 43.370348118964124], [-5.538405563213681, 43.37035624427535], [-5.538686035137602, 43.37051821883812], [-5.538603435779009, 43.37065061134631], [-5.5386082305852655, 43.37073001008175], [-5.538521667082949, 43.37103950901706], [-5.538558597444673, 43.37109928562527], [-5.538741607867234, 43.371170815937084], [-5.538738574828108, 43.37124519143206], [-5.538633795912109, 43.37127454378541], [-5.538212356600338, 43.37117243435211], [-5.538021918735678, 43.370933015403565], [-5.537994889590322, 43.370844296026426], [-5.5377644695764845, 43.37059613018779], [-5.53776377464395, 43.370400169707175]]]]}}]}